{"type":"FeatureCollection","features":[{"type":"Feature","geometry":{"type":"Point","coordinates":[45.1198757,-12.7228087]},"properties":{"category":"bakery","osm_id":6934987042}},{"type":"Feature","geometry":{"type":"Point","coordinates":[45.1337833,-12.7904242]},"properties":{"category":"bakery","name":"Boulangerie","osm_id":7375530865}},{"type":"Feature","geometry":{"type":"Point","coordinates":[45.1606182,-12.7334973]},"properties":{"category":"bakery","name":"Boulangerie Tournant","osm_id":8809132565}},{"type":"Feature","geometry":{"type":"Point","coordinates":[45.1339025,-12.7901486]},"properties":{"category":"bakery","name":"Boulangerie Anfiat","opening_hours":"sunrise-sunset","osm_id":9345497981}},{"type":"Feature","geometry":{"type":"Point","coordinates":[45.1282545,-12.7879036]},"properties":{"category":"bakery","name":"Tsara Antsika","osm_id":10687989994}},{"type":"Feature","geometry":{"type":"Point","coordinates":[45.1316569,-12.7935456]},"properties":{"category":"compressed_air","osm_id":12336516879}}]}