{"type":"FeatureCollection","features":[{"type":"Feature","geometry":{"type":"Point","coordinates":[55.4573558,-20.8939339]},"properties":{"category":"bakery","name":"La Parisienne","osm_id":479802533}},{"type":"Feature","geometry":{"type":"Point","coordinates":[55.4582326,-20.8961893]},"properties":{"category":"bakery","name":"Boulangerie Patisserie Ayave","osm_id":479802535}},{"type":"Feature","geometry":{"type":"Point","coordinates":[55.4636239,-20.8863973]},"properties":{"category":"bakery","name":"Première Fournée","osm_id":1534955779}},{"type":"Feature","geometry":{"type":"Point","coordinates":[55.4515866,-20.879208]},"properties":{"category":"bakery","name":"Cardinal","opening_hours":"Mo-Sa 05:30-19:00; Su 05:30-13:00","osm_id":2392897808}},{"type":"Feature","geometry":{"type":"Point","coordinates":[55.4509154,-20.8811059]},"properties":{"category":"bakery","name":"La Brioche Dorée","osm_id":3883018943}},{"type":"Feature","geometry":{"type":"Point","coordinates":[55.4631228,-20.8832832]},"properties":{"category":"shop","name":"Pignons sur Rue","opening_hours":"Tu-Sa 09:00-12:00,14:00-18:00","phone":"+262 262 41 08 08","osm_id":3970169262}},{"type":"Feature","geometry":{"type":"Point","coordinates":[55.4504473,-20.8770265]},"properties":{"category":"bakery","name":"Coco Cannelle St Denis Centre","opening_hours":"Tu-Sa 06:30-18:30; Su 06:30-13:30","phone":"+262 262 97 94 47","osm_id":4019711989}},{"type":"Feature","geometry":{"type":"Point","coordinates":[55.4469828,-20.8740074]},"properties":{"category":"bakery","name":"Matin Péi - Barachois","opening_hours":"Mo-Su 06:00-19:00","phone":"+262 262 56 05 60","osm_id":4214792991}},{"type":"Feature","geometry":{"type":"Point","coordinates":[55.4874227,-20.8923765]},"properties":{"category":"bakery","osm_id":4640121993}},{"type":"Feature","geometry":{"type":"Point","coordinates":[55.4804234,-20.8914098]},"properties":{"category":"bakery","name":"Mille épis","osm_id":4640196492}},{"type":"Feature","geometry":{"type":"Point","coordinates":[55.4541956,-20.8827625]},"properties":{"category":"bakery","name":"La Mamita","osm_id":4750808428}},{"type":"Feature","geometry":{"type":"Point","coordinates":[55.4503526,-20.8731565]},"properties":{"category":"bakery","name":"By Glad Café","phone":"+262 692 871 404","osm_id":4774370228}},{"type":"Feature","geometry":{"type":"Point","coordinates":[55.4621852,-20.8889768]},"properties":{"category":"bakery","name":"Judith By Paris Frederic","opening_hours":"Mo-Sa 05:00-19:00; Su 06:00-12:30; PH 06:00-12:00","osm_id":4975914577}},{"type":"Feature","geometry":{"type":"Point","coordinates":[55.4823137,-20.8892121]},"properties":{"category":"bakery","name":"Le Blé D'or","osm_id":4975928704}},{"type":"Feature","geometry":{"type":"Point","coordinates":[55.4498432,-20.8734948]},"properties":{"category":"shop","name":"Vélo & Oxygen","osm_id":4976070810}},{"type":"Feature","geometry":{"type":"Point","coordinates":[55.4576777,-20.8885656]},"properties":{"category":"bakery","name":"Artisal Boulanger","osm_id":4976141044}},{"type":"Feature","geometry":{"type":"Point","coordinates":[55.4552082,-20.8775684]},"properties":{"category":"bakery","name":"Paris René Paul","phone":"+262 262 41 75 10","osm_id":4977628578}},{"type":"Feature","geometry":{"type":"Point","coordinates":[55.4567621,-20.8813433]},"properties":{"category":"shop","name":"Randera Cycles","osm_id":4977774750}},{"type":"Feature","geometry":{"type":"Point","coordinates":[55.4562937,-20.8777584]},"properties":{"category":"shop","name":"E'Wheel Shop","osm_id":4978074368}},{"type":"Feature","geometry":{"type":"Point","coordinates":[55.4574471,-20.8805734]},"properties":{"category":"bakery","name":"Mascareignes","osm_id":4978074390}},{"type":"Feature","geometry":{"type":"Point","coordinates":[55.4735563,-20.8965023]},"properties":{"category":"bakery","name":"Matin Péi - Boulevard Sud","opening_hours":"Mo-Su 06:00-19:00","phone":"+262 262 50 34 66","website":"https://www.facebook.com/paulreunion974/?hc_ref=ARQShuuKZVSfQZQkRYwAOKhr_GSEQh3fG9MNfIzhv0rRqWuvXRdeEJuNGIQbAOKlOr4&fref=nf","osm_id":4980942723}},{"type":"Feature","geometry":{"type":"Point","coordinates":[55.465369,-20.8843516]},"properties":{"category":"shop","name":"Espace Cyclo Saint-Denis","opening_hours":"Mo-Sa 09:00-12:00,14:00-18:00","phone":"+262 262 47 94 05","osm_id":9044177830}},{"type":"Feature","geometry":{"type":"Point","coordinates":[55.4630764,-20.8860786]},"properties":{"category":"bakery","name":"La Fournée","osm_id":9352141107}},{"type":"Feature","geometry":{"type":"Point","coordinates":[55.4639652,-20.8836499]},"properties":{"category":"bakery","name":"Au bon pain","osm_id":9462777918}},{"type":"Feature","geometry":{"type":"Point","coordinates":[55.4636672,-20.8874992]},"properties":{"category":"bakery","name":"Le gourmand","opening_hours":"Mo-Sa 06:00-18:30; Su,PH 06:00-12:00","osm_id":9494821018}},{"type":"Feature","geometry":{"type":"Point","coordinates":[55.4548621,-20.889951]},"properties":{"category":"repair","name":"VéloKlinik","opening_hours":"We 18:00-21:00","osm_id":10628846688}},{"type":"Feature","geometry":{"type":"Point","coordinates":[55.4832496,-20.8866066]},"properties":{"category":"shop","name":"Vélocité 974","opening_hours":"Tu-Fr 08:00-17:00; Sa 08:00-12:00","phone":"+262 692 57 81 50","osm_id":11428462522}},{"type":"Feature","geometry":{"type":"Point","coordinates":[55.4676691,-20.8855347]},"properties":{"category":"shop","name":"Ecobike","opening_hours":"Mo 08:30-12:00,14:00-18:30; Tu-Fr 09:00-12:30,14:00-18:30; Sa 08:00-12:30,14:00-17:00","website":"https://www.ecobike.re/","osm_id":11428462523}},{"type":"Feature","geometry":{"type":"Point","coordinates":[55.4558515,-20.879326]},"properties":{"category":"bakery","name":"Le Royal","opening_hours":"Mo-Sa 06:00-19:00; Su 06:00-12:00","phone":"+262 262 78 95 46","osm_id":12009307225}},{"type":"Feature","geometry":{"type":"Point","coordinates":[55.4437399,-20.8839775]},"properties":{"category":"repair","osm_id":12606343765}},{"type":"Feature","geometry":{"type":"Point","coordinates":[55.4509539,-20.8812145]},"properties":{"category":"bakery","name":"Antonetti","osm_id":12725568386}},{"type":"Feature","geometry":{"type":"Point","coordinates":[55.4979411,-20.8946924]},"properties":{"category":"bakery","name":"La Cardinale","osm_id":12902568587}},{"type":"Feature","geometry":{"type":"Point","coordinates":[55.4683901,-20.885754]},"properties":{"category":"bakery","name":"L'alizée","osm_id":12953700750}},{"type":"Feature","geometry":{"type":"Point","coordinates":[55.4490374,-20.8881681]},"properties":{"category":"bakery","name":"L'art des Délices","osm_id":13049323343}},{"type":"Feature","geometry":{"type":"Point","coordinates":[55.4507219,-20.8777865]},"properties":{"category":"bakery","name":"Simone","opening_hours":"Mo-Sa 06:00-19:00; Su 07:00-13:00","osm_id":13204585858}},{"type":"Feature","geometry":{"type":"Point","coordinates":[55.4560197,-20.8929661]},"properties":{"category":"bakery","name":"Dream Cake","osm_id":13312745308}},{"type":"Feature","geometry":{"type":"Point","coordinates":[55.4888454,-20.8863724]},"properties":{"category":"repair","osm_id":13614662969}},{"type":"Feature","geometry":{"type":"Point","coordinates":[55.4873323,-20.8934825]},"properties":{"category":"repair","osm_id":13690333592}},{"type":"Feature","geometry":{"type":"Point","coordinates":[55.4502038,-20.872201]},"properties":{"category":"repair","osm_id":13805522452}},{"type":"Feature","geometry":{"type":"Point","coordinates":[55.4562159,-20.8804375]},"properties":{"category":"bakery","name":"Boulangerie Le Grillon","phone":"+262 262 21 41 82","osm_id":13979671615}},{"type":"Feature","geometry":{"type":"Point","coordinates":[55.4777506,-20.8901203]},"properties":{"category":"compressed_air","osm_id":13988663769}},{"type":"Feature","geometry":{"type":"Point","coordinates":[55.4230335,-20.8890598]},"properties":{"category":"bakery","name":"Les délicatesses Casta","osm_id":14095939230}},{"type":"Feature","geometry":{"type":"Point","coordinates":[55.445352,-20.8890059]},"properties":{"category":"shop","name":"974 e-roul","phone":"+262 693 87 92 20","osm_id":14121742127}},{"type":"Feature","geometry":{"type":"Point","coordinates":[55.4554887,-20.8806287]},"properties":{"category":"bakery","name":"Aux croissants de Lune","phone":"+262262234033","osm_id":14132735504}}]}