{"type":"FeatureCollection","features":[{"type":"Feature","geometry":{"type":"Point","coordinates":[55.2940976,-20.9323306]},"properties":{"category":"bakery","name":"Brioche Dorée","opening_hours":"Mo-Sa 07:30-19:30; Su off","osm_id":4005543240}},{"type":"Feature","geometry":{"type":"Point","coordinates":[55.2962992,-20.9860793]},"properties":{"category":"bakery","name":"Île aux Pains","osm_id":4625130367}},{"type":"Feature","geometry":{"type":"Point","coordinates":[55.2937881,-20.9882222]},"properties":{"category":"bakery","name":"Brioche Dorée","opening_hours":"Mo-Su 08:30-20:30","osm_id":9330102387}},{"type":"Feature","geometry":{"type":"Point","coordinates":[55.290019,-20.9373972]},"properties":{"category":"shop","name":"Le cyclo","osm_id":12030696914}},{"type":"Feature","geometry":{"type":"Point","coordinates":[55.2918559,-20.943875]},"properties":{"category":"repair","osm_id":12041304380}}]}