{"type":"FeatureCollection","features":[{"type":"Feature","geometry":{"type":"Point","coordinates":[55.3236143,-20.9555239]},"properties":{"category":"bakery","name":"Castel","osm_id":1861830890}},{"type":"Feature","geometry":{"type":"Point","coordinates":[55.3268303,-20.9486287]},"properties":{"category":"bakery","name":"La Bigoudenne","osm_id":1861830895}},{"type":"Feature","geometry":{"type":"Point","coordinates":[55.3328851,-20.9333123]},"properties":{"category":"bakery","name":"Les 3 épis","osm_id":2318323705}},{"type":"Feature","geometry":{"type":"Point","coordinates":[55.3342851,-20.9321354]},"properties":{"category":"bakery","name":"Boulangerie pâtisserie Damien Guillotin","opening_hours":"Mo-Su 05:00-17:00","osm_id":2321463947}},{"type":"Feature","geometry":{"type":"Point","coordinates":[55.3287242,-20.9778762]},"properties":{"category":"bakery","name":"Île aux Pains","osm_id":4171968166}},{"type":"Feature","geometry":{"type":"Point","coordinates":[55.3320163,-20.9647065]},"properties":{"category":"bakery","name":"La Bigoudenne","opening_hours":"Mo-Sa 06:15-13:00,14:30-19:00; PH,Su 06:30-13:00","osm_id":4356839760}},{"type":"Feature","geometry":{"type":"Point","coordinates":[55.3772141,-20.9826058]},"properties":{"category":"bakery","osm_id":5159085437}},{"type":"Feature","geometry":{"type":"Point","coordinates":[55.3340303,-20.9274225]},"properties":{"category":"bakery","osm_id":6920913712}},{"type":"Feature","geometry":{"type":"Point","coordinates":[55.3297012,-20.9456362]},"properties":{"category":"bakery","name":"Le Saint Albius","phone":"+262 2 62 49 03 83","osm_id":6949257742}},{"type":"Feature","geometry":{"type":"Point","coordinates":[55.3312142,-20.9522881]},"properties":{"category":"bakery","osm_id":6984582343}},{"type":"Feature","geometry":{"type":"Point","coordinates":[55.3454696,-20.928201]},"properties":{"category":"bakery","name":"Le Saint Albius","opening_hours":"Tu-Sa 06:00-19:00; Su 06:00-12:30","osm_id":8310954360}},{"type":"Feature","geometry":{"type":"Point","coordinates":[55.3265076,-20.9635983]},"properties":{"category":"bakery","name":"D et F. Chez Daisy et Fabrice","opening_hours":"Mo-Sa 06:00-18:15; Su 06:00-12:15","phone":"+262 262 27 56 74","osm_id":9183517894}},{"type":"Feature","geometry":{"type":"Point","coordinates":[55.3200835,-20.9628943]},"properties":{"category":"bakery","name":"Les Co-Pains","opening_hours":"Mo,Tu,Th-Sa 05:30-17:00; We,Su 05:30-12:00","osm_id":9939387981}},{"type":"Feature","geometry":{"type":"Point","coordinates":[55.3091366,-20.9567809]},"properties":{"category":"bakery","name":"Brioche Dorée","osm_id":10212368615}},{"type":"Feature","geometry":{"type":"Point","coordinates":[55.3315613,-20.9281595]},"properties":{"category":"repair","osm_id":10704806014}},{"type":"Feature","geometry":{"type":"Point","coordinates":[55.3003766,-20.9332785]},"properties":{"category":"repair","osm_id":12041304379}},{"type":"Feature","geometry":{"type":"Point","coordinates":[55.320223,-20.9625154]},"properties":{"category":"repair","osm_id":12041304381}},{"type":"Feature","geometry":{"type":"Point","coordinates":[55.3416206,-20.9240911]},"properties":{"category":"bakery","name":"Madame Cookies","osm_id":13909743777}},{"type":"Feature","geometry":{"type":"Point","coordinates":[55.3334965,-20.9309242]},"properties":{"category":"bakery","name":"La bigoudenne","osm_id":14121493501}}]}