{"type":"FeatureCollection","features":[{"type":"Feature","geometry":{"type":"Point","coordinates":[55.4751969,-20.9178239]},"properties":{"category":"bakery","name":"La Paysanne","phone":"+262 262 28 27 76","osm_id":1774288591}},{"type":"Feature","geometry":{"type":"Point","coordinates":[55.49192,-20.9022988]},"properties":{"category":"bakery","name":"Boulangerie tradition de Bourbon","osm_id":4472134627}},{"type":"Feature","geometry":{"type":"Point","coordinates":[55.4933745,-20.9262759]},"properties":{"category":"bakery","name":"Les Laurettes","opening_hours":"Mo-Sa 06:00-18:15; Su off; PH 06:30-12:30","phone":"+262 262 46 96 58","osm_id":4990521275}},{"type":"Feature","geometry":{"type":"Point","coordinates":[55.4943663,-20.9187142]},"properties":{"category":"bakery","name":"PLP Pâtisserie","opening_hours":"Mo-Sa 06:00-19:00; Su 06:00-13:00","osm_id":4990606802}},{"type":"Feature","geometry":{"type":"Point","coordinates":[55.4947508,-20.920809]},"properties":{"category":"bakery","name":"La Dame Blanche","phone":"+262 262 19 62 33","osm_id":7406379429}},{"type":"Feature","geometry":{"type":"Point","coordinates":[55.4963769,-20.9104011]},"properties":{"category":"bakery","name":"L'atelier des saveurs","osm_id":7465923734}},{"type":"Feature","geometry":{"type":"Point","coordinates":[55.4756116,-20.9175461]},"properties":{"category":"bakery","name":"Au Bon Pain du Pic Adam","phone":"+262 262 97 21 80","osm_id":9657923637}},{"type":"Feature","geometry":{"type":"Point","coordinates":[55.4352784,-20.9230568]},"properties":{"category":"bakery","name":"Chez Mman","osm_id":13115769565}},{"type":"Feature","geometry":{"type":"Point","coordinates":[55.4010536,-20.9080626]},"properties":{"category":"bakery","name":"Boulangerie pâtisserie de Saint Bernard","osm_id":14019215761}}]}