{"type":"FeatureCollection","features":[{"type":"Feature","geometry":{"type":"Point","coordinates":[55.7475267,-21.0887131]},"properties":{"category":"bakery","name":"Le Petit St Pierre","osm_id":1695989518}},{"type":"Feature","geometry":{"type":"Point","coordinates":[55.7461909,-21.0813929]},"properties":{"category":"bakery","name":"La Dartoise","osm_id":1696037675}},{"type":"Feature","geometry":{"type":"Point","coordinates":[55.7209081,-21.0408783]},"properties":{"category":"bakery","name":"La Panetiére","osm_id":2829052232}},{"type":"Feature","geometry":{"type":"Point","coordinates":[55.7173044,-21.0382913]},"properties":{"category":"bakery","name":"Boulangerie Pâtisserie Paris Fils","osm_id":2845623005}},{"type":"Feature","geometry":{"type":"Point","coordinates":[55.7161248,-21.0397411]},"properties":{"category":"bakery","name":"La Chocolatine du Bouvet","osm_id":2847739519}},{"type":"Feature","geometry":{"type":"Point","coordinates":[55.7194403,-21.039996]},"properties":{"category":"bakery","name":"Boulangerie LOREMI","osm_id":2854617717}},{"type":"Feature","geometry":{"type":"Point","coordinates":[55.7202068,-21.0403236]},"properties":{"category":"shop","name":"Choaïb Cycles","phone":"+262 2 62 50 29 93","osm_id":4975796187}},{"type":"Feature","geometry":{"type":"Point","coordinates":[55.7115225,-21.0344478]},"properties":{"category":"bakery","name":"Paris Nicolas","osm_id":4976220702}},{"type":"Feature","geometry":{"type":"Point","coordinates":[55.7047699,-21.0681385]},"properties":{"category":"bakery","name":"Au Fournil de Camille","phone":"+262 2 62 28 58 41","osm_id":5372430925}},{"type":"Feature","geometry":{"type":"Point","coordinates":[55.703617,-21.0492598]},"properties":{"category":"bakery","name":"Boulangerie Carron","osm_id":9017339465}},{"type":"Feature","geometry":{"type":"Point","coordinates":[55.7122566,-21.0331545]},"properties":{"category":"bakery","name":"Epi'doré","osm_id":10855510521}},{"type":"Feature","geometry":{"type":"Point","coordinates":[55.7043739,-21.0341697]},"properties":{"category":"bakery","name":"Brioche Dorée","osm_id":12307247332}}]}