{"type":"FeatureCollection","features":[{"type":"Feature","geometry":{"type":"Point","coordinates":[55.2876566,-21.1740826]},"properties":{"category":"bakery","name":"Les Délices de Charlotte","osm_id":1720182176}},{"type":"Feature","geometry":{"type":"Point","coordinates":[55.2880467,-21.1733915]},"properties":{"category":"bakery","name":"Pâtisserie D. Chong","osm_id":1720182193}},{"type":"Feature","geometry":{"type":"Point","coordinates":[55.2875913,-21.1678537]},"properties":{"category":"bakery","osm_id":1720182197}},{"type":"Feature","geometry":{"type":"Point","coordinates":[55.2867646,-21.169735]},"properties":{"category":"shop","name":"Rando Réunion Passion","website":"http://www.veloreunion.com","osm_id":1720205010}},{"type":"Feature","geometry":{"type":"Point","coordinates":[55.2964517,-21.1054571]},"properties":{"category":"bakery","name":"Macatias Lontan","osm_id":5612283826}},{"type":"Feature","geometry":{"type":"Point","coordinates":[55.2878808,-21.1674603]},"properties":{"category":"bakery","osm_id":5653156331}},{"type":"Feature","geometry":{"type":"Point","coordinates":[55.2527562,-21.1065755]},"properties":{"category":"bakery","name":"La Baguette","osm_id":6509562095}},{"type":"Feature","geometry":{"type":"Point","coordinates":[55.2875991,-21.1667428]},"properties":{"category":"bakery","name":"La Metisse","osm_id":9077160092}},{"type":"Feature","geometry":{"type":"Point","coordinates":[55.2879597,-21.1750123]},"properties":{"category":"bakery","name":"So Chic Sugar - Biscuits Artisanaux","opening_hours":"Mo-Fr 09:00-13:00","phone":"+33 7 60 77 09 28","website":"https://www.sochicsugar.com/","osm_id":11098880205}}]}