{"type":"FeatureCollection","features":[{"type":"Feature","geometry":{"type":"Point","coordinates":[55.6114646,-21.3773452]},"properties":{"category":"bakery","name":"Crousti Pain","osm_id":1313787482}},{"type":"Feature","geometry":{"type":"Point","coordinates":[55.6138683,-21.3807089]},"properties":{"category":"bakery","name":"Deloret","osm_id":1313787494}},{"type":"Feature","geometry":{"type":"Point","coordinates":[55.6128497,-21.3807972]},"properties":{"category":"bakery","name":"Ronde des Pains","osm_id":1313787505}},{"type":"Feature","geometry":{"type":"Point","coordinates":[55.6209818,-21.3779909]},"properties":{"category":"bakery","name":"Les gourmandises de Léa","osm_id":1342040102}},{"type":"Feature","geometry":{"type":"Point","coordinates":[55.6151417,-21.377417]},"properties":{"category":"bakery","name":"Castel","osm_id":3643563794}},{"type":"Feature","geometry":{"type":"Point","coordinates":[55.6241892,-21.3791063]},"properties":{"category":"bakery","name":"Le Liotus","osm_id":3783342478}},{"type":"Feature","geometry":{"type":"Point","coordinates":[55.6470421,-21.3816035]},"properties":{"category":"bakery","name":"La Langevine","osm_id":5037716101}},{"type":"Feature","geometry":{"type":"Point","coordinates":[55.6114277,-21.38085]},"properties":{"category":"bakery","name":"Délices et gourmandises","opening_hours":"Mo-Sa 05:30-19:00; Su 05:30-12:30","phone":"+262 692 39 53 26","osm_id":5603645421}},{"type":"Feature","geometry":{"type":"Point","coordinates":[55.635899,-21.3799908]},"properties":{"category":"bakery","osm_id":5603840626}},{"type":"Feature","geometry":{"type":"Point","coordinates":[55.6193826,-21.3763669]},"properties":{"category":"bakery","name":"Le Madras","osm_id":7004612385}},{"type":"Feature","geometry":{"type":"Point","coordinates":[55.601175,-21.3723668]},"properties":{"category":"bakery","name":"Paul","osm_id":7010614746}},{"type":"Feature","geometry":{"type":"Point","coordinates":[55.6701109,-21.3726957]},"properties":{"category":"bakery","name":"Le Fournil de Vincendo","osm_id":9081659949}},{"type":"Feature","geometry":{"type":"Point","coordinates":[55.6354171,-21.3798378]},"properties":{"category":"bakery","name":"Boulangerie Pâtisserie du Piton","osm_id":9081659960}},{"type":"Feature","geometry":{"type":"Point","coordinates":[55.6660493,-21.3750451]},"properties":{"category":"bakery","name":"Castel","osm_id":9581614061}},{"type":"Feature","geometry":{"type":"Point","coordinates":[55.623426,-21.3743462]},"properties":{"category":"bakery","name":"Chez Vitry","osm_id":11757183066}}]}