{"type":"FeatureCollection","features":[{"type":"Feature","geometry":{"type":"Point","coordinates":[55.47478,-21.3424173]},"properties":{"category":"bakery","name":"Coco Cannelle","osm_id":2054712098}},{"type":"Feature","geometry":{"type":"Point","coordinates":[55.4758609,-21.3423249]},"properties":{"category":"bakery","name":"Lamie Kreol","osm_id":2054717443}},{"type":"Feature","geometry":{"type":"Point","coordinates":[55.4726564,-21.3395011]},"properties":{"category":"bakery","name":"Le fournil de maître Jean","osm_id":2063525202}},{"type":"Feature","geometry":{"type":"Point","coordinates":[55.4746573,-21.3378139]},"properties":{"category":"bakery","name":"Boulangerie D. Morlet","osm_id":2063539815}},{"type":"Feature","geometry":{"type":"Point","coordinates":[55.4749041,-21.3384249]},"properties":{"category":"bakery","name":"Boulangerie Manciet","opening_hours":"Tu-Sa 06:00-12:30, 14:30-18:30; Su 06:00-12:30","osm_id":2063541743}},{"type":"Feature","geometry":{"type":"Point","coordinates":[55.4759018,-21.3381201]},"properties":{"category":"bakery","osm_id":2063542846}},{"type":"Feature","geometry":{"type":"Point","coordinates":[55.4767119,-21.3405085]},"properties":{"category":"bakery","name":"Boulangerie Brioche Dorée","osm_id":2063551577}},{"type":"Feature","geometry":{"type":"Point","coordinates":[55.4986138,-21.3452627]},"properties":{"category":"compressed_air","osm_id":4015123703}},{"type":"Feature","geometry":{"type":"Point","coordinates":[55.4609964,-21.3404105]},"properties":{"category":"shop","name":"Cyclozone","osm_id":4015858587}},{"type":"Feature","geometry":{"type":"Point","coordinates":[55.4616059,-21.3403016]},"properties":{"category":"bakery","name":"Passion du pain","osm_id":4016294290}},{"type":"Feature","geometry":{"type":"Point","coordinates":[55.4709851,-21.3436841]},"properties":{"category":"bakery","name":"Boulangerie du Front de Mer","osm_id":4030175664}},{"type":"Feature","geometry":{"type":"Point","coordinates":[55.4871683,-21.342502]},"properties":{"category":"bakery","name":"Sucré salé","osm_id":4035200437}},{"type":"Feature","geometry":{"type":"Point","coordinates":[55.4987786,-21.3450635]},"properties":{"category":"compressed_air","osm_id":4072069425}},{"type":"Feature","geometry":{"type":"Point","coordinates":[55.4922404,-21.3011371]},"properties":{"category":"bakery","name":"Boulangerie Patisserie","osm_id":4226636594}},{"type":"Feature","geometry":{"type":"Point","coordinates":[55.4913928,-21.3004049]},"properties":{"category":"bakery","name":"Le delice des bambous","osm_id":4226636595}},{"type":"Feature","geometry":{"type":"Point","coordinates":[55.431333,-21.3025776]},"properties":{"category":"bakery","name":"Passion Exotique","osm_id":4314392390}},{"type":"Feature","geometry":{"type":"Point","coordinates":[55.4709313,-21.3352474]},"properties":{"category":"bakery","name":"Boulangerie","osm_id":4316040491}},{"type":"Feature","geometry":{"type":"Point","coordinates":[55.4773109,-21.343721]},"properties":{"category":"shop","name":"Mobilboard Réunion","website":"https://www.mobilboard.com/fr/agence/segway/la-reunion","osm_id":4706171303}},{"type":"Feature","geometry":{"type":"Point","coordinates":[55.4771958,-21.3350915]},"properties":{"category":"bakery","name":"Le Fournil","osm_id":4708736172}},{"type":"Feature","geometry":{"type":"Point","coordinates":[55.4556703,-21.3124062]},"properties":{"category":"bakery","name":"Cœur 2 blé","opening_hours":"Mo-Fr 05:00-20:00; Sa 06:00-20:00","osm_id":4870232821}},{"type":"Feature","geometry":{"type":"Point","coordinates":[55.4691526,-21.3408184]},"properties":{"category":"bakery","name":"La Maison du Cookie","osm_id":4983744871}},{"type":"Feature","geometry":{"type":"Point","coordinates":[55.4594349,-21.3366906]},"properties":{"category":"bakery","name":"La Carnesiénne","osm_id":4985403442}},{"type":"Feature","geometry":{"type":"Point","coordinates":[55.4666732,-21.3353867]},"properties":{"category":"bakery","name":"Certat","osm_id":4985457972}},{"type":"Feature","geometry":{"type":"Point","coordinates":[55.4785502,-21.3412108]},"properties":{"category":"bakery","name":"Boulangerie Weil","osm_id":5077494614}},{"type":"Feature","geometry":{"type":"Point","coordinates":[55.4765394,-21.3407843]},"properties":{"category":"bakery","name":"Paul","osm_id":5179678342}},{"type":"Feature","geometry":{"type":"Point","coordinates":[55.4734639,-21.339759]},"properties":{"category":"bakery","name":"Les Délicatesses Casta","osm_id":5182976222}},{"type":"Feature","geometry":{"type":"Point","coordinates":[55.4701324,-21.3409173]},"properties":{"category":"bakery","name":"La tartefine","osm_id":5242401018}},{"type":"Feature","geometry":{"type":"Point","coordinates":[55.4710214,-21.3388553]},"properties":{"category":"bakery","name":"Sensation","osm_id":5242401743}},{"type":"Feature","geometry":{"type":"Point","coordinates":[55.476439,-21.3146458]},"properties":{"category":"bakery","name":"Au Paradis Bourbon","phone":"+262 262 26 41 89","osm_id":5598126922}},{"type":"Feature","geometry":{"type":"Point","coordinates":[55.4542656,-21.3121992]},"properties":{"category":"shop","name":"Happy Bikes","opening_hours":"Tu-Sa 10:00-18:00","phone":"+262 262 57 00 31","osm_id":6464188509}},{"type":"Feature","geometry":{"type":"Point","coordinates":[55.4769257,-21.3144264]},"properties":{"category":"bakery","name":"Ô Délices du Paradis","phone":"+262 262 26 53 30","osm_id":7309874122}},{"type":"Feature","geometry":{"type":"Point","coordinates":[55.4716,-21.3265791]},"properties":{"category":"bakery","osm_id":9340328836}},{"type":"Feature","geometry":{"type":"Point","coordinates":[55.493578,-21.3429937]},"properties":{"category":"bakery","name":"Matin Péi - Saint Pierre (Terre Sainte)","opening_hours":"Mo-Fr 06:30-18:00; Sa 06:30-12:30","phone":"+262 262 24 73 64","website":"https://www.paul-reunion.re/","osm_id":9341609331}},{"type":"Feature","geometry":{"type":"Point","coordinates":[55.4859847,-21.3457685]},"properties":{"category":"bakery","name":"Pâtisserie Nid d'Abeille","osm_id":9366447317}},{"type":"Feature","geometry":{"type":"Point","coordinates":[55.4734743,-21.335427]},"properties":{"category":"bakery","name":"Bosco","osm_id":11158567775}},{"type":"Feature","geometry":{"type":"Point","coordinates":[55.4771428,-21.3383093]},"properties":{"category":"bakery","name":"Dreams Donuts","phone":"+262 262 33 30 43","website":"https://www.dreamsdonuts.be/la-reunion","osm_id":12919344502}},{"type":"Feature","geometry":{"type":"Point","coordinates":[55.4751983,-21.3301814]},"properties":{"category":"shop","name":"Reunicycle","osm_id":13912440083}}]}