{"type":"FeatureCollection","features":[{"type":"Feature","geometry":{"type":"Point","coordinates":[166.4455535,-22.3022846]},"properties":{"category":"bakery","name":"Le petit Péché Mignon","phone":"+687 74 58 69","osm_id":1294126432}},{"type":"Feature","geometry":{"type":"Point","coordinates":[166.4505719,-22.3029189]},"properties":{"category":"bakery","osm_id":2113202753}},{"type":"Feature","geometry":{"type":"Point","coordinates":[166.4388869,-22.302181]},"properties":{"category":"bakery","name":"Boulangerie Pâtisserie Saint-Honoré VATA","opening_hours":"Mo-Su 06:00-19:00","phone":"+687 321580","website":"https://boulangerie-saint-honore-noumea.nc/","osm_id":14205303497}}]}