{"type":"FeatureCollection","features":[{"type":"Feature","geometry":{"type":"Point","coordinates":[-61.0535626,14.5496679]},"properties":{"category":"bakery","name":"Douceurs Iléen'n","osm_id":3422427230}},{"type":"Feature","geometry":{"type":"Point","coordinates":[-61.0323254,14.5359685]},"properties":{"category":"bakery","name":"La Guérande","opening_hours":"Tu-Su 05:30-20:00","website":"https://boulangerielaguerande.fr","osm_id":5096489892}},{"type":"Feature","geometry":{"type":"Point","coordinates":[-61.043487,14.5983401]},"properties":{"category":"bakery","name":"Eclat de mie","opening_hours":"Mo-Fr 06:00-18:00; Sa,Su 06:00-13:00","phone":"+596 596 75 16 17","osm_id":5104280512}},{"type":"Feature","geometry":{"type":"Point","coordinates":[-61.0344211,14.5385946]},"properties":{"category":"bakery","name":"La Polka","osm_id":5322145036}}]}