{"type":"FeatureCollection","features":[{"type":"Feature","geometry":{"type":"Point","coordinates":[-60.9385382,14.6779858]},"properties":{"category":"bakery","name":"Le Vieux Moulin","osm_id":6845221735}},{"type":"Feature","geometry":{"type":"Point","coordinates":[-60.938203,14.6792494]},"properties":{"category":"bakery","osm_id":6845221736}},{"type":"Feature","geometry":{"type":"Point","coordinates":[-60.9450814,14.6737078]},"properties":{"category":"bakery","osm_id":6877921342}},{"type":"Feature","geometry":{"type":"Point","coordinates":[-60.9389039,14.6775171]},"properties":{"category":"bakery","name":"La Chouquette","osm_id":10091881688}},{"type":"Feature","geometry":{"type":"Point","coordinates":[-60.9737872,14.6920517]},"properties":{"category":"bakery","name":"Les Délices de Sylvie","osm_id":11210650933}},{"type":"Feature","geometry":{"type":"Point","coordinates":[-60.9381679,14.6873194]},"properties":{"category":"bakery","name":"Baguet Shop","osm_id":12798664790}},{"type":"Feature","geometry":{"type":"Point","coordinates":[-60.9388318,14.6856538]},"properties":{"category":"bakery","name":"Brioche Dorée","osm_id":12798667176}}]}