{"type":"FeatureCollection","features":[{"type":"Feature","geometry":{"type":"Point","coordinates":[-61.315886,15.8830672]},"properties":{"category":"bakery","name":"Boulangerie Pâtisserie Délice","osm_id":4751792627}},{"type":"Feature","geometry":{"type":"Point","coordinates":[-61.3176886,15.8863196]},"properties":{"category":"bakery","name":"Boulangerie Heldire","osm_id":5478434140}},{"type":"Feature","geometry":{"type":"Point","coordinates":[-61.3152084,15.88271]},"properties":{"category":"bakery","name":"Le Soleil Levant","osm_id":9436705020}},{"type":"Feature","geometry":{"type":"Point","coordinates":[-61.3163505,15.8884772]},"properties":{"category":"compressed_air","osm_id":12877931681}}]}