{"type":"FeatureCollection","features":[{"type":"Feature","geometry":{"type":"Point","coordinates":[-61.64576,15.9752461]},"properties":{"category":"bakery","name":"Baguépi","osm_id":298194717}},{"type":"Feature","geometry":{"type":"Point","coordinates":[-61.6921701,15.9942923]},"properties":{"category":"bakery","osm_id":2972416900}},{"type":"Feature","geometry":{"type":"Point","coordinates":[-61.6400203,15.9781579]},"properties":{"category":"bakery","name":"L'épi du coin","osm_id":11991026303}},{"type":"Feature","geometry":{"type":"Point","coordinates":[-61.6881384,15.9942398]},"properties":{"category":"bakery","osm_id":11991120171}}]}