{"type":"FeatureCollection","features":[{"type":"Feature","geometry":{"type":"Point","coordinates":[-61.7213611,15.9997985]},"properties":{"category":"bakery","name":"Ô Pains","osm_id":2951850191}},{"type":"Feature","geometry":{"type":"Point","coordinates":[-61.7166147,15.9847449]},"properties":{"category":"bakery","name":"Canne et Blé","osm_id":2951938420}},{"type":"Feature","geometry":{"type":"Point","coordinates":[-61.7218324,15.9998015]},"properties":{"category":"bakery","name":"L'ami Roro","osm_id":3474105193}},{"type":"Feature","geometry":{"type":"Point","coordinates":[-61.729825,15.9942551]},"properties":{"category":"bakery","name":"Boulangerie Patisserie","osm_id":3996720206}},{"type":"Feature","geometry":{"type":"Point","coordinates":[-61.7203163,15.9927748]},"properties":{"category":"bakery","name":"Le P Ti Parisien","osm_id":11988917937}}]}