{"type":"FeatureCollection","features":[{"type":"Feature","geometry":{"type":"Point","coordinates":[-61.5647212,16.0428598]},"properties":{"category":"bakery","name":"Epi Centre","osm_id":1497971728}},{"type":"Feature","geometry":{"type":"Point","coordinates":[-61.5630026,16.0982815]},"properties":{"category":"bakery","name":"Boulangerie Kannel","opening_hours":"Mo-Fr 05:00-18:00; Sa 05:00-13:00; PH 06:00-13:00; Su off","osm_id":2973731429}},{"type":"Feature","geometry":{"type":"Point","coordinates":[-61.5647629,16.0432073]},"properties":{"category":"bakery","name":"Boulangerie Kannel","opening_hours":"Mo-Fr 05:30-14:00; Sa 05:30-13:00","phone":"+590 590 802 880","osm_id":2991394768}},{"type":"Feature","geometry":{"type":"Point","coordinates":[-61.5659396,16.0423246]},"properties":{"category":"bakery","name":"Boulangerie Ménard","osm_id":2991394769}},{"type":"Feature","geometry":{"type":"Point","coordinates":[-61.5636726,16.0519604]},"properties":{"category":"bakery","name":"Roger Boulangerie Patisserie","opening_hours":"Mo-Sa 07:00-19:30; Su 07:00-13:00","osm_id":3742087729}},{"type":"Feature","geometry":{"type":"Point","coordinates":[-61.5671969,16.0364028]},"properties":{"category":"bakery","name":"Daniel","osm_id":13446056144}},{"type":"Feature","geometry":{"type":"Point","coordinates":[-61.5839917,16.0345089]},"properties":{"category":"bakery","osm_id":13539445403}},{"type":"Feature","geometry":{"type":"Point","coordinates":[-61.5644901,16.046854]},"properties":{"category":"bakery","osm_id":13591300692}}]}