{"type":"FeatureCollection","features":[{"type":"Feature","geometry":{"type":"Point","coordinates":[-61.7749381,16.1612081]},"properties":{"category":"bakery","name":"Four des Îles","osm_id":6371421185}},{"type":"Feature","geometry":{"type":"Point","coordinates":[-61.7699846,16.1316589]},"properties":{"category":"bakery","name":"Viennoiserie Bel José","phone":"+590 690 532 129","osm_id":9455165374}},{"type":"Feature","geometry":{"type":"Point","coordinates":[-61.7741112,16.1608664]},"properties":{"category":"compressed_air","osm_id":10272082672}}]}