{"type":"FeatureCollection","features":[{"type":"Feature","geometry":{"type":"Point","coordinates":[-61.4815915,16.2065568]},"properties":{"category":"bakery","name":"La Baguette Dorée","osm_id":1331197559}},{"type":"Feature","geometry":{"type":"Point","coordinates":[-61.4993753,16.2283166]},"properties":{"category":"bakery","osm_id":2087073928}},{"type":"Feature","geometry":{"type":"Point","coordinates":[-61.4703363,16.2072917]},"properties":{"category":"bakery","name":"FDF Dampierre","opening_hours":"Mo-Sa 06:30-19:30; Su 06:30-13:00","phone":"+590 590 21 05 33","osm_id":3833981309}},{"type":"Feature","geometry":{"type":"Point","coordinates":[-61.479242,16.2156844]},"properties":{"category":"bakery","name":"Les Falières","osm_id":3974878053}},{"type":"Feature","geometry":{"type":"Point","coordinates":[-61.4944347,16.2062714]},"properties":{"category":"bakery","name":"Patisserie Labeyrie","osm_id":10173635918}},{"type":"Feature","geometry":{"type":"Point","coordinates":[-61.4929411,16.2618588]},"properties":{"category":"compressed_air","osm_id":10315720146}},{"type":"Feature","geometry":{"type":"Point","coordinates":[-61.4948623,16.2083787]},"properties":{"category":"bakery","name":"Jenny's Cake Design - Cake Design","opening_hours":"Mo-Sa 08:30-18:30","phone":"+590 690 25 99 24","website":"https://www.instagram.com/jennys_cake_design/","osm_id":10759399105}},{"type":"Feature","geometry":{"type":"Point","coordinates":[-61.4566364,16.2069244]},"properties":{"category":"bakery","name":"Boulangerie Gahagnon","osm_id":13314955360}}]}