{"type":"FeatureCollection","features":[{"type":"Feature","geometry":{"type":"Point","coordinates":[-61.3549349,16.332317]},"properties":{"category":"bakery","osm_id":1925895552}},{"type":"Feature","geometry":{"type":"Point","coordinates":[-61.3430813,16.3246901]},"properties":{"category":"bakery","name":"Boulangerie de Sergent","osm_id":1953679996}},{"type":"Feature","geometry":{"type":"Point","coordinates":[-61.3490599,16.3250073]},"properties":{"category":"shop","name":"ASN Avenue Sport & Nature","osm_id":1966227274}},{"type":"Feature","geometry":{"type":"Point","coordinates":[-61.3657563,16.3338436]},"properties":{"category":"bakery","osm_id":8980321750}},{"type":"Feature","geometry":{"type":"Point","coordinates":[-61.3501512,16.3346341]},"properties":{"category":"compressed_air","name":"Pompe à air","osm_id":9313276749}},{"type":"Feature","geometry":{"type":"Point","coordinates":[-61.355274,16.3340831]},"properties":{"category":"compressed_air","osm_id":9433715584}},{"type":"Feature","geometry":{"type":"Point","coordinates":[-61.331517,16.3266893]},"properties":{"category":"bakery","name":"Pain an nou","opening_hours":"Mo-Fr 05:30-19:00; Su, PH 06:00-13:00; Sa 06:00-19:00","osm_id":12753277425}}]}