{"type":"FeatureCollection","features":[{"type":"Feature","geometry":{"type":"Point","coordinates":[-63.0770988,18.0690011]},"properties":{"category":"bakery","name":"Les Délices du Palais","osm_id":3291688600}},{"type":"Feature","geometry":{"type":"Point","coordinates":[-63.080348,18.0719877]},"properties":{"category":"bakery","name":"Au Pain Gourmand","osm_id":3375689672}},{"type":"Feature","geometry":{"type":"Point","coordinates":[-63.0588811,18.0994429]},"properties":{"category":"bakery","name":"French Bakery Pastry Shop","osm_id":3690786575}},{"type":"Feature","geometry":{"type":"Point","coordinates":[-63.0961287,18.0584625]},"properties":{"category":"bakery","name":"Hispagnola","osm_id":3982843165}},{"type":"Feature","geometry":{"type":"Point","coordinates":[-63.0398726,18.0961521]},"properties":{"category":"bakery","name":"L'Express","osm_id":4614603206}}]}