{"type":"FeatureCollection","features":[{"type":"Feature","geometry":{"type":"Point","coordinates":[9.2762657,41.5977162]},"properties":{"category":"bakery","osm_id":512024418}},{"type":"Feature","geometry":{"type":"Point","coordinates":[9.2788726,41.5832415]},"properties":{"category":"bakery","name":"Boulangerie Pietri","osm_id":512095872}},{"type":"Feature","geometry":{"type":"Point","coordinates":[9.2796161,41.590882]},"properties":{"category":"bakery","name":"Casa Vechja","osm_id":886431659}},{"type":"Feature","geometry":{"type":"Point","coordinates":[9.2795729,41.5908432]},"properties":{"category":"bakery","name":"Boulangerie Patisserie Simoni","osm_id":2338505806}},{"type":"Feature","geometry":{"type":"Point","coordinates":[9.2739943,41.5671637]},"properties":{"category":"bakery","name":"I Fratelli","osm_id":3720677428}},{"type":"Feature","geometry":{"type":"Point","coordinates":[9.2756955,41.5968076]},"properties":{"category":"bakery","name":"Lupains","osm_id":4350631389}},{"type":"Feature","geometry":{"type":"Point","coordinates":[9.2670688,41.5827882]},"properties":{"category":"bakery","name":"Boulangerie Pâtisserie Paul Mallaroni","opening_hours":"Mo-Sa 07:00-19:45","website":"https://boulangeriepatisseriepaulmallaroni.business.site","osm_id":7612811259}},{"type":"Feature","geometry":{"type":"Point","coordinates":[9.2755164,41.5980815]},"properties":{"category":"compressed_air","osm_id":9444689681}}]}