{"type":"FeatureCollection","features":[{"type":"Feature","geometry":{"type":"Point","coordinates":[9.2794627,41.6141054]},"properties":{"category":"bakery","name":"Taravella","osm_id":836786188}},{"type":"Feature","geometry":{"type":"Point","coordinates":[9.2801951,41.6149184]},"properties":{"category":"compressed_air","osm_id":7616856958}},{"type":"Feature","geometry":{"type":"Point","coordinates":[9.2794883,41.6141765]},"properties":{"category":"shop","name":"Mondovélo Porto Vecchio","osm_id":7616856995}},{"type":"Feature","geometry":{"type":"Point","coordinates":[9.2772016,41.6035691]},"properties":{"category":"bakery","name":"Paul Mallaroni","osm_id":10857745105}},{"type":"Feature","geometry":{"type":"Point","coordinates":[9.2764132,41.6027831]},"properties":{"category":"bakery","name":"Casa Dolce","osm_id":10862662905}}]}