{"type":"FeatureCollection","features":[{"type":"Feature","geometry":{"type":"Point","coordinates":[9.3461181,41.6383183]},"properties":{"category":"bakery","name":"La Canne A Sucre Plage","opening_hours":"Mo-Su 07:30-12:30,16:30-19:30","phone":"+33495716447","osm_id":834242017}},{"type":"Feature","geometry":{"type":"Point","coordinates":[9.3466342,41.6378102]},"properties":{"category":"shop","name":"Botique Marine","osm_id":834242031}},{"type":"Feature","geometry":{"type":"Point","coordinates":[9.3481899,41.6996461]},"properties":{"category":"bakery","opening_hours":"Mo-Sa 07:00-13:00","osm_id":1353579776}},{"type":"Feature","geometry":{"type":"Point","coordinates":[9.376071,41.6829209]},"properties":{"category":"bakery","name":"La Boulangerie","osm_id":2311279350}},{"type":"Feature","geometry":{"type":"Point","coordinates":[9.3182006,41.6812498]},"properties":{"category":"bakery","osm_id":7677641912}},{"type":"Feature","geometry":{"type":"Point","coordinates":[9.3341004,41.6298388]},"properties":{"category":"bakery","name":"La Tour Viennoise","osm_id":7823889849}},{"type":"Feature","geometry":{"type":"Point","coordinates":[9.3075164,41.66688]},"properties":{"category":"bakery","name":"Maison Ghisoni Mariotti","opening_hours":"06:00-20:30","phone":"+33 4 95 25 96 91","osm_id":8948928634}},{"type":"Feature","geometry":{"type":"Point","coordinates":[9.342248,41.6973931]},"properties":{"category":"bakery","name":"U Furnili di u Palazzu","opening_hours":"Mo-Sa 06:30-19:30; Su 06:30-13:00","website":"https://ufurnilidiupalazzu.com","osm_id":10958005374}}]}