{"type":"FeatureCollection","features":[{"type":"Feature","geometry":{"type":"Point","coordinates":[8.7387256,41.9249375]},"properties":{"category":"bakery","name":"Le Sampiero","osm_id":1438522399}},{"type":"Feature","geometry":{"type":"Point","coordinates":[8.7384634,41.9176996]},"properties":{"category":"bakery","osm_id":1888132204}},{"type":"Feature","geometry":{"type":"Point","coordinates":[8.7221494,41.911707]},"properties":{"category":"bakery","name":"Boulangerie du parc","osm_id":2330127530}},{"type":"Feature","geometry":{"type":"Point","coordinates":[8.7380282,41.9283141]},"properties":{"category":"bakery","name":"Kallyste","osm_id":2331007916}},{"type":"Feature","geometry":{"type":"Point","coordinates":[8.7536359,41.9346493]},"properties":{"category":"shop","osm_id":2483371539}},{"type":"Feature","geometry":{"type":"Point","coordinates":[8.7372508,41.9191602]},"properties":{"category":"bakery","name":"Maison Davoli","osm_id":2899145612}},{"type":"Feature","geometry":{"type":"Point","coordinates":[8.7377689,41.9244377]},"properties":{"category":"bakery","osm_id":2899145632}},{"type":"Feature","geometry":{"type":"Point","coordinates":[8.7410451,41.9363624]},"properties":{"category":"bakery","name":"Boulangerie Gambini","osm_id":4408731527}},{"type":"Feature","geometry":{"type":"Point","coordinates":[8.7413176,41.9338346]},"properties":{"category":"bakery","osm_id":4409255695}},{"type":"Feature","geometry":{"type":"Point","coordinates":[8.7272719,41.9171798]},"properties":{"category":"bakery","name":"Pâtisserie Au Bon Pain du Casone","osm_id":4909173588}},{"type":"Feature","geometry":{"type":"Point","coordinates":[8.7377023,41.9195978]},"properties":{"category":"bakery","name":"Boulangerie Galeani","opening_hours":"Mo-Su 06:30-19:30","osm_id":5088141686}},{"type":"Feature","geometry":{"type":"Point","coordinates":[8.7351671,41.9181852]},"properties":{"category":"bakery","name":"L'Atelier Papilles","osm_id":5804137936}},{"type":"Feature","geometry":{"type":"Point","coordinates":[8.7541074,41.9433802]},"properties":{"category":"bakery","name":"Au bon pain de la Rocade","osm_id":5894819285}},{"type":"Feature","geometry":{"type":"Point","coordinates":[8.7782021,41.9808897]},"properties":{"category":"bakery","osm_id":5929630664}},{"type":"Feature","geometry":{"type":"Point","coordinates":[8.7260918,41.9132952]},"properties":{"category":"bakery","name":"Boulangerie Pâtisserie Caviglioli","osm_id":7107869855}},{"type":"Feature","geometry":{"type":"Point","coordinates":[8.7396076,41.9301376]},"properties":{"category":"repair","opening_hours":"We 17:00-19:00","osm_id":7626479194}},{"type":"Feature","geometry":{"type":"Point","coordinates":[8.7364499,41.93527]},"properties":{"category":"bakery","name":"Brasilia","osm_id":8255089439}},{"type":"Feature","geometry":{"type":"Point","coordinates":[8.7746747,41.951218]},"properties":{"category":"shop","name":"Bike+ Ajaccio","opening_hours":"Mo-Sa 09:30-19:30","phone":"+33 4 95 29 69 00","website":"https://www.go-sport.com/stores?lang=default#/stores/1871-CYCLE","osm_id":9143816686}},{"type":"Feature","geometry":{"type":"Point","coordinates":[8.7380407,41.925842]},"properties":{"category":"bakery","name":"La Boulangerie du Cours","osm_id":12115120958}},{"type":"Feature","geometry":{"type":"Point","coordinates":[8.7379277,41.9251978]},"properties":{"category":"bakery","name":"La Princiere","osm_id":12115151005}},{"type":"Feature","geometry":{"type":"Point","coordinates":[8.7357723,41.9291266]},"properties":{"category":"bakery","osm_id":12866938123}},{"type":"Feature","geometry":{"type":"Point","coordinates":[8.7349345,41.9184171]},"properties":{"category":"bakery","name":"Boulangerie Patisserie du Diamant","osm_id":12983305301}},{"type":"Feature","geometry":{"type":"Point","coordinates":[8.753687,41.9347201]},"properties":{"category":"bakery","name":"Boulangerie Patisserie","osm_id":13709156362}},{"type":"Feature","geometry":{"type":"Point","coordinates":[8.7383499,41.92047]},"properties":{"category":"bakery","name":"Paul","website":"https://www.paul.fr/stores/ajaccio_bd_roi_jerome","osm_id":13887403201}},{"type":"Feature","geometry":{"type":"Point","coordinates":[8.7455137,41.9353409]},"properties":{"category":"bakery","name":"Pasquale Paoli","osm_id":14017611487}},{"type":"Feature","geometry":{"type":"Point","coordinates":[8.753699,41.9359456]},"properties":{"category":"bakery","name":"Banette","osm_id":14056201402}},{"type":"Feature","geometry":{"type":"Point","coordinates":[8.7231879,41.9125883]},"properties":{"category":"bakery","osm_id":14058571401}},{"type":"Feature","geometry":{"type":"Point","coordinates":[8.7558823,41.9332655]},"properties":{"category":"bakery","osm_id":14060892604}},{"type":"Feature","geometry":{"type":"Point","coordinates":[8.7972721,41.9280926]},"properties":{"category":"bakery","name":"Ange","opening_hours":"Mo-Sa 06:30-20:00; Su 06:30-19:00","phone":"+334 20 15 15 95","website":"https://www.boulangerie-ange.fr/stores/boulangerie-ange-ajaccio","osm_id":14114255501}}]}