{"type":"FeatureCollection","features":[{"type":"Feature","geometry":{"type":"Point","coordinates":[2.6335843,42.4559719]},"properties":{"category":"bakery","name":"Le Fournil de Shéryl","osm_id":4471791343}},{"type":"Feature","geometry":{"type":"Point","coordinates":[2.6333142,42.4563538]},"properties":{"category":"bakery","name":"Jean et Cathy Alric","osm_id":4471791344}},{"type":"Feature","geometry":{"type":"Point","coordinates":[2.6687941,42.4733222]},"properties":{"category":"bakery","name":"La Paneterie 2","osm_id":5773723735}},{"type":"Feature","geometry":{"type":"Point","coordinates":[2.6701243,42.4730828]},"properties":{"category":"bakery","osm_id":5773724654}},{"type":"Feature","geometry":{"type":"Point","coordinates":[2.6704354,42.4729494]},"properties":{"category":"bakery","name":"Au Bon Pain","osm_id":5773724659}},{"type":"Feature","geometry":{"type":"Point","coordinates":[2.6698216,42.4732725]},"properties":{"category":"bakery","osm_id":5773724664}},{"type":"Feature","geometry":{"type":"Point","coordinates":[2.6828127,42.482226]},"properties":{"category":"bakery","name":"Les pains de Jumy","osm_id":13259851701}}]}