{"type":"FeatureCollection","features":[{"type":"Feature","geometry":{"type":"Point","coordinates":[3.1288419,42.4803002]},"properties":{"category":"bakery","name":"Arbre à Pain","osm_id":804043694}},{"type":"Feature","geometry":{"type":"Point","coordinates":[3.128821,42.4834028]},"properties":{"category":"bakery","name":"La Ronde des Pains","osm_id":805019421}},{"type":"Feature","geometry":{"type":"Point","coordinates":[3.1279369,42.4814126]},"properties":{"category":"bakery","osm_id":1343409735}},{"type":"Feature","geometry":{"type":"Point","coordinates":[3.1285213,42.4823789]},"properties":{"category":"bakery","name":"La Frianderie","osm_id":1388319055}},{"type":"Feature","geometry":{"type":"Point","coordinates":[3.1260556,42.4867849]},"properties":{"category":"bakery","name":"Le Fournil d'Emile","opening_hours":"Fr-We 06:30-13:00,15:00-20:00","osm_id":5654085326}},{"type":"Feature","geometry":{"type":"Point","coordinates":[3.1281075,42.4815385]},"properties":{"category":"bakery","osm_id":5660621580}},{"type":"Feature","geometry":{"type":"Point","coordinates":[3.1282859,42.4817627]},"properties":{"category":"bakery","name":"Paille i Verde","opening_hours":"Mo-Tu 08:00-14:00; Th-Su 08:00-14:00","osm_id":10056859066}},{"type":"Feature","geometry":{"type":"Point","coordinates":[3.1644521,42.44115]},"properties":{"category":"bakery","name":"Les Maîtres du Pain","osm_id":12131226462}}]}