{"type":"FeatureCollection","features":[{"type":"Feature","geometry":{"type":"Point","coordinates":[2.7589859,42.4998789]},"properties":{"category":"shop","name":"Fun Bike Center","phone":"+33 4 68222934","website":"https://funbike-center.com","osm_id":2004639418}},{"type":"Feature","geometry":{"type":"Point","coordinates":[2.7180211,42.4955926]},"properties":{"category":"repair","opening_hours":"24/7","osm_id":13535167500}},{"type":"Feature","geometry":{"type":"Point","coordinates":[2.7614435,42.4999142]},"properties":{"category":"repair","osm_id":13625812214}}]}