{"type":"FeatureCollection","features":[{"type":"Feature","geometry":{"type":"Point","coordinates":[2.0619703,42.5149856]},"properties":{"category":"bakery","name":"Piero 2000","opening_hours":"Mo-Su 07:00-19:00","osm_id":2090792292}},{"type":"Feature","geometry":{"type":"Point","coordinates":[2.0413103,42.5036085]},"properties":{"category":"bakery","name":"Rouxpaille","opening_hours":"Mo-Su 07:00-13:00,15:30-19:30; Su 13:00+ closed; PH off; Feb,Jul-Aug Mo-Su 07:00-13:00,15:30-19:30","phone":"+33468044783","osm_id":4329761164}},{"type":"Feature","geometry":{"type":"Point","coordinates":[2.0732861,42.5783335]},"properties":{"category":"bakery","name":"Boulangerie traditionnelle du Capcir","opening_hours":"Jul-Aug Mo-Su 06:45-20:00","osm_id":5122915934}}]}