{"type":"FeatureCollection","features":[{"type":"Feature","geometry":{"type":"Point","coordinates":[3.1065727,42.5202326]},"properties":{"category":"bakery","osm_id":1317651382}},{"type":"Feature","geometry":{"type":"Point","coordinates":[3.1071489,42.518592]},"properties":{"category":"bakery","osm_id":1318768395}},{"type":"Feature","geometry":{"type":"Point","coordinates":[3.1047804,42.5157592]},"properties":{"category":"bakery","name":"A Ka Nikos","opening_hours":"Tu-Fr 07:30-13:00,15:00-19:00; Sa 07:00-13:00,15:00-19:00; Su 07:00-13:00","phone":"+33 4 49 08 18 35","website":"https://akanicos.wixsite.com/website","osm_id":1318976351}},{"type":"Feature","geometry":{"type":"Point","coordinates":[3.106853,42.5182593]},"properties":{"category":"bakery","name":"Les pains du Quai","opening_hours":"Tu-Sa 06:00-13:00,16:00-19:00; Su 06:00-13:00","phone":"+33 6 18 96 64 28","osm_id":8931305952}}]}