{"type":"FeatureCollection","features":[{"type":"Feature","geometry":{"type":"Point","coordinates":[8.7952172,42.551003]},"properties":{"category":"bakery","name":"L'Acapulco","osm_id":1410705808}},{"type":"Feature","geometry":{"type":"Point","coordinates":[8.7625533,42.5523879]},"properties":{"category":"shop","name":"Biketreff","opening_hours":"Mo-Sa 08:00-10:00,16:00-18:00","osm_id":2527310697}},{"type":"Feature","geometry":{"type":"Point","coordinates":[8.7622904,42.5549017]},"properties":{"category":"bakery","name":"Spiga","opening_hours":"Mo-Sa 08:00-19:30; Su 08:30-12:45","osm_id":2940346408}},{"type":"Feature","geometry":{"type":"Point","coordinates":[8.7565901,42.5600188]},"properties":{"category":"bakery","osm_id":4377902674}},{"type":"Feature","geometry":{"type":"Point","coordinates":[8.7532944,42.5646473]},"properties":{"category":"bakery","osm_id":6807436603}},{"type":"Feature","geometry":{"type":"Point","coordinates":[8.7547157,42.5609886]},"properties":{"category":"bakery","osm_id":9920938954}},{"type":"Feature","geometry":{"type":"Point","coordinates":[8.7559697,42.5656577]},"properties":{"category":"bakery","name":"Maison Piazza","osm_id":13110121317}},{"type":"Feature","geometry":{"type":"Point","coordinates":[8.7566094,42.5654837]},"properties":{"category":"bakery","name":"l'Amadeus","opening_hours":"Mo-Su 06:30-20:00","osm_id":14107106401}}]}