{"type":"FeatureCollection","features":[{"type":"Feature","geometry":{"type":"Point","coordinates":[2.754328,42.633106]},"properties":{"category":"bakery","name":"Ramirez Serge","osm_id":2379811031}},{"type":"Feature","geometry":{"type":"Point","coordinates":[2.7812874,42.6813094]},"properties":{"category":"shop","name":"D+BIKE","opening_hours":"Tu-Sa 09:00-12:00","phone":"+33468898960","website":"http://www.dplusbike.fr","osm_id":3349924316}},{"type":"Feature","geometry":{"type":"Point","coordinates":[2.7373398,42.6820159]},"properties":{"category":"bakery","name":"Festival","osm_id":6640082654}},{"type":"Feature","geometry":{"type":"Point","coordinates":[2.762013,42.6406725]},"properties":{"category":"bakery","name":"Marie Blachère","opening_hours":"Mo-Sa 06:30-19:30; Su 07:00-12:30; PH 07:00-12:30","phone":"+33 4 68 82 72 00","website":"https://boulangeries.marieblachere.com/fr/france-FR/5448/marie-blachere-thuir/details","osm_id":9901964351}},{"type":"Feature","geometry":{"type":"Point","coordinates":[2.761251,42.6317466]},"properties":{"category":"bakery","name":"Le Pain du Jour","opening_hours":"06:00-20:00","website":"https://www.le-pain-du-jour.com/","osm_id":10293331306}},{"type":"Feature","geometry":{"type":"Point","coordinates":[2.7091987,42.6573378]},"properties":{"category":"bakery","name":"Le Pain d'Éric","opening_hours":"Mo-Fr 17:00-20:00; Tu,Th off","website":"https://www.boulangerie-lepainderic-camelas.fr/","osm_id":10705888529}},{"type":"Feature","geometry":{"type":"Point","coordinates":[2.7695656,42.6960571]},"properties":{"category":"bakery","name":"Chez Cathy et Joël","osm_id":12687619147}},{"type":"Feature","geometry":{"type":"Point","coordinates":[2.7040634,42.6209916]},"properties":{"category":"repair","opening_hours":"24/7","osm_id":13835171001}},{"type":"Feature","geometry":{"type":"Point","coordinates":[2.7569582,42.632099]},"properties":{"category":"bakery","name":"NEO","opening_hours":"We-Fr 09:00-13:00","website":"https://www.neoperpignan.fr/","osm_id":14017234601}}]}