{"type":"FeatureCollection","features":[{"type":"Feature","geometry":{"type":"Point","coordinates":[2.9318954,42.6939427]},"properties":{"category":"bakery","name":"Les Pains du Soleil","opening_hours":"Mo-Su 06:30-20:00","phone":"+33 4 68 83 82 76","website":"https://www.lespainsdusoleil.com/","osm_id":822242228}},{"type":"Feature","geometry":{"type":"Point","coordinates":[2.981102,42.6391466]},"properties":{"category":"bakery","name":"Le Pain du Talemelier","opening_hours":"Tu-Sa 06:30-14:00; Su 07:00-13:00","phone":"+33 4 68 36 59 51","osm_id":1802051955}},{"type":"Feature","geometry":{"type":"Point","coordinates":[2.9000996,42.6686831]},"properties":{"category":"bakery","name":"Marie Blachère","opening_hours":"Mo-Sa 06:30-19:30; Su 07:00-13:00","phone":"+33 4 68 81 91 28","website":"https://boulangeries.marieblachere.com/perpignan-chemin-de-fauceille/","osm_id":2825115929}},{"type":"Feature","geometry":{"type":"Point","coordinates":[2.9010569,42.6871732]},"properties":{"category":"bakery","name":"Le pain de mon moulin","opening_hours":"Mo-Su 06:30-19:30","phone":"+33 4 68 66 87 99","osm_id":3106527557}},{"type":"Feature","geometry":{"type":"Point","coordinates":[2.9076617,42.6963501]},"properties":{"category":"bakery","name":"La Viennoiserie Maline","osm_id":4063846356}},{"type":"Feature","geometry":{"type":"Point","coordinates":[2.9053313,42.6868007]},"properties":{"category":"bakery","name":"Marie Blachère","opening_hours":"Mo-Sa 06:30-19:30","phone":"+33 4 68 08 02 72","website":"https://boulangeries.marieblachere.com/fr/france-FR/5253/marie-blachere-perpignan-juin/details","osm_id":4341073023}},{"type":"Feature","geometry":{"type":"Point","coordinates":[2.9223997,42.6376068]},"properties":{"category":"bakery","name":"La boulangerie Pensuet","opening_hours":"Mo-Sa 06:30-19:30; Su 06:30-13:00; PH 06:30-13:30","phone":"+33 4 68 81 20 01","osm_id":5022605228}},{"type":"Feature","geometry":{"type":"Point","coordinates":[2.9771636,42.6064546]},"properties":{"category":"bakery","name":"Les Pains du Soleil","opening_hours":"Mo-Tu 06:45-14:00,15:45-19:00; We 06:45-14:00,15:15-19:00; Th-Sa 06:45-14:00,15:45-19:00; Su 06:45-13:00","phone":"+33 4 68 68 04 24","website":"https://www.lespainsdusoleil.com/","osm_id":5044991555}},{"type":"Feature","geometry":{"type":"Point","coordinates":[2.9093609,42.680156]},"properties":{"category":"bakery","name":"La Pincée Gourmande Maison Guy-Lores","opening_hours":"Tu-Sa 06:30-13:30,15:30-19:30; Su 06:30-13:30","phone":"+33 9 77 02 79 04","osm_id":6513597386}},{"type":"Feature","geometry":{"type":"Point","coordinates":[2.9403195,42.6865278]},"properties":{"category":"bakery","name":"Le levain d'Hélios","opening_hours":"Mo-Sa 06:30-19:30; PH,Su 07:00-13:00","phone":"+33 4 68 35 54 41","website":"https://le-levain-d-helios-cabestany.eatbu.com/","osm_id":7085697885}},{"type":"Feature","geometry":{"type":"Point","coordinates":[2.9519832,42.6261062]},"properties":{"category":"bakery","name":"Brilles","phone":"+33 4 68 22 69 98","osm_id":7187321003}},{"type":"Feature","geometry":{"type":"Point","coordinates":[2.9154458,42.6960644]},"properties":{"category":"bakery","name":"Le moulin de Las Cobas","opening_hours":"Tu-Sa 06:00-13:00, 16:00-19:30; Su 06:00-13:00","phone":"+33 4 68 52 54 16","osm_id":7388773895}},{"type":"Feature","geometry":{"type":"Point","coordinates":[2.9322468,42.6914917]},"properties":{"category":"bakery","name":"Croq'Ours","opening_hours":"Mo-Th 06:30-16:30; Fr 06:30-15:30","phone":"+33 4 68 34 88 65","osm_id":8111495852}},{"type":"Feature","geometry":{"type":"Point","coordinates":[2.9415839,42.6529298]},"properties":{"category":"bakery","name":"Castor & Pollux","opening_hours":"Mo-Sa 06:30-20:00; PH,Su 07:00-13:00","phone":"+33 4 68 84 01 25","website":"https://castor-et-pollux-saleilles.eatbu.com/","osm_id":8157563133}},{"type":"Feature","geometry":{"type":"Point","coordinates":[2.9527886,42.6573404]},"properties":{"category":"bakery","name":"Jeux de Pains","opening_hours":"Tu-Sa 06:30-12:30,16:00-19:00; Su 06:30-12:45","osm_id":8158332481}},{"type":"Feature","geometry":{"type":"Point","coordinates":[2.9729167,42.6009207]},"properties":{"category":"bakery","opening_hours":"06:00-19:30","osm_id":8174357750}},{"type":"Feature","geometry":{"type":"Point","coordinates":[2.9186743,42.6914898]},"properties":{"category":"compressed_air","osm_id":8185150729}},{"type":"Feature","geometry":{"type":"Point","coordinates":[2.9221892,42.6920898]},"properties":{"category":"bakery","name":"Marie Blachère","opening_hours":"Mo-Sa 06:30-19:30","phone":"+33 4 68 92 84 58","website":"https://boulangeries.marieblachere.com/fr/france-FR/5320/marie-blachere-cabestany/details","osm_id":8185369814}},{"type":"Feature","geometry":{"type":"Point","coordinates":[2.9208206,42.6913517]},"properties":{"category":"compressed_air","osm_id":8311319315}},{"type":"Feature","geometry":{"type":"Point","coordinates":[2.9050253,42.6768705]},"properties":{"category":"repair","opening_hours":"24/7","osm_id":8661952793}},{"type":"Feature","geometry":{"type":"Point","coordinates":[2.9067796,42.6845175]},"properties":{"category":"repair","opening_hours":"24/7","osm_id":8688664693}},{"type":"Feature","geometry":{"type":"Point","coordinates":[2.9167813,42.6982212]},"properties":{"category":"repair","opening_hours":"24/7","osm_id":8841772238}},{"type":"Feature","geometry":{"type":"Point","coordinates":[2.9738952,42.6393722]},"properties":{"category":"bakery","name":"Le Pain du Jour","opening_hours":"06:00-20:00","phone":"+33 4 68 52 51 33","website":"https://www.le-pain-du-jour.com/","osm_id":9094474505}},{"type":"Feature","geometry":{"type":"Point","coordinates":[2.921505,42.630087]},"properties":{"category":"bakery","name":"Le Four d'Antan","opening_hours":"Mo-Sa 06:30-19:30; PH,Su 06:30-13:00","osm_id":9384420270}},{"type":"Feature","geometry":{"type":"Point","coordinates":[2.9141309,42.6374144]},"properties":{"category":"bakery","name":"Aux chouquettes blondes","phone":"+33 4 68 82 91 76","osm_id":9706003205}},{"type":"Feature","geometry":{"type":"Point","coordinates":[2.9240188,42.6085424]},"properties":{"category":"compressed_air","osm_id":9751426960}},{"type":"Feature","geometry":{"type":"Point","coordinates":[2.9676229,42.6035172]},"properties":{"category":"bakery","name":"Les Pains d'Adrien","opening_hours":"Mo-Su 06:00-20:00","osm_id":10053349483}},{"type":"Feature","geometry":{"type":"Point","coordinates":[2.9087323,42.6840177]},"properties":{"category":"bakery","name":"Le Pain du Jour","opening_hours":"06:00-20:00","phone":"+33 4 68 66 93 40","website":"https://www.le-pain-du-jour.com/","osm_id":10287592441}},{"type":"Feature","geometry":{"type":"Point","coordinates":[2.9209504,42.6964352]},"properties":{"category":"bakery","name":"Le Pain du Jour","opening_hours":"06:00-20:00","phone":"+33 4 68 52 73 69","website":"https://www.le-pain-du-jour.com/","osm_id":10293330506}},{"type":"Feature","geometry":{"type":"Point","coordinates":[2.9244163,42.6895565]},"properties":{"category":"bakery","name":"Le Pain du Jour","opening_hours":"Mo-Su 06:00-19:30","osm_id":10568634175}},{"type":"Feature","geometry":{"type":"Point","coordinates":[2.9402135,42.6799188]},"properties":{"category":"bakery","name":"Du poulet à la baguette","opening_hours":"We-Su 08:30-13:00","phone":"+33 9 61 21 81 92","website":"https://dupouletalabaguett.wixsite.com/dupouletalabaguette","osm_id":12959155439}},{"type":"Feature","geometry":{"type":"Point","coordinates":[2.9973695,42.6069443]},"properties":{"category":"bakery","name":"La Panetière","opening_hours":"Mo-Su 06:00-20:00","website":"https://www.lapanetiere-latour.fr/","osm_id":13308270901}},{"type":"Feature","geometry":{"type":"Point","coordinates":[2.9977989,42.6074468]},"properties":{"category":"bakery","name":"Signé Levain","phone":"+33 4 68 64 66 67","osm_id":13308273101}},{"type":"Feature","geometry":{"type":"Point","coordinates":[2.9949586,42.6061627]},"properties":{"category":"bakery","name":"Le fournil d'Henry","opening_hours":"Mo-Sa 06:00-19:00; Su 06:00-13:00","phone":"+33 6 25 05 03 67","osm_id":13314516231}},{"type":"Feature","geometry":{"type":"Point","coordinates":[2.9891335,42.6352936]},"properties":{"category":"repair","osm_id":13535196526}},{"type":"Feature","geometry":{"type":"Point","coordinates":[2.9800098,42.6393572]},"properties":{"category":"repair","opening_hours":"24/7","osm_id":13705228502}}]}