{"type":"FeatureCollection","features":[{"type":"Feature","geometry":{"type":"Point","coordinates":[8.8680047,42.6074091]},"properties":{"category":"bakery","osm_id":1975968192}},{"type":"Feature","geometry":{"type":"Point","coordinates":[8.8679327,42.6074734]},"properties":{"category":"shop","name":"Velostation Algajola Sport et Nature","opening_hours":"Mo-Su 08:00-19:00","phone":"+33495440832","website":"http://www.algajola-sportetnature.com","osm_id":4703377952}},{"type":"Feature","geometry":{"type":"Point","coordinates":[8.8621979,42.6081773]},"properties":{"category":"bakery","name":"Four à Pain","opening_hours":"07:00-20:00","osm_id":4704462952}}]}