{"type":"FeatureCollection","features":[{"type":"Feature","geometry":{"type":"Point","coordinates":[3.0300588,42.6097235]},"properties":{"category":"bakery","name":"Les Caprices du Palais","website":"https://www.facebook.com/lescapricesdupalais/","osm_id":1284303324}},{"type":"Feature","geometry":{"type":"Point","coordinates":[3.0318589,42.6286548]},"properties":{"category":"bakery","name":"Au Moulin de Saint-Cyprien","opening_hours":"06:30-20:00","osm_id":1343002257}},{"type":"Feature","geometry":{"type":"Point","coordinates":[3.0312286,42.6964052]},"properties":{"category":"bakery","name":"Le Pain du Jour","opening_hours":"06:00-20:00","phone":"+33 4 68 53 81 47","website":"https://www.le-pain-du-jour.com/","osm_id":1802055500}},{"type":"Feature","geometry":{"type":"Point","coordinates":[3.0332173,42.6334495]},"properties":{"category":"bakery","name":"Le fournil de la plage","opening_hours":"Mo,Tu,Th-Sa 06:30-19:30+","osm_id":3212496657}},{"type":"Feature","geometry":{"type":"Point","coordinates":[3.03476,42.6974336]},"properties":{"category":"bakery","name":"La Fougasse","phone":"+33 4 68 80 65 03","osm_id":5034690271}},{"type":"Feature","geometry":{"type":"Point","coordinates":[3.0107172,42.6227331]},"properties":{"category":"bakery","name":"Dupain & Dubon","osm_id":5056357678}},{"type":"Feature","geometry":{"type":"Point","coordinates":[3.0343053,42.6850257]},"properties":{"category":"shop","name":"Sun Bike 66","website":"https://sunbike66.fr","osm_id":9939650505}},{"type":"Feature","geometry":{"type":"Point","coordinates":[3.0074121,42.6156834]},"properties":{"category":"bakery","name":"Le Pain du Jour","opening_hours":"06:00-20:00","phone":"+33 4 68 95 66 21","website":"https://www.le-pain-du-jour.com/","osm_id":10293030682}},{"type":"Feature","geometry":{"type":"Point","coordinates":[3.0346833,42.6303994]},"properties":{"category":"bakery","name":"Chaffard","opening_hours":"Tu-Sa 07:00-13:00,16:00-19:00;Su 07:00-13:00","osm_id":12165763033}},{"type":"Feature","geometry":{"type":"Point","coordinates":[3.0342791,42.6318223]},"properties":{"category":"bakery","name":"L'ami du pain","osm_id":12165854409}},{"type":"Feature","geometry":{"type":"Point","coordinates":[3.0107367,42.6108928]},"properties":{"category":"repair","opening_hours":"24/7","osm_id":12580346726}},{"type":"Feature","geometry":{"type":"Point","coordinates":[3.0290827,42.6098374]},"properties":{"category":"repair","osm_id":12914002505}},{"type":"Feature","geometry":{"type":"Point","coordinates":[3.036669,42.6238413]},"properties":{"category":"repair","opening_hours":"24/7","osm_id":13165869351}},{"type":"Feature","geometry":{"type":"Point","coordinates":[3.0335643,42.6407438]},"properties":{"category":"repair","osm_id":13176633127}},{"type":"Feature","geometry":{"type":"Point","coordinates":[3.0335836,42.6293013]},"properties":{"category":"shop","name":"Vélo Passion","opening_hours":"Mo-Sa 09:00-12:00,15:00-18:00; Th 15:00-18:00","phone":"+33 6 02 15 03 75","website":"https://www.velopassion66.com/","osm_id":13189397567}},{"type":"Feature","geometry":{"type":"Point","coordinates":[3.0008018,42.6043889]},"properties":{"category":"repair","opening_hours":"24/7","osm_id":13313336015}},{"type":"Feature","geometry":{"type":"Point","coordinates":[3.0349132,42.6315358]},"properties":{"category":"shop","name":"Bike and Beach","osm_id":13572923988}}]}