{"type":"FeatureCollection","features":[{"type":"Feature","geometry":{"type":"Point","coordinates":[9.4320545,42.6563404]},"properties":{"category":"bakery","name":"Au Pain Chaud du Bastio","opening_hours":"Mo-Su 06:30-20:00","osm_id":2121787463}},{"type":"Feature","geometry":{"type":"Point","coordinates":[9.4413355,42.6787777]},"properties":{"category":"bakery","name":"Saveur Multari","phone":"+33 4 95 33 85 12","osm_id":2483371521}},{"type":"Feature","geometry":{"type":"Point","coordinates":[9.4374504,42.6234333]},"properties":{"category":"bakery","name":"Paul","phone":"+33 4 20 13 02 80","website":"https://www.paul.fr/stores/biguglia","osm_id":2504294889}},{"type":"Feature","geometry":{"type":"Point","coordinates":[9.4465892,42.6800394]},"properties":{"category":"bakery","name":"Carlotti","osm_id":4764367680}},{"type":"Feature","geometry":{"type":"Point","coordinates":[9.4363835,42.6202532]},"properties":{"category":"bakery","name":"Ghisoni-Mariotti","osm_id":6440793116}},{"type":"Feature","geometry":{"type":"Point","coordinates":[9.4305414,42.6286215]},"properties":{"category":"bakery","name":"Maison Carlotti","opening_hours":"Mo-Su 06:30-20:30","osm_id":6440793117}},{"type":"Feature","geometry":{"type":"Point","coordinates":[9.4364211,42.6231985]},"properties":{"category":"shop","name":"Cycles Orsini","osm_id":7906066585}},{"type":"Feature","geometry":{"type":"Point","coordinates":[9.4358087,42.6760589]},"properties":{"category":"bakery","name":"L'Atelier Papilles","osm_id":8954178708}},{"type":"Feature","geometry":{"type":"Point","coordinates":[9.4497793,42.698067]},"properties":{"category":"bakery","name":"Kaa","osm_id":9928790203}},{"type":"Feature","geometry":{"type":"Point","coordinates":[9.4474811,42.6963416]},"properties":{"category":"bakery","osm_id":11045430404}},{"type":"Feature","geometry":{"type":"Point","coordinates":[9.4382603,42.6767624]},"properties":{"category":"bakery","name":"L'Instant Gourmand","osm_id":12750512594}},{"type":"Feature","geometry":{"type":"Point","coordinates":[9.4402036,42.6812799]},"properties":{"category":"bakery","osm_id":12750512604}},{"type":"Feature","geometry":{"type":"Point","coordinates":[9.4405872,42.695109]},"properties":{"category":"bakery","name":"Ghisoni Mariotti","website":"https://ghisoni-mariotti.com/","osm_id":13109260626}},{"type":"Feature","geometry":{"type":"Point","coordinates":[9.4364512,42.6639159]},"properties":{"category":"bakery","name":"L'atelier","osm_id":13109382661}},{"type":"Feature","geometry":{"type":"Point","coordinates":[9.4374973,42.6726666]},"properties":{"category":"bakery","name":"U San Petru","osm_id":13109396646}},{"type":"Feature","geometry":{"type":"Point","coordinates":[9.4497979,42.692248]},"properties":{"category":"bakery","osm_id":13110719161}},{"type":"Feature","geometry":{"type":"Point","coordinates":[9.4473061,42.690659]},"properties":{"category":"bakery","name":"Eric Lazarini","osm_id":13110719169}},{"type":"Feature","geometry":{"type":"Point","coordinates":[9.4400255,42.6490208]},"properties":{"category":"bakery","name":"Boulangerie Farina","opening_hours":"Tu, Th-Fr 08:00-18:30","website":"https://boulangeriefarina.com/","osm_id":13451430215}},{"type":"Feature","geometry":{"type":"Point","coordinates":[9.439639,42.6470324]},"properties":{"category":"shop","name":"Giant","osm_id":13451430231}},{"type":"Feature","geometry":{"type":"Point","coordinates":[9.4379644,42.6285123]},"properties":{"category":"bakery","name":"Ange-Mathieu Carlotti","osm_id":13452218052}},{"type":"Feature","geometry":{"type":"Point","coordinates":[9.4365251,42.6224067]},"properties":{"category":"bakery","name":"U Mulinu","osm_id":13452297835}},{"type":"Feature","geometry":{"type":"Point","coordinates":[9.4412998,42.6630488]},"properties":{"category":"bakery","name":"Ghisoni Mariotti","osm_id":13585331401}},{"type":"Feature","geometry":{"type":"Point","coordinates":[9.4343581,42.6330505]},"properties":{"category":"bakery","name":"Poyet","phone":"+33 4 95 33 54 80","osm_id":13667283508}},{"type":"Feature","geometry":{"type":"Point","coordinates":[9.4338141,42.6378243]},"properties":{"category":"bakery","name":"A Finetta","opening_hours":"Mo-Sa 06:30-20:00; Su 06:30-13:00","phone":"+33495306561","osm_id":13667842533}},{"type":"Feature","geometry":{"type":"Point","coordinates":[9.4379152,42.6552488]},"properties":{"category":"bakery","name":"Maison Bécam","opening_hours":"Mo-Su 06:30-20:00","phone":"+33 4 20 20 57 12","osm_id":13811118759}},{"type":"Feature","geometry":{"type":"Point","coordinates":[9.4478409,42.6945765]},"properties":{"category":"bakery","name":"Boulangerie Gaudin","osm_id":13935627202}},{"type":"Feature","geometry":{"type":"Point","coordinates":[9.4500963,42.6986032]},"properties":{"category":"bakery","name":"A Biscutteria","opening_hours":"Tu-Sa 07:30-12:30, 14:30-18:30","website":"https://www.abiscutteria.com/","osm_id":13935969502}},{"type":"Feature","geometry":{"type":"Point","coordinates":[9.4512538,42.6967346]},"properties":{"category":"bakery","osm_id":13936519203}},{"type":"Feature","geometry":{"type":"Point","coordinates":[9.4450476,42.6859164]},"properties":{"category":"bakery","osm_id":13994243901}}]}