{"type":"FeatureCollection","features":[{"type":"Feature","geometry":{"type":"Point","coordinates":[2.9437197,42.701272]},"properties":{"category":"compressed_air","osm_id":8250171015}},{"type":"Feature","geometry":{"type":"Point","coordinates":[2.9442307,42.7018078]},"properties":{"category":"compressed_air","osm_id":8725226602}},{"type":"Feature","geometry":{"type":"Point","coordinates":[2.9097948,42.711559]},"properties":{"category":"repair","opening_hours":"24/7","osm_id":8841772239}},{"type":"Feature","geometry":{"type":"Point","coordinates":[2.9103282,42.7748851]},"properties":{"category":"shop","name":"Culture Vélo","opening_hours":"Tu-Fr 10:00-12:00,14:00-19:00; Sa 10:00-18:00","phone":"+33468356618","website":"https://www.culturevelo.com/-Perpignan-","osm_id":12051678606}}]}