{"type":"FeatureCollection","features":[{"type":"Feature","geometry":{"type":"Point","coordinates":[0.5911243,42.7921041]},"properties":{"category":"shop","name":"Luchon MTB","phone":"+33 561798856","osm_id":2942224328}},{"type":"Feature","geometry":{"type":"Point","coordinates":[0.5927263,42.7884357]},"properties":{"category":"bakery","name":"Boulangerie Pâtisserie Guibert","opening_hours":"Tu-Sa 07:00-19:30; Su 07:00-18:00","phone":"+33 5 61 88 63 44","osm_id":5076802866}},{"type":"Feature","geometry":{"type":"Point","coordinates":[0.5948003,42.7952998]},"properties":{"category":"bakery","name":"Secrets de Pains","osm_id":5859370586}},{"type":"Feature","geometry":{"type":"Point","coordinates":[0.5910831,42.7922518]},"properties":{"category":"bakery","name":"Boulangerie Luchonnaise","opening_hours":"Tu-Sa 07:00-12:00,16:00-19:00; Su 07:00-12:00","phone":"+33 5 61 79 01 27","osm_id":6316614314}},{"type":"Feature","geometry":{"type":"Point","coordinates":[0.5888437,42.7907261]},"properties":{"category":"bakery","name":"Chez Véro","opening_hours":"Mo-Tu 06:30-13:00, 16:00-19:30; We 06:30-13:00; Fr 06:30-12:45, 16:30-19:00; Sa 06:30-13:00; Su 07:00-13:00","phone":"+33 6 74 94 00 51","osm_id":12137207601}}]}