{"type":"FeatureCollection","features":[{"type":"Feature","geometry":{"type":"Point","coordinates":[9.4616131,42.7416506]},"properties":{"category":"bakery","osm_id":1436384975}},{"type":"Feature","geometry":{"type":"Point","coordinates":[9.4304,42.7139196]},"properties":{"category":"bakery","osm_id":4410386787}},{"type":"Feature","geometry":{"type":"Point","coordinates":[9.4751006,42.7741141]},"properties":{"category":"bakery","osm_id":4459641703}},{"type":"Feature","geometry":{"type":"Point","coordinates":[9.452017,42.7045438]},"properties":{"category":"bakery","name":"La huche à pain","osm_id":4505168195}},{"type":"Feature","geometry":{"type":"Point","coordinates":[9.457644,42.7258812]},"properties":{"category":"bakery","name":"Marc Ventura","opening_hours":"Tu-Su 06:30-20:00","phone":"+33 4 95 32 34 81","osm_id":5097750622}},{"type":"Feature","geometry":{"type":"Point","coordinates":[9.4500005,42.7019745]},"properties":{"category":"bakery","name":"Ghisoni-Mariotti","phone":"+33 6 71 44 58 77","website":"https://ghisoni-mariotti.com","osm_id":9044153871}},{"type":"Feature","geometry":{"type":"Point","coordinates":[9.4530301,42.7075715]},"properties":{"category":"bakery","name":"Agostini David","osm_id":9952378709}},{"type":"Feature","geometry":{"type":"Point","coordinates":[9.4518927,42.7041633]},"properties":{"category":"bakery","name":"Au Blé d'Or","osm_id":13110710167}},{"type":"Feature","geometry":{"type":"Point","coordinates":[9.4411635,42.7055907]},"properties":{"category":"bakery","name":"Carlotti et Michel","opening_hours":"Mo-Su 07:00-20:00","phone":"+33495312919","website":"https://www.carlottiemileetmichel.corsica/fr-fr","osm_id":13970102174}}]}