{"type":"FeatureCollection","features":[{"type":"Feature","geometry":{"type":"Point","coordinates":[1.6052245,42.8464463]},"properties":{"category":"bakery","name":"Boulangerie Patisserie du Quai","opening_hours":"Mo-Sa 07:00-13:00,15:00-19:00; Su 07:00-13:00","osm_id":2609133471}},{"type":"Feature","geometry":{"type":"Point","coordinates":[1.601144,42.8447514]},"properties":{"category":"bakery","name":"La Mie Dorée","osm_id":7821164324}},{"type":"Feature","geometry":{"type":"Point","coordinates":[1.60177,42.8436936]},"properties":{"category":"bakery","name":"Boulangerie Saint Roch","osm_id":9226844982}},{"type":"Feature","geometry":{"type":"Point","coordinates":[1.6004353,42.845711]},"properties":{"category":"compressed_air","osm_id":13011515359}}]}