{"type":"FeatureCollection","features":[{"type":"Feature","geometry":{"type":"Point","coordinates":[2.7785946,42.8482593]},"properties":{"category":"bakery","name":"Le fournil de Vingrau","opening_hours":"Mo-Sa 06:45-12:30,17:30-19:30; Su 06:45-13:00","phone":"+33468346330","osm_id":1961320449}},{"type":"Feature","geometry":{"type":"Point","coordinates":[2.718465,42.8881559]},"properties":{"category":"bakery","name":"Boulangerie Espaullard","phone":"+33468481304","osm_id":3719140762}},{"type":"Feature","geometry":{"type":"Point","coordinates":[2.717443,42.8884564]},"properties":{"category":"bakery","osm_id":3719142020}},{"type":"Feature","geometry":{"type":"Point","coordinates":[2.7459022,42.8145109]},"properties":{"category":"bakery","name":"Boulangerie Valentin","opening_hours":"Mo-Sa 07:00-13:00,16:30-19:00; Fr,Su 07:00-13:00","osm_id":6718827297}}]}