{"type":"FeatureCollection","features":[{"type":"Feature","geometry":{"type":"Point","coordinates":[0.6406664,42.9165726]},"properties":{"category":"bakery","name":"Boulangerie de la Pique","opening_hours":"Tu-Sa 06:30-13:00, 15:00-19:30; Su 07:00-13:00","phone":"+33 5 61 79 50 24","osm_id":11035472523}},{"type":"Feature","geometry":{"type":"Point","coordinates":[0.6926427,42.9146844]},"properties":{"category":"bakery","name":"Les Délices de Saint-Béat","opening_hours":"Th-Tu 08:00-13:00","osm_id":11881864158}}]}