{"type":"FeatureCollection","features":[{"type":"Feature","geometry":{"type":"Point","coordinates":[1.5253309,42.9688408]},"properties":{"category":"bakery","osm_id":1262266185}},{"type":"Feature","geometry":{"type":"Point","coordinates":[1.5683091,42.960566]},"properties":{"category":"bakery","name":"Au Pain Barguillérois","osm_id":1557157055}},{"type":"Feature","geometry":{"type":"Point","coordinates":[1.5599783,42.9613109]},"properties":{"category":"shop","name":"Picou Cycles","opening_hours":"We, Sa 09:30-12:30,14:00-18:00","phone":"+33689754680","website":"https://www.picou-cycles.fr","osm_id":13742822002}}]}