{"type":"FeatureCollection","features":[{"type":"Feature","geometry":{"type":"Point","coordinates":[2.9220045,43.0583595]},"properties":{"category":"bakery","name":"Baux","osm_id":8277265310}},{"type":"Feature","geometry":{"type":"Point","coordinates":[2.9733133,43.0302703]},"properties":{"category":"bakery","name":"La Panettiere","opening_hours":"Mo-Su 07:00-20:00","phone":"+33 4 68 42 34 08","osm_id":9909828342}},{"type":"Feature","geometry":{"type":"Point","coordinates":[2.978093,43.027678]},"properties":{"category":"bakery","osm_id":12368007573}}]}