{"type":"FeatureCollection","features":[{"type":"Feature","geometry":{"type":"Point","coordinates":[5.8839788,43.0990067]},"properties":{"category":"bakery","osm_id":288922217}},{"type":"Feature","geometry":{"type":"Point","coordinates":[5.8514904,43.0889773]},"properties":{"category":"bakery","name":"Le Pétrin de Pépiole","osm_id":291274403}},{"type":"Feature","geometry":{"type":"Point","coordinates":[5.8917133,43.0989067]},"properties":{"category":"bakery","osm_id":295464557}},{"type":"Feature","geometry":{"type":"Point","coordinates":[5.8462173,43.0945807]},"properties":{"category":"bakery","name":"La Fille du Boulanger","osm_id":299169437}},{"type":"Feature","geometry":{"type":"Point","coordinates":[5.8796511,43.0995738]},"properties":{"category":"bakery","osm_id":302356219}},{"type":"Feature","geometry":{"type":"Point","coordinates":[5.8561789,43.0836566]},"properties":{"category":"bakery","osm_id":497577962}},{"type":"Feature","geometry":{"type":"Point","coordinates":[5.8859878,43.0811852]},"properties":{"category":"bakery","name":"Boulangerie de Mar Vivo","osm_id":521190896}},{"type":"Feature","geometry":{"type":"Point","coordinates":[5.8131632,43.0963663]},"properties":{"category":"bakery","name":"ML","osm_id":1282656459}},{"type":"Feature","geometry":{"type":"Point","coordinates":[5.80242,43.0757329]},"properties":{"category":"bakery","name":"Tchio Pane","opening_hours":"Tu-Sa 06:00-13:00,16:00-20:00; Su 06:00-13:00","osm_id":1568147555}},{"type":"Feature","geometry":{"type":"Point","coordinates":[5.8038579,43.0763688]},"properties":{"category":"bakery","name":"La Tarte Tropézienne","opening_hours":"Mo,We-Sa 07:00-18:30; Su 07:00-18:00","osm_id":1568147601}},{"type":"Feature","geometry":{"type":"Point","coordinates":[5.8054689,43.0792648]},"properties":{"category":"shop","name":"Bike Love","phone":"+33 6 20 46 60 36","osm_id":3455456588}},{"type":"Feature","geometry":{"type":"Point","coordinates":[5.8335692,43.0942381]},"properties":{"category":"bakery","name":"Boulangerie du blé au pain","osm_id":4572198654}},{"type":"Feature","geometry":{"type":"Point","coordinates":[5.8401341,43.0924411]},"properties":{"category":"bakery","name":"Mondino Stéphane","phone":"+33 4 94 25 64 50","osm_id":4572198664}},{"type":"Feature","geometry":{"type":"Point","coordinates":[5.8946317,43.0824136]},"properties":{"category":"bakery","name":"La Corniche","osm_id":7462940774}},{"type":"Feature","geometry":{"type":"Point","coordinates":[5.8542764,43.0880224]},"properties":{"category":"bakery","name":"Boulanger Renoir","osm_id":8333215260}},{"type":"Feature","geometry":{"type":"Point","coordinates":[5.8349278,43.094105]},"properties":{"category":"shop","name":"Cycles et Volt","phone":"+33 4 89 79 58 56","osm_id":9129346144}},{"type":"Feature","geometry":{"type":"Point","coordinates":[5.8918735,43.0795314]},"properties":{"category":"bakery","name":"Mondino","opening_hours":"Mo-Su 06:30-13:00,15:30-19:30","osm_id":9958692511}},{"type":"Feature","geometry":{"type":"Point","coordinates":[5.8296968,43.0898899]},"properties":{"category":"bakery","name":"La Rosaleen","opening_hours":"Mo-Su 06:00-20:00","website":"https://larosaleen.eatbu.com/?lang=fr","osm_id":10146994682}},{"type":"Feature","geometry":{"type":"Point","coordinates":[5.8839727,43.0991965]},"properties":{"category":"shop","name":"Vélotech","opening_hours":"Tu-Fr 08:00-14:30,15:00-19:00; Sa 08:00-19:00","phone":"+33618521526;+33413911919","osm_id":10593829405}},{"type":"Feature","geometry":{"type":"Point","coordinates":[5.8946212,43.099401]},"properties":{"category":"bakery","name":"Au petit fournil","opening_hours":"Mo-Sa 07:00-19:30; PH,Su 07:00-13:30","phone":"+33 4 98 03 05 78","osm_id":10718743011}},{"type":"Feature","geometry":{"type":"Point","coordinates":[5.8514461,43.098564]},"properties":{"category":"bakery","name":"Boulangerie Rose, La collégiale","osm_id":11955392769}},{"type":"Feature","geometry":{"type":"Point","coordinates":[5.8939937,43.079234]},"properties":{"category":"bakery","name":"Bakery Food And Drinks","osm_id":12221996713}},{"type":"Feature","geometry":{"type":"Point","coordinates":[5.8940244,43.0798024]},"properties":{"category":"bakery","name":"Maison Debeaumont","osm_id":12224059223}},{"type":"Feature","geometry":{"type":"Point","coordinates":[5.8938717,43.0825866]},"properties":{"category":"bakery","osm_id":12445983106}},{"type":"Feature","geometry":{"type":"Point","coordinates":[5.8795234,43.0828725]},"properties":{"category":"bakery","name":"DOUCEURS D'ENFANCE","phone":"+33 4 94 94 47 08","osm_id":12595981554}},{"type":"Feature","geometry":{"type":"Point","coordinates":[5.8821326,43.0769057]},"properties":{"category":"bakery","name":"Boulangerie Butter-Fly","opening_hours":"Tu-Sa 06:30-13:00; Tu-Sa 16:00-20:00; Su 06:30-13:00","phone":"+33494066381","osm_id":12618300942}},{"type":"Feature","geometry":{"type":"Point","coordinates":[5.8812965,43.0838938]},"properties":{"category":"bakery","name":"Boulangerie Rose","opening_hours":"Mo-Su 06:00-20:30","osm_id":13008830002}},{"type":"Feature","geometry":{"type":"Point","coordinates":[5.8573718,43.0866896]},"properties":{"category":"shop","name":"E Bike Express","opening_hours":"Mo-Su 09:00-19:00","osm_id":13020707771}}]}