{"type":"FeatureCollection","features":[{"type":"Feature","geometry":{"type":"Point","coordinates":[0.1500796,43.06491]},"properties":{"category":"bakery","name":"Au Petit Creux","osm_id":902491212}},{"type":"Feature","geometry":{"type":"Point","coordinates":[0.1559581,43.0696009]},"properties":{"category":"bakery","osm_id":1338414045}},{"type":"Feature","geometry":{"type":"Point","coordinates":[0.1482393,43.0631281]},"properties":{"category":"bakery","name":"Sauvage","osm_id":3066581155}},{"type":"Feature","geometry":{"type":"Point","coordinates":[0.1502101,43.0626798]},"properties":{"category":"bakery","name":"Boulangerie Gallès","osm_id":3066591551}},{"type":"Feature","geometry":{"type":"Point","coordinates":[0.1489549,43.063687]},"properties":{"category":"bakery","name":"Meheust","opening_hours":"Tu,We,Fr,Sa 07:30-13:00; Th 07:30-13:00","osm_id":3066606560}},{"type":"Feature","geometry":{"type":"Point","coordinates":[0.1476875,43.0646795]},"properties":{"category":"bakery","name":"Boulangerie Pâtisserie Plume","osm_id":3066606622}},{"type":"Feature","geometry":{"type":"Point","coordinates":[0.148755,43.0647717]},"properties":{"category":"bakery","name":"Madeleine","osm_id":4025291162}},{"type":"Feature","geometry":{"type":"Point","coordinates":[0.1694694,43.0265229]},"properties":{"category":"bakery","name":"Le Fournil du Petit Creux","opening_hours":"Mo-Sa 06:00-19:30","website":"https://www.boulangerie-aupetitcreux-bagneres.fr/","osm_id":7656482012}},{"type":"Feature","geometry":{"type":"Point","coordinates":[0.1522184,43.0611159]},"properties":{"category":"shop","name":"Chez Octave","phone":"+33 5 62 36 32 78","website":"https://chez-octave.com/","osm_id":11564214632}},{"type":"Feature","geometry":{"type":"Point","coordinates":[0.1489906,43.0632759]},"properties":{"category":"bakery","name":"Pica Mica Traiteur Pâtisserie","osm_id":13883542018}}]}