{"type":"FeatureCollection","features":[{"type":"Feature","geometry":{"type":"Point","coordinates":[2.6635634,43.0518596]},"properties":{"category":"bakery","name":"Boulangerie Thierry Mestre","phone":"+33 4 68 44 00 95","osm_id":2329488493}},{"type":"Feature","geometry":{"type":"Point","coordinates":[2.6210453,43.0911301]},"properties":{"category":"bakery","name":"Boulangerie Patisserie","opening_hours":"Mo-Su 07:30-12:30, 16:00-19:00; We off","phone":"+33 4 68 43 10 67","osm_id":2577464699}}]}