{"type":"FeatureCollection","features":[{"type":"Feature","geometry":{"type":"Point","coordinates":[-0.101082,43.0051382]},"properties":{"category":"bakery","name":"Chez Vignau","phone":"+33 5 62 97 08 81","osm_id":7389579637}},{"type":"Feature","geometry":{"type":"Point","coordinates":[-0.1006927,43.0066441]},"properties":{"category":"bakery","name":"Maison Lagrue, Sophie et Sébastien","opening_hours":"Tu-Sa 07:00-13:30, Tu-Sa 15:15-19:00","phone":"+33 5 62 97 02 12","osm_id":7389763475}},{"type":"Feature","geometry":{"type":"Point","coordinates":[-0.1005606,43.0056536]},"properties":{"category":"bakery","name":"Boulangerie patisserie Dirasse","phone":"+33 5 62 97 00 26","osm_id":7389766100}},{"type":"Feature","geometry":{"type":"Point","coordinates":[-0.1009936,43.0057231]},"properties":{"category":"bakery","name":"La Boulange","phone":"+33 9 52 79 08 47","osm_id":7389794389}}]}