{"type":"FeatureCollection","features":[{"type":"Feature","geometry":{"type":"Point","coordinates":[6.5282567,43.1716084]},"properties":{"category":"bakery","name":"La Cigale Pâtisserie Boulangerie","osm_id":4204395490}},{"type":"Feature","geometry":{"type":"Point","coordinates":[6.5315516,43.1728354]},"properties":{"category":"bakery","name":"Leone","osm_id":7997528089}},{"type":"Feature","geometry":{"type":"Point","coordinates":[6.5311594,43.1721679]},"properties":{"category":"bakery","name":"Boulangerie brune","osm_id":8791180272}},{"type":"Feature","geometry":{"type":"Point","coordinates":[6.5312514,43.1723031]},"properties":{"category":"bakery","name":"Le toucuit","osm_id":8791204749}},{"type":"Feature","geometry":{"type":"Point","coordinates":[6.5301229,43.1719836]},"properties":{"category":"bakery","name":"Les palmiers","osm_id":8807131048}},{"type":"Feature","geometry":{"type":"Point","coordinates":[6.5296729,43.1733906]},"properties":{"category":"bakery","osm_id":9808847832}},{"type":"Feature","geometry":{"type":"Point","coordinates":[6.5367454,43.1811545]},"properties":{"category":"bakery","name":"La Fournée des Palmiers","osm_id":10299202873}},{"type":"Feature","geometry":{"type":"Point","coordinates":[6.535859,43.1783703]},"properties":{"category":"repair","opening_hours":"24/7","osm_id":13310779672}}]}