{"type":"FeatureCollection","features":[{"type":"Feature","geometry":{"type":"Point","coordinates":[5.639838,43.1908605]},"properties":{"category":"bakery","name":"Boulangerie de Fontsainte","opening_hours":"Mo-Sa 06:00-19:30","osm_id":1902948177}},{"type":"Feature","geometry":{"type":"Point","coordinates":[5.6327115,43.1980642]},"properties":{"category":"bakery","name":"La vielle chouette","osm_id":2364712839}},{"type":"Feature","geometry":{"type":"Point","coordinates":[5.6178405,43.1910675]},"properties":{"category":"bakery","name":"Boulangerie de Sainte Marguerite","opening_hours":"Tu-Su 06:00-20:00","osm_id":2999729733}},{"type":"Feature","geometry":{"type":"Point","coordinates":[5.6025813,43.1884395]},"properties":{"category":"bakery","name":"Boulangerie Ange","osm_id":3055123932}},{"type":"Feature","geometry":{"type":"Point","coordinates":[5.6046061,43.1882634]},"properties":{"category":"bakery","name":"La Fabrique","osm_id":3055128313}},{"type":"Feature","geometry":{"type":"Point","coordinates":[5.6018218,43.1707534]},"properties":{"category":"bakery","name":"Boulangerie des Calanques","osm_id":4714884101}},{"type":"Feature","geometry":{"type":"Point","coordinates":[5.6051804,43.17527]},"properties":{"category":"bakery","name":"Le fournil de la Ciotat","osm_id":8807520862}},{"type":"Feature","geometry":{"type":"Point","coordinates":[5.6886768,43.1795626]},"properties":{"category":"bakery","name":"Maison Thomas","osm_id":9386422250}},{"type":"Feature","geometry":{"type":"Point","coordinates":[5.6875394,43.180031]},"properties":{"category":"bakery","name":"Maison JL","osm_id":9386553574}},{"type":"Feature","geometry":{"type":"Point","coordinates":[5.6705352,43.1939989]},"properties":{"category":"compressed_air","osm_id":9646772069}},{"type":"Feature","geometry":{"type":"Point","coordinates":[5.6055854,43.1822047]},"properties":{"category":"bakery","name":"Maison Sordillon","osm_id":11162764903}},{"type":"Feature","geometry":{"type":"Point","coordinates":[5.608319,43.1752898]},"properties":{"category":"bakery","name":"Le Fournil de Martial","osm_id":11171651542}},{"type":"Feature","geometry":{"type":"Point","coordinates":[5.6047446,43.1758993]},"properties":{"category":"bakery","name":"Les Délices de Marine","osm_id":11188376199}},{"type":"Feature","geometry":{"type":"Point","coordinates":[5.605653,43.1730785]},"properties":{"category":"bakery","name":"Foodetoi","opening_hours":"Tu-Sa 06:30-19:00; Su 06:30-14:00","phone":"+33 9 86 54 71 12","website":"https://foodetoi.fr/","osm_id":11188387034}},{"type":"Feature","geometry":{"type":"Point","coordinates":[5.6084329,43.1854559]},"properties":{"category":"bakery","name":"Paul","opening_hours":"06:00-20:00","phone":"+33 4 82 29 98 86","website":"https://www.paul.fr/stores/la_ciotat","osm_id":11194808458}},{"type":"Feature","geometry":{"type":"Point","coordinates":[5.612536,43.1826037]},"properties":{"category":"bakery","name":"Les 2 M","osm_id":12090181328}},{"type":"Feature","geometry":{"type":"Point","coordinates":[5.6103455,43.1833606]},"properties":{"category":"bakery","name":"Moulin de Païou","osm_id":12090181337}},{"type":"Feature","geometry":{"type":"Point","coordinates":[5.6705611,43.1937733]},"properties":{"category":"bakery","name":"Pomme de Pain","osm_id":12091517669}},{"type":"Feature","geometry":{"type":"Point","coordinates":[5.600232,43.1789154]},"properties":{"category":"bakery","name":"La Cigale Gourmande","osm_id":12108339867}},{"type":"Feature","geometry":{"type":"Point","coordinates":[5.6057221,43.173346]},"properties":{"category":"bakery","name":"Paul","phone":"+33 4 82 29 98 86","website":"https://www.paul.fr/stores/la_ciotat_quai_f_mitterrand","osm_id":12294208813}},{"type":"Feature","geometry":{"type":"Point","coordinates":[5.6325485,43.1992945]},"properties":{"category":"repair","osm_id":12785494071}},{"type":"Feature","geometry":{"type":"Point","coordinates":[5.6289825,43.1889215]},"properties":{"category":"bakery","name":"Boulangerie de Saint-Jean","opening_hours":"06:00-20:00; We off","phone":"+33 9 83 88 54 21","osm_id":13429168926}}]}