{"type":"FeatureCollection","features":[{"type":"Feature","geometry":{"type":"Point","coordinates":[0.7280355,43.1092976]},"properties":{"category":"bakery","name":"Maison Granat","opening_hours":"Mo-Sa 06:00-19:00","osm_id":281411425}},{"type":"Feature","geometry":{"type":"Point","coordinates":[0.7236969,43.1084265]},"properties":{"category":"bakery","name":"La Mie Câline","osm_id":3971478769}},{"type":"Feature","geometry":{"type":"Point","coordinates":[0.7612551,43.1155241]},"properties":{"category":"bakery","name":"Marie Blachère","opening_hours":"Mo-Sa 06:30-19:30","osm_id":10733096356}},{"type":"Feature","geometry":{"type":"Point","coordinates":[0.7411636,43.1112357]},"properties":{"category":"bakery","name":"La Panetière","opening_hours":"Mo-Su 07:00-20:00","phone":"+33 5 61 95 46 31","osm_id":10741397914}},{"type":"Feature","geometry":{"type":"Point","coordinates":[0.7508751,43.1130264]},"properties":{"category":"bakery","osm_id":10741397919}},{"type":"Feature","geometry":{"type":"Point","coordinates":[0.7244205,43.1079035]},"properties":{"category":"bakery","name":"Maison Raux et Parra","opening_hours":"Mo-Sa 07:30-13:30","osm_id":12443858854}},{"type":"Feature","geometry":{"type":"Point","coordinates":[0.7257615,43.1130794]},"properties":{"category":"bakery","name":"Boulangerie pâtisserie Descoins","opening_hours":"Mo-Fr 06:30-19:00; Su 06:30-13:00","osm_id":13410742012}},{"type":"Feature","geometry":{"type":"Point","coordinates":[0.7700225,43.112384]},"properties":{"category":"bakery","name":"Sophie Lebreuilly","osm_id":13410758754}},{"type":"Feature","geometry":{"type":"Point","coordinates":[0.7213511,43.1069882]},"properties":{"category":"bakery","name":"Co'pains","opening_hours":"Mo-Fr 06:30-19:00","osm_id":13918485036}},{"type":"Feature","geometry":{"type":"Point","coordinates":[0.7220362,43.1078649]},"properties":{"category":"bakery","name":"Le Petit Moulin","opening_hours":"Tu-Su 07:30-14:00","osm_id":13918485037}},{"type":"Feature","geometry":{"type":"Point","coordinates":[0.7299941,43.1012784]},"properties":{"category":"bakery","name":"La Croix du Pouech","opening_hours":"Mo-Sa 04:30-12:45; Mo-Fr 15:00-18:30","osm_id":13918485038}},{"type":"Feature","geometry":{"type":"Point","coordinates":[0.7119982,43.1084294]},"properties":{"category":"bakery","name":"Secret de Pains","opening_hours":"Mo,Tu,Th,Fr,Sa 05:30-19:00; Su 00:00-23:59","osm_id":13918485039}}]}