{"type":"FeatureCollection","features":[{"type":"Feature","geometry":{"type":"Point","coordinates":[1.6448016,43.1018438]},"properties":{"category":"bakery","name":"L'Oustal Doussat","osm_id":1638002168}},{"type":"Feature","geometry":{"type":"Point","coordinates":[1.6531025,43.1034008]},"properties":{"category":"bakery","name":"Bouche Jean Michel","osm_id":1911861986}},{"type":"Feature","geometry":{"type":"Point","coordinates":[1.622637,43.1041949]},"properties":{"category":"bakery","name":"Boulangerie Pâtisserie Patrick Menongbé","opening_hours":"Mo, We-Sa 06:30-20:00; Su 06:30-13:00","phone":"+33 5 61 68 75 23","website":"https://www.boulangerie-patisserie-patrick.com/","osm_id":2296479488}},{"type":"Feature","geometry":{"type":"Point","coordinates":[1.6285862,43.1028279]},"properties":{"category":"bakery","name":"La Mie de Pain","opening_hours":"Mo-Sa 06:00-20:00","phone":"+33 5 61 69 72 98","website":"https://www.lamiedepain-boulangerie.fr/boulangerie-la-mie-de-pain-pamiers-09100/","osm_id":2296479504}},{"type":"Feature","geometry":{"type":"Point","coordinates":[1.6231982,43.1305423]},"properties":{"category":"bakery","osm_id":4902640000}},{"type":"Feature","geometry":{"type":"Point","coordinates":[1.6301937,43.1128586]},"properties":{"category":"shop","name":"Culture Vélo","opening_hours":"Tu-Fr 09:30-12:00, 14:30-19:00; Sa 09:30-12:30, 14:00-18:00","phone":"+33 5 61 60 14 05","website":"https://www.culturevelo.com/-Pamiers-","osm_id":6125157200}},{"type":"Feature","geometry":{"type":"Point","coordinates":[1.6075778,43.1355424]},"properties":{"category":"shop","name":"Ariège Cycles","opening_hours":"Tu-Sa 09:30-12:30,15:00-19:00","phone":"+33 5 61 67 38 44","website":"https://www.ariege-cycles.com/","osm_id":8461571837}},{"type":"Feature","geometry":{"type":"Point","coordinates":[1.6106252,43.1162109]},"properties":{"category":"bakery","name":"La Panetière","phone":"+33 5 34 02 38 82","osm_id":11134746524}},{"type":"Feature","geometry":{"type":"Point","coordinates":[1.6152724,43.1155588]},"properties":{"category":"bakery","name":"L'Oustal Doussat","osm_id":12806466140}},{"type":"Feature","geometry":{"type":"Point","coordinates":[1.6107197,43.1227584]},"properties":{"category":"bakery","name":"L'Atelier de Louise","osm_id":13064294046}},{"type":"Feature","geometry":{"type":"Point","coordinates":[1.6151282,43.133109]},"properties":{"category":"shop","name":"la guitoune","phone":"+33751652790","osm_id":13716225084}},{"type":"Feature","geometry":{"type":"Point","coordinates":[1.6214589,43.1152235]},"properties":{"category":"bakery","name":"L'Oustal Doussat","osm_id":13779633140}},{"type":"Feature","geometry":{"type":"Point","coordinates":[1.6188669,43.116226]},"properties":{"category":"shop","name":"Atelier vélo auto-réparation CyclosPattes Pamiers","opening_hours":"We 14:00-18:00; Sa 09:00-12:00","website":"https://cyclospattes.org/","osm_id":13874516646}},{"type":"Feature","geometry":{"type":"Point","coordinates":[1.6107828,43.1857501]},"properties":{"category":"bakery","name":"L'atelier de Louise","osm_id":13985940601}}]}