{"type":"FeatureCollection","features":[{"type":"Feature","geometry":{"type":"Point","coordinates":[-0.4273819,43.1052565]},"properties":{"category":"bakery","name":"Boulangerie Pâtisserie Bordegaray","opening_hours":"Mo,Tu,We 06:30-12:45,14:30-18:30; Fr 06:30-12:45,14:30-18:30; Sa 07:00-12:45,15:30-18:30; Su 07:00-12:45","osm_id":486131341}},{"type":"Feature","geometry":{"type":"Point","coordinates":[-0.4567043,43.1329659]},"properties":{"category":"bakery","name":"O Levain D'Ossau","opening_hours":"Mo,Th-Sa 07:00-13:30, 16:00-19:00, Tu,Su 07:00-13:00","osm_id":3024454748}},{"type":"Feature","geometry":{"type":"Point","coordinates":[-0.436812,43.103471]},"properties":{"category":"compressed_air","osm_id":9842713873}},{"type":"Feature","geometry":{"type":"Point","coordinates":[-0.4559456,43.147456]},"properties":{"category":"repair","osm_id":10292890608}},{"type":"Feature","geometry":{"type":"Point","coordinates":[-0.4268293,43.1048888]},"properties":{"category":"bakery","name":"Pais","osm_id":10997758180}},{"type":"Feature","geometry":{"type":"Point","coordinates":[-0.4365861,43.1088849]},"properties":{"category":"repair","osm_id":12094756145}}]}