{"type":"FeatureCollection","features":[{"type":"Feature","geometry":{"type":"Point","coordinates":[-0.1137061,43.1845006]},"properties":{"category":"bakery","name":"Boulangerie Chastel","osm_id":5336242952}},{"type":"Feature","geometry":{"type":"Point","coordinates":[-0.1137831,43.1742945]},"properties":{"category":"shop","name":"Home Bike service","phone":"+33607552184","osm_id":9876648929}},{"type":"Feature","geometry":{"type":"Point","coordinates":[-0.1591677,43.1036993]},"properties":{"category":"bakery","osm_id":10012786499}},{"type":"Feature","geometry":{"type":"Point","coordinates":[-0.1595378,43.1034426]},"properties":{"category":"bakery","name":"Boulangerie L'artisanale","osm_id":10012866264}}]}