{"type":"FeatureCollection","features":[{"type":"Feature","geometry":{"type":"Point","coordinates":[-0.0284094,43.1831127]},"properties":{"category":"bakery","name":"NJF Artisan Boulanger","osm_id":1833443983}},{"type":"Feature","geometry":{"type":"Point","coordinates":[-0.037544,43.1095206]},"properties":{"category":"shop","name":"Cycles Arbes","opening_hours":"Mo","phone":"+33562940551","website":"https://www.cycles-arbes.com/","osm_id":2526463967}},{"type":"Feature","geometry":{"type":"Point","coordinates":[-0.0348126,43.1113267]},"properties":{"category":"bakery","name":"L'Ami du Pain","phone":"+33562461851","website":"http://www.boulangerielamidupain.fr/?utm_source=gmb","osm_id":3680871082}},{"type":"Feature","geometry":{"type":"Point","coordinates":[-0.0425112,43.103295]},"properties":{"category":"bakery","osm_id":11350406028}}]}