{"type":"FeatureCollection","features":[{"type":"Feature","geometry":{"type":"Point","coordinates":[6.4787923,43.1597145]},"properties":{"category":"bakery","name":"Boulangerie du Rayol","osm_id":5650389605}},{"type":"Feature","geometry":{"type":"Point","coordinates":[6.47867,43.1604659]},"properties":{"category":"bakery","name":"La fournée des palmiers","osm_id":5650389607}},{"type":"Feature","geometry":{"type":"Point","coordinates":[6.4805294,43.1557579]},"properties":{"category":"repair","osm_id":11637667870}}]}