{"type":"FeatureCollection","features":[{"type":"Feature","geometry":{"type":"Point","coordinates":[3.0953704,43.1861154]},"properties":{"category":"bakery","osm_id":595558022}},{"type":"Feature","geometry":{"type":"Point","coordinates":[3.0053922,43.1828234]},"properties":{"category":"bakery","name":"Macar","opening_hours":"Th-Mo 09:00-01:00","osm_id":1730540451}},{"type":"Feature","geometry":{"type":"Point","coordinates":[3.0858886,43.105888]},"properties":{"category":"bakery","name":"Boulangerie Pâtisserie Bernard","phone":"+33 4 68 49 54 77","website":"https://www.boulangerie-bernard.fr/","osm_id":2361985759}},{"type":"Feature","geometry":{"type":"Point","coordinates":[3.0857411,43.1055182]},"properties":{"category":"bakery","osm_id":2452100353}},{"type":"Feature","geometry":{"type":"Point","coordinates":[3.0873744,43.1068535]},"properties":{"category":"bakery","name":"ronde des pains","opening_hours":"We-Mo 06:30-12:30,16:00-18:30","osm_id":2452100371}},{"type":"Feature","geometry":{"type":"Point","coordinates":[3.0043183,43.1833051]},"properties":{"category":"bakery","name":"Maison Maury","opening_hours":"Mo-Su 06:00-20:00","phone":"+33 4 68 32 12 54","osm_id":2809828721}},{"type":"Feature","geometry":{"type":"Point","coordinates":[3.0938012,43.1109351]},"properties":{"category":"shop","name":"Cycle Aventure","phone":"+33 7 82 30 05 33","website":"https://www.cycleaventure.fr/","osm_id":3741311423}},{"type":"Feature","geometry":{"type":"Point","coordinates":[3.009287,43.1810493]},"properties":{"category":"bakery","name":"Chez François","opening_hours":"Tu-Su 06:30-13:00","osm_id":7023424649}},{"type":"Feature","geometry":{"type":"Point","coordinates":[3.0347277,43.1818903]},"properties":{"category":"bakery","name":"Boulangerie Ange","phone":"+33 4 68 12 20 89","osm_id":9496473394}},{"type":"Feature","geometry":{"type":"Point","coordinates":[3.0913532,43.108068]},"properties":{"category":"bakery","name":"La Panetière","osm_id":10096233271}},{"type":"Feature","geometry":{"type":"Point","coordinates":[3.0970313,43.1100785]},"properties":{"category":"bakery","name":"Le briochon","opening_hours":"Mo-Su 06:30-19:00","osm_id":10559153017}},{"type":"Feature","geometry":{"type":"Point","coordinates":[3.0957319,43.1113714]},"properties":{"category":"repair","osm_id":10900154162}},{"type":"Feature","geometry":{"type":"Point","coordinates":[3.0902226,43.1087867]},"properties":{"category":"repair","osm_id":10900154163}},{"type":"Feature","geometry":{"type":"Point","coordinates":[3.0238946,43.1836113]},"properties":{"category":"bakery","name":"Le Moulin","opening_hours":"Mo-Su 06:30-19:00","osm_id":11113780879}},{"type":"Feature","geometry":{"type":"Point","coordinates":[3.0018462,43.1800674]},"properties":{"category":"bakery","name":"Ronde des Pains","osm_id":11113834361}},{"type":"Feature","geometry":{"type":"Point","coordinates":[3.0021577,43.1799941]},"properties":{"category":"shop","name":"Velodor","phone":"+33 4 68 41 39 34","osm_id":11966786611}},{"type":"Feature","geometry":{"type":"Point","coordinates":[3.0029716,43.1841143]},"properties":{"category":"bakery","name":"Le Temps du Chocolat","osm_id":12518480134}},{"type":"Feature","geometry":{"type":"Point","coordinates":[3.0055422,43.185172]},"properties":{"category":"shop","name":"Vélocité Narbonne","opening_hours":"Sa 09:30-12:30","website":"https://velocite-narbonne.fr/","osm_id":12817294340}},{"type":"Feature","geometry":{"type":"Point","coordinates":[3.0044135,43.1833517]},"properties":{"category":"bakery","name":"La Mie Câline","opening_hours":"Mo-Sa 07:00-19:30, Su 07:00-19:15","osm_id":13260400095}},{"type":"Feature","geometry":{"type":"Point","coordinates":[3.0861489,43.1070507]},"properties":{"category":"bakery","name":"La Panetière","opening_hours":"Mo-Su 07:00-20:00","phone":"+33 6 82 75 17 46","osm_id":13569978701}},{"type":"Feature","geometry":{"type":"Point","coordinates":[3.0304959,43.1795912]},"properties":{"category":"shop","name":"Veloland","osm_id":13838778269}},{"type":"Feature","geometry":{"type":"Point","coordinates":[3.0084943,43.1885695]},"properties":{"category":"bakery","osm_id":13841156829}},{"type":"Feature","geometry":{"type":"Point","coordinates":[3.0115959,43.1868956]},"properties":{"category":"shop","name":"Cycles laurent","osm_id":13841165443}}]}