{"type":"FeatureCollection","features":[{"type":"Feature","geometry":{"type":"Point","coordinates":[2.7167926,43.1874751]},"properties":{"category":"bakery","name":"Lo Palhiér","osm_id":3102623138}},{"type":"Feature","geometry":{"type":"Point","coordinates":[2.7546072,43.1864022]},"properties":{"category":"shop","name":"Mondovélo","opening_hours":"Tu-Sa 10:00-13:00,14:00-19:00","phone":"+33 4 68 70 60 09","website":"https://www.sport2000.fr/magasins/fiche/110299-mondovelo-lezignan","osm_id":11809712389}}]}