{"type":"FeatureCollection","features":[{"type":"Feature","geometry":{"type":"Point","coordinates":[6.2187982,43.1305914]},"properties":{"category":"bakery","name":"Le Pétrin Ribeïrou","phone":"+33494004092","osm_id":7432723992}},{"type":"Feature","geometry":{"type":"Point","coordinates":[6.2344976,43.137758]},"properties":{"category":"bakery","name":"Le fournil du centre","opening_hours":"Mo-Tu 07:00-19:00; We 07:00-14:00; Th-Sa 07:00-19:00; Su 07:00-14:00","phone":"+33 4 23 26 86 53","osm_id":10048706741}},{"type":"Feature","geometry":{"type":"Point","coordinates":[6.2377413,43.1342904]},"properties":{"category":"bakery","name":"Gabriel Fabre","opening_hours":"Tu-Su 06:30-19:00","osm_id":10753880667}},{"type":"Feature","geometry":{"type":"Point","coordinates":[6.2337954,43.1385782]},"properties":{"category":"bakery","name":"Le monde des saveurs","osm_id":10988322874}}]}