{"type":"FeatureCollection","features":[{"type":"Feature","geometry":{"type":"Point","coordinates":[3.1025535,43.1092658]},"properties":{"category":"shop","name":"Vacances confort","phone":"+33 4 68 49 13 35","website":"https://vacancesconfort.wixsite.com/vacancesconfort","osm_id":3741311416}},{"type":"Feature","geometry":{"type":"Point","coordinates":[3.1896891,43.1776129]},"properties":{"category":"repair","opening_hours":"24/7","osm_id":12148046263}},{"type":"Feature","geometry":{"type":"Point","coordinates":[3.1686632,43.1599661]},"properties":{"category":"repair","osm_id":13173204688}}]}