{"type":"FeatureCollection","features":[{"type":"Feature","geometry":{"type":"Point","coordinates":[1.1938508,43.2643256]},"properties":{"category":"bakery","osm_id":1634539851}},{"type":"Feature","geometry":{"type":"Point","coordinates":[1.1531027,43.2437739]},"properties":{"category":"bakery","osm_id":2169307773}},{"type":"Feature","geometry":{"type":"Point","coordinates":[1.1968168,43.2576083]},"properties":{"category":"bakery","name":"Boulangerie Rivoise","osm_id":3089411417}},{"type":"Feature","geometry":{"type":"Point","coordinates":[1.1956281,43.2664607]},"properties":{"category":"shop","osm_id":5247632773}}]}