{"type":"FeatureCollection","features":[{"type":"Feature","geometry":{"type":"Point","coordinates":[2.4414238,43.2113887]},"properties":{"category":"shop","name":"Locavelo","website":"https://www.locavelo.fr","osm_id":1732625104}},{"type":"Feature","geometry":{"type":"Point","coordinates":[2.4320289,43.2063453]},"properties":{"category":"shop","name":"Cycles Castilla","osm_id":2470468944}},{"type":"Feature","geometry":{"type":"Point","coordinates":[2.4445785,43.2096258]},"properties":{"category":"repair","osm_id":13618720858}}]}