{"type":"FeatureCollection","features":[{"type":"Feature","geometry":{"type":"Point","coordinates":[5.9696045,43.2818883]},"properties":{"category":"bakery","name":"L’atelier du Boulanger","opening_hours":"We-Mo 05:30-19:00","phone":"+33 4 94 33 98 41","osm_id":5669097641}},{"type":"Feature","geometry":{"type":"Point","coordinates":[5.9717854,43.2840289]},"properties":{"category":"bakery","name":"Au Feu De Bois","opening_hours":"Tu-Sa 07:00-12:45,16:00-19:00; Su 07:00-12:45","phone":"+33 4 94 33 90 80","osm_id":5670183775}}]}