{"type":"FeatureCollection","features":[{"type":"Feature","geometry":{"type":"Point","coordinates":[1.2247185,43.2956856]},"properties":{"category":"bakery","name":"Marc Boubennes","phone":"+33 5 61 87 84 24","osm_id":1634569460}},{"type":"Feature","geometry":{"type":"Point","coordinates":[1.2254343,43.2952481]},"properties":{"category":"bakery","name":"La fournée d'antan","osm_id":2162269711}},{"type":"Feature","geometry":{"type":"Point","coordinates":[1.2252959,43.295209]},"properties":{"category":"bakery","name":"La Petrie","osm_id":2162269712}},{"type":"Feature","geometry":{"type":"Point","coordinates":[1.2177665,43.2963922]},"properties":{"category":"bakery","osm_id":3055891133}},{"type":"Feature","geometry":{"type":"Point","coordinates":[1.2259993,43.293974]},"properties":{"category":"bakery","name":"Maison Gelis","opening_hours":"Mo-Sa 07:00-19:30; Su, PH 07:00-12:30","phone":"+33 5 61 87 80 57","website":"https://maisongelis.fr/","osm_id":3141958329}},{"type":"Feature","geometry":{"type":"Point","coordinates":[1.2313898,43.2082069]},"properties":{"category":"bakery","name":"Au Bois de feu","opening_hours":"Tu-Su 07:00-13:00","osm_id":4327994593}},{"type":"Feature","geometry":{"type":"Point","coordinates":[1.22753,43.2052448]},"properties":{"category":"bakery","opening_hours":"Tu-Su 07:30-13:00, 16:00-19:30","osm_id":4837968940}},{"type":"Feature","geometry":{"type":"Point","coordinates":[1.2194962,43.2969508]},"properties":{"category":"shop","name":"Atelier Cyclothérapeute","opening_hours":"Tu-Sa 09:00-12:00,15:00-19:00","phone":"+33 6 95 61 64 77","website":"https://cyclotherapeute.fr","osm_id":13808056158}}]}