{"type":"FeatureCollection","features":[{"type":"Feature","geometry":{"type":"Point","coordinates":[-1.2985747,43.2333562]},"properties":{"category":"bakery","name":"Ogitegi Ithurralde","phone":"+33 5 59 37 95 75","osm_id":9166937093}},{"type":"Feature","geometry":{"type":"Point","coordinates":[-1.232641,43.2574755]},"properties":{"category":"bakery","name":"Minhindo","phone":"+33 5 59 37 60 57","osm_id":9500783497}},{"type":"Feature","geometry":{"type":"Point","coordinates":[-1.2966015,43.2368583]},"properties":{"category":"bakery","osm_id":12103969001}}]}