{"type":"FeatureCollection","features":[{"type":"Feature","geometry":{"type":"Point","coordinates":[1.0113247,43.2000301]},"properties":{"category":"bakery","osm_id":2795146942}},{"type":"Feature","geometry":{"type":"Point","coordinates":[1.0864206,43.2062699]},"properties":{"category":"bakery","name":"B&A","opening_hours":"Tu-Sa 07:00-19:30; Su 07:00-13:30","osm_id":3687044015}},{"type":"Feature","geometry":{"type":"Point","coordinates":[1.0661747,43.281882]},"properties":{"category":"bakery","name":"Patisserie Blasco","opening_hours":"Tu-Su 06:30-13:00, Tu-Fr 16:00-19:00, Sa 16:00-18:30","osm_id":4895034783}},{"type":"Feature","geometry":{"type":"Point","coordinates":[1.0831929,43.2123301]},"properties":{"category":"bakery","name":"Marie Blachère","opening_hours":"Mo-Sa 06:30-19:30","phone":"+33 5 61 97 63 41","website":"https://boulangeries.marieblachere.com/fr/france-FR/5228/marie-blachere-cazeres/details","osm_id":6677154611}},{"type":"Feature","geometry":{"type":"Point","coordinates":[1.0407242,43.2404026]},"properties":{"category":"bakery","osm_id":7404463911}}]}