{"type":"FeatureCollection","features":[{"type":"Feature","geometry":{"type":"Point","coordinates":[2.7507038,43.2003058]},"properties":{"category":"compressed_air","name":"Air comprimé","osm_id":4058909277}},{"type":"Feature","geometry":{"type":"Point","coordinates":[2.7770587,43.2019148]},"properties":{"category":"bakery","name":"Campaillette","osm_id":6576888236}},{"type":"Feature","geometry":{"type":"Point","coordinates":[2.7318793,43.2841852]},"properties":{"category":"bakery","name":"Maison Sieurac","osm_id":6699036486}},{"type":"Feature","geometry":{"type":"Point","coordinates":[2.7621455,43.2030584]},"properties":{"category":"bakery","name":"La Panetière","opening_hours":"Mo-Su 07:00-20:00","phone":"+33 4 68 40 79 78","osm_id":9272654302}},{"type":"Feature","geometry":{"type":"Point","coordinates":[2.7587227,43.2007069]},"properties":{"category":"bakery","osm_id":9929767342}},{"type":"Feature","geometry":{"type":"Point","coordinates":[2.7602724,43.2011271]},"properties":{"category":"bakery","name":"Le Fournil des Corbières","opening_hours":"Tu-Sa 06:30-19:30; Su 06:30-13:00","osm_id":9929767361}},{"type":"Feature","geometry":{"type":"Point","coordinates":[2.7626114,43.2007499]},"properties":{"category":"bakery","name":"Au bon pain","osm_id":9929878698}},{"type":"Feature","geometry":{"type":"Point","coordinates":[2.7627329,43.2007178]},"properties":{"category":"shop","name":"Cycles Cyclos","phone":"+33 4 68 41 76 32","website":"https://www.cyclescyclos.fr/","osm_id":9929878700}},{"type":"Feature","geometry":{"type":"Point","coordinates":[2.7298694,43.2855074]},"properties":{"category":"bakery","name":"Boulangerie du cortal","osm_id":10265121563}}]}