{"type":"FeatureCollection","features":[{"type":"Feature","geometry":{"type":"Point","coordinates":[-1.0674784,43.2007971]},"properties":{"category":"bakery","name":"Ithuralde","osm_id":4892464787}},{"type":"Feature","geometry":{"type":"Point","coordinates":[-1.022323,43.2774477]},"properties":{"category":"compressed_air","osm_id":9898317363}},{"type":"Feature","geometry":{"type":"Point","coordinates":[-1.094336,43.2339437]},"properties":{"category":"bakery","name":"Ithurralde","osm_id":13922164788}}]}