{"type":"FeatureCollection","features":[{"type":"Feature","geometry":{"type":"Point","coordinates":[6.0285106,43.2045972]},"properties":{"category":"bakery","name":"Banette","osm_id":297507058}},{"type":"Feature","geometry":{"type":"Point","coordinates":[6.0251853,43.2063226]},"properties":{"category":"bakery","osm_id":844788835}},{"type":"Feature","geometry":{"type":"Point","coordinates":[6.079924,43.2379683]},"properties":{"category":"bakery","name":"Boulangerie Patisserie Bailly","phone":"+33 4 94 31 93 21","osm_id":1770329807}},{"type":"Feature","geometry":{"type":"Point","coordinates":[6.0003766,43.2457843]},"properties":{"category":"bakery","name":"Le Fournil du Gapeau","osm_id":2205077391}},{"type":"Feature","geometry":{"type":"Point","coordinates":[6.0720546,43.2376702]},"properties":{"category":"bakery","osm_id":2384021659}},{"type":"Feature","geometry":{"type":"Point","coordinates":[6.0499986,43.2019491]},"properties":{"category":"shop","name":"Siou Blanc","osm_id":3300330774}}]}