{"type":"FeatureCollection","features":[{"type":"Feature","geometry":{"type":"Point","coordinates":[-0.2697672,43.2823347]},"properties":{"category":"bakery","name":"L'atelier des saveurs","opening_hours":"Tu-Fr 07:00-13:00, 15:30-20:00; Sa 07:00-20:00; Su 07:00-13:00","osm_id":4882921525}},{"type":"Feature","geometry":{"type":"Point","coordinates":[-0.2813793,43.235094]},"properties":{"category":"bakery","osm_id":7191437108}},{"type":"Feature","geometry":{"type":"Point","coordinates":[-0.2484276,43.2758654]},"properties":{"category":"bakery","name":"Pains & Gourmandises","osm_id":7670848805}},{"type":"Feature","geometry":{"type":"Point","coordinates":[-0.2693558,43.2807373]},"properties":{"category":"bakery","name":"Boulangerie du moulin","osm_id":7671605457}},{"type":"Feature","geometry":{"type":"Point","coordinates":[-0.2046695,43.270884]},"properties":{"category":"bakery","name":"L'Atelier du Goût","phone":"+33 6 69 18 91 85","website":"https://www.goutemoica.fr","osm_id":7837401069}},{"type":"Feature","geometry":{"type":"Point","coordinates":[-0.2792352,43.2486261]},"properties":{"category":"bakery","osm_id":8000844758}},{"type":"Feature","geometry":{"type":"Point","coordinates":[-0.2607243,43.2953233]},"properties":{"category":"bakery","osm_id":11115260778}},{"type":"Feature","geometry":{"type":"Point","coordinates":[-0.2848598,43.2380368]},"properties":{"category":"bakery","name":"Les Délices de Bordes","osm_id":12054649348}},{"type":"Feature","geometry":{"type":"Point","coordinates":[-0.2958024,43.2523546]},"properties":{"category":"bakery","name":"Carneiro","opening_hours":"Mo-Fr 07:00-19:00; Sa-Su 07:00-13:00","osm_id":13756666801}}]}