{"type":"FeatureCollection","features":[{"type":"Feature","geometry":{"type":"Point","coordinates":[2.624392,43.2230717]},"properties":{"category":"bakery","name":"Boulangerie de Puichéric","osm_id":1048696672}},{"type":"Feature","geometry":{"type":"Point","coordinates":[2.6552541,43.2509251]},"properties":{"category":"bakery","name":"Maison Mathey","osm_id":4497524277}},{"type":"Feature","geometry":{"type":"Point","coordinates":[2.6592437,43.2480682]},"properties":{"category":"repair","osm_id":14162181720}}]}