{"type":"FeatureCollection","features":[{"type":"Feature","geometry":{"type":"Point","coordinates":[5.5293965,43.2873393]},"properties":{"category":"shop","name":"Culture Vélo Marseille Est","osm_id":957194161}},{"type":"Feature","geometry":{"type":"Point","coordinates":[5.5950263,43.2964366]},"properties":{"category":"compressed_air","osm_id":6175815088}},{"type":"Feature","geometry":{"type":"Point","coordinates":[5.5971042,43.2022308]},"properties":{"category":"shop","name":"Bike District","osm_id":8091790149}},{"type":"Feature","geometry":{"type":"Point","coordinates":[5.5241544,43.2878136]},"properties":{"category":"shop","name":"Tinazzi Cycles","website":"https://www.tinazzi.fr/","osm_id":9081877443}},{"type":"Feature","geometry":{"type":"Point","coordinates":[5.5688193,43.292643]},"properties":{"category":"repair","name":"Blg Sellerie","opening_hours":"Mo-Fr 11:00 - 19:00","osm_id":12102689736}},{"type":"Feature","geometry":{"type":"Point","coordinates":[5.565956,43.2967859]},"properties":{"category":"repair","osm_id":12794513205}},{"type":"Feature","geometry":{"type":"Point","coordinates":[5.5644548,43.2925147]},"properties":{"category":"shop","name":"Repair and run","phone":"+33 4 42 72 64 36","website":"https://www.repairandrun.com","osm_id":13505912720}}]}