{"type":"FeatureCollection","features":[{"type":"Feature","geometry":{"type":"Point","coordinates":[5.7766661,43.2145535]},"properties":{"category":"bakery","name":"Boulangerie Simone","phone":"+33 4 94 32 60 84","osm_id":5763589254}},{"type":"Feature","geometry":{"type":"Point","coordinates":[5.7502654,43.2579168]},"properties":{"category":"bakery","name":"Le Moulin de Malte","opening_hours":"Mo-Su 06:00-21:00","phone":"+33 4 94 32 73 15","osm_id":6425520285}},{"type":"Feature","geometry":{"type":"Point","coordinates":[5.7760273,43.2027403]},"properties":{"category":"bakery","name":"La Femme du Boulanger","osm_id":6551042955}},{"type":"Feature","geometry":{"type":"Point","coordinates":[5.7016756,43.2759129]},"properties":{"category":"bakery","name":"La cigale gourmande","opening_hours":"Mo-Fr 06:00-13:30,15:30-19:30; Sa 06:00-13:30,16:00-19:30; Su 06:30-13:30","phone":"+33 4 42 73 82 25","osm_id":13887011974}}]}