{"type":"FeatureCollection","features":[{"type":"Feature","geometry":{"type":"Point","coordinates":[5.3873781,43.2718236]},"properties":{"category":"bakery","name":"Le Fournil d'Herriot","opening_hours":"Mo-Su 07:00-19:30","phone":"+33 4 91 76 54 10","osm_id":442635458}},{"type":"Feature","geometry":{"type":"Point","coordinates":[5.374618,43.2934709]},"properties":{"category":"bakery","name":"La Cantine du Boulanger","osm_id":997670284}},{"type":"Feature","geometry":{"type":"Point","coordinates":[5.3909449,43.2958354]},"properties":{"category":"bakery","name":"La Fournée de Provence","opening_hours":"PH,Tu-Su 05:00-20:30","osm_id":1033060944}},{"type":"Feature","geometry":{"type":"Point","coordinates":[5.3853146,43.2943018]},"properties":{"category":"bakery","name":"Le Fournil de la Place","osm_id":1034064319}},{"type":"Feature","geometry":{"type":"Point","coordinates":[5.3947776,43.2854372]},"properties":{"category":"bakery","name":"Les délices de Menpenti","opening_hours":"Tu-Su 06:30-20:00","osm_id":1209777864}},{"type":"Feature","geometry":{"type":"Point","coordinates":[5.3715154,43.2969685]},"properties":{"category":"bakery","name":"La Panetteria","osm_id":1250893403}},{"type":"Feature","geometry":{"type":"Point","coordinates":[5.3577645,43.2918171]},"properties":{"category":"bakery","name":"Boulangerie Pâtisserie du Pharo","opening_hours":"Mo-Su 05:30-19:00","osm_id":1315196684}},{"type":"Feature","geometry":{"type":"Point","coordinates":[5.3967471,43.2494887]},"properties":{"category":"bakery","name":"Les Plaisirs du Pain","osm_id":1333689685}},{"type":"Feature","geometry":{"type":"Point","coordinates":[5.3807196,43.2941009]},"properties":{"category":"shop","name":"Collectif Vélos en Ville","phone":"+33 9 54 58 88 77","website":"https://www.velosenville.org","osm_id":1371017780}},{"type":"Feature","geometry":{"type":"Point","coordinates":[5.3957345,43.2924143]},"properties":{"category":"bakery","osm_id":1864130868}},{"type":"Feature","geometry":{"type":"Point","coordinates":[5.3977375,43.2944885]},"properties":{"category":"bakery","name":"La Fournée d'Elo","opening_hours":"Mo-Tu 06:00-20:00; Th-Su 06:00-20:00","osm_id":1864131496}},{"type":"Feature","geometry":{"type":"Point","coordinates":[5.3905878,43.2959093]},"properties":{"category":"bakery","name":"La fournée d'Eugène","osm_id":1871305274}},{"type":"Feature","geometry":{"type":"Point","coordinates":[5.38321,43.2914318]},"properties":{"category":"shop","name":"Extreme Bikes","opening_hours":"Mo 14:30-18:30; Tu-Fr 09:30-18:30,14:30-18:30; Sa 09:30-12:30","phone":"+33 4 95 08 21 13","website":"https://www.extreme-bikes.fr/","osm_id":1883478191}},{"type":"Feature","geometry":{"type":"Point","coordinates":[5.3827462,43.2916856]},"properties":{"category":"bakery","name":"Le Fournil de Léna","opening_hours":"Mo-Sa 06:00-20:00","phone":"+33 6 63 05 84 67","osm_id":1883487959}},{"type":"Feature","geometry":{"type":"Point","coordinates":[5.3931515,43.2952458]},"properties":{"category":"bakery","name":"La Huche d'Or","opening_hours":"Tu-Sa 07:00-13:00,16:00-19:30; Su 07:00-13:00; Mo off","osm_id":1886599700}},{"type":"Feature","geometry":{"type":"Point","coordinates":[5.3719911,43.2916607]},"properties":{"category":"bakery","name":"La Paline","osm_id":1886609581}},{"type":"Feature","geometry":{"type":"Point","coordinates":[5.3919108,43.2954379]},"properties":{"category":"bakery","name":"Tendance gourmande","opening_hours":"Mo,Tu,Th-Sa 06:30-19:00; Su 07:00-13:00","osm_id":1933761760}},{"type":"Feature","geometry":{"type":"Point","coordinates":[5.377064,43.295474]},"properties":{"category":"bakery","name":"La Mie Câline","opening_hours":"Mo-Fr 06:30-19:30; Sa 08:00-19:30","osm_id":1941628376}},{"type":"Feature","geometry":{"type":"Point","coordinates":[5.3751548,43.2479395]},"properties":{"category":"bakery","name":"Au pan que canto","opening_hours":"Tu-Sa,PH 07:00-14:00,15:30-19:30; Su 07:00-14:00","osm_id":1942083106}},{"type":"Feature","geometry":{"type":"Point","coordinates":[5.3852403,43.2930591]},"properties":{"category":"bakery","name":"PAIN PAN !","opening_hours":"Tu-Sa 07:00-20:00; Su 08:00-13:00","osm_id":2001201535}},{"type":"Feature","geometry":{"type":"Point","coordinates":[5.3851364,43.2922382]},"properties":{"category":"bakery","name":"House of Pain","opening_hours":"Mo-We,Fr,Sa 08:00-20:00; Su 09:30-13:00","phone":"+33491375045","osm_id":2010627427}},{"type":"Feature","geometry":{"type":"Point","coordinates":[5.3865803,43.2939306]},"properties":{"category":"bakery","name":"Le Fournil de l'Etoile","osm_id":2010715848}},{"type":"Feature","geometry":{"type":"Point","coordinates":[5.384949,43.2991906]},"properties":{"category":"bakery","name":"Boulangerie Gambetta","osm_id":2016443147}},{"type":"Feature","geometry":{"type":"Point","coordinates":[5.3929654,43.2882062]},"properties":{"category":"bakery","name":"Le Fournil de mon Père","opening_hours":"Mo-Sa 05:00-21:00","osm_id":2019803237}},{"type":"Feature","geometry":{"type":"Point","coordinates":[5.3844233,43.2858876]},"properties":{"category":"bakery","name":"Marrou","osm_id":2019893924}},{"type":"Feature","geometry":{"type":"Point","coordinates":[5.3858706,43.2866408]},"properties":{"category":"bakery","osm_id":2019893935}},{"type":"Feature","geometry":{"type":"Point","coordinates":[5.393426,43.2918727]},"properties":{"category":"bakery","name":"Fournil Saint-Pierre","osm_id":2019916442}},{"type":"Feature","geometry":{"type":"Point","coordinates":[5.3840945,43.2924645]},"properties":{"category":"bakery","name":"Le Fournil d'Alice","osm_id":2024544253}},{"type":"Feature","geometry":{"type":"Point","coordinates":[5.3774964,43.295173]},"properties":{"category":"bakery","name":"La Brioche","osm_id":2039908814}},{"type":"Feature","geometry":{"type":"Point","coordinates":[5.3846734,43.2915026]},"properties":{"category":"bakery","name":"Le fournil de la place","osm_id":2041086103}},{"type":"Feature","geometry":{"type":"Point","coordinates":[5.384116,43.2921694]},"properties":{"category":"bakery","name":"Le Fournil du Mont","opening_hours":"Mo,Tu,Th-Sa 06:30-20:00","osm_id":2085794777}},{"type":"Feature","geometry":{"type":"Point","coordinates":[5.3749743,43.2917319]},"properties":{"category":"bakery","name":"Pâtisserie Sylvain Depuichaffray","phone":"+33 4 91 33 09 75","website":"https://www.sylvaindepuichaffray.fr/","osm_id":2117029445}},{"type":"Feature","geometry":{"type":"Point","coordinates":[5.3931637,43.2626907]},"properties":{"category":"compressed_air","osm_id":2119640183}},{"type":"Feature","geometry":{"type":"Point","coordinates":[5.374857,43.292459]},"properties":{"category":"bakery","name":"Le fournil des Rois","osm_id":2135103688}},{"type":"Feature","geometry":{"type":"Point","coordinates":[5.3874023,43.2893646]},"properties":{"category":"bakery","name":"La Fournée de Lodi","osm_id":2137516958}},{"type":"Feature","geometry":{"type":"Point","coordinates":[5.3974927,43.2631332]},"properties":{"category":"bakery","name":"Boulangerie Patisserie","opening_hours":"06:00-22:00","osm_id":2368312958}},{"type":"Feature","geometry":{"type":"Point","coordinates":[5.3844735,43.2998715]},"properties":{"category":"bakery","name":"L'atelier des saveurs","opening_hours":"Mo-Sa 07:00-20:00","osm_id":2368365043}},{"type":"Feature","geometry":{"type":"Point","coordinates":[5.3914618,43.2645348]},"properties":{"category":"bakery","name":"Hat's boulangerie, pâtisserie, traiteur","osm_id":2425875283}},{"type":"Feature","geometry":{"type":"Point","coordinates":[5.3795177,43.2965657]},"properties":{"category":"bakery","name":"Salon de thé oriental","osm_id":2511318273}},{"type":"Feature","geometry":{"type":"Point","coordinates":[5.3945346,43.276558]},"properties":{"category":"bakery","name":"Le pain du Rouet","opening_hours":"Mo-Sa 06:30-20:00; Su 06:30-13:30","osm_id":2590099747}},{"type":"Feature","geometry":{"type":"Point","coordinates":[5.3694749,43.2432537]},"properties":{"category":"shop","name":"Evtt Provence","phone":"+33 6 31631324","website":"https://evtt-provence.com/","osm_id":2604707857}},{"type":"Feature","geometry":{"type":"Point","coordinates":[5.38932,43.2872341]},"properties":{"category":"bakery","name":"Maison César","osm_id":2608216158}},{"type":"Feature","geometry":{"type":"Point","coordinates":[5.3897399,43.2868898]},"properties":{"category":"bakery","name":"Tartes & gourmandises","osm_id":2608216166}},{"type":"Feature","geometry":{"type":"Point","coordinates":[5.3691342,43.2812966]},"properties":{"category":"bakery","name":"Le Fournil du Roucas Blanc","osm_id":2613170625}},{"type":"Feature","geometry":{"type":"Point","coordinates":[5.3817523,43.2486021]},"properties":{"category":"bakery","osm_id":2742203348}},{"type":"Feature","geometry":{"type":"Point","coordinates":[5.3916661,43.2792382]},"properties":{"category":"bakery","name":"Terrasse du Rouet","osm_id":2822278366}},{"type":"Feature","geometry":{"type":"Point","coordinates":[5.3922106,43.2784718]},"properties":{"category":"bakery","name":"Le Pain du Rouet","osm_id":2822284412}},{"type":"Feature","geometry":{"type":"Point","coordinates":[5.3777,43.2852992]},"properties":{"category":"bakery","name":"Carrément Gourmand","phone":"+33 4 91 48 43 07","osm_id":3379968791}},{"type":"Feature","geometry":{"type":"Point","coordinates":[5.3752319,43.283426]},"properties":{"category":"bakery","name":"Les Délices de Vauban","opening_hours":"Mo-Fr 06:00-20:00; Sa 07:00-20:00","osm_id":3383211597}},{"type":"Feature","geometry":{"type":"Point","coordinates":[5.3745377,43.2816508]},"properties":{"category":"bakery","name":"Coucagne","osm_id":3400324539}},{"type":"Feature","geometry":{"type":"Point","coordinates":[5.3601379,43.2886661]},"properties":{"category":"bakery","name":"Miches et Baguettes","opening_hours":"Mo-Su 08:00-13:15, 16:00-19:30","website":"https://www.instagram.com/miches_et_baguettes/","osm_id":3621987002}},{"type":"Feature","geometry":{"type":"Point","coordinates":[5.3595798,43.2876978]},"properties":{"category":"bakery","name":"Au pêché mignon","osm_id":3621997602}},{"type":"Feature","geometry":{"type":"Point","coordinates":[5.3873985,43.2842568]},"properties":{"category":"bakery","name":"Le Moulin de Cantini","osm_id":4109316469}},{"type":"Feature","geometry":{"type":"Point","coordinates":[5.3896053,43.2851374]},"properties":{"category":"bakery","name":"un fournil, des fourneaux","osm_id":4109318389}},{"type":"Feature","geometry":{"type":"Point","coordinates":[5.3715013,43.2967556]},"properties":{"category":"bakery","name":"Le Fournil de la Loge","osm_id":4232420301}},{"type":"Feature","geometry":{"type":"Point","coordinates":[5.3831189,43.2883036]},"properties":{"category":"shop","name":"Road Art","opening_hours":"Tu,We,Fr 09:30-19:00; Th 09:30-17:00; Sa 10:00-18:00; Su,Mo off","phone":"+33 9 53 62 85 77","website":"https://www.road-art-13.com/","osm_id":4278164283}},{"type":"Feature","geometry":{"type":"Point","coordinates":[5.3778979,43.2969148]},"properties":{"category":"bakery","name":"Turkish Patisseria","osm_id":4437701361}},{"type":"Feature","geometry":{"type":"Point","coordinates":[5.3806214,43.2994209]},"properties":{"category":"bakery","name":"Pain artisanal","osm_id":4713580184}},{"type":"Feature","geometry":{"type":"Point","coordinates":[5.3954342,43.2749645]},"properties":{"category":"bakery","osm_id":4903008891}},{"type":"Feature","geometry":{"type":"Point","coordinates":[5.3925238,43.273456]},"properties":{"category":"shop","name":"Cyclable","opening_hours":"Tu-Sa 10:00-13:00, 14:00-19:00","phone":"+33 9 72 44 51 03","website":"https://marseille-velodrome.cyclable.com/","osm_id":4966386927}},{"type":"Feature","geometry":{"type":"Point","coordinates":[5.3834235,43.297429]},"properties":{"category":"shop","name":"Vélo-Sapiens","phone":"+33 4 88 86 55 23","website":"https://velosapiens.fr/","osm_id":4966386929}},{"type":"Feature","geometry":{"type":"Point","coordinates":[5.3693491,43.2928042]},"properties":{"category":"shop","name":"Easymove","phone":"+33 4 86 01 11 70","osm_id":4966853886}},{"type":"Feature","geometry":{"type":"Point","coordinates":[5.3801955,43.2949139]},"properties":{"category":"bakery","name":"Le Cèdre du Liban","osm_id":5122241522}},{"type":"Feature","geometry":{"type":"Point","coordinates":[5.3939032,43.2955678]},"properties":{"category":"bakery","name":"Les Mains Libres","opening_hours":"Tu-Sa 07:30-13:00,16:00-19:30","website":"https://www.les-mains-libres.fr/","osm_id":5171346281}},{"type":"Feature","geometry":{"type":"Point","coordinates":[5.3730164,43.2885273]},"properties":{"category":"bakery","name":"Ludivine","opening_hours":"Tu-Su 06:30-20:30","phone":"+33 4 91 54 95 17","osm_id":5173620323}},{"type":"Feature","geometry":{"type":"Point","coordinates":[5.37188,43.2987897]},"properties":{"category":"shop","name":"Repair and Run","osm_id":5183645897}},{"type":"Feature","geometry":{"type":"Point","coordinates":[5.3732943,43.2995416]},"properties":{"category":"bakery","osm_id":5265397321}},{"type":"Feature","geometry":{"type":"Point","coordinates":[5.3834416,43.2773342]},"properties":{"category":"bakery","name":"Délice Paradis","osm_id":5409844220}},{"type":"Feature","geometry":{"type":"Point","coordinates":[5.3794032,43.2874809]},"properties":{"category":"bakery","name":"Au Pain d'Autrefois","opening_hours":"Mo-Fr 07:00-20:00; Sa 07:00-14:00","osm_id":5422294838}},{"type":"Feature","geometry":{"type":"Point","coordinates":[5.3666986,43.296557]},"properties":{"category":"bakery","name":"Pâtisserie","opening_hours":"Mo-Su 06:00-20:00","osm_id":5502868421}},{"type":"Feature","geometry":{"type":"Point","coordinates":[5.3865196,43.2836257]},"properties":{"category":"bakery","name":"Au fournil du Rouet","osm_id":5508235530}},{"type":"Feature","geometry":{"type":"Point","coordinates":[5.370245,43.2431036]},"properties":{"category":"bakery","name":"Boulangerie Ted Calek","opening_hours":"Tu-Su 06:00-21:00","phone":"+33 4 91 80 92 35","osm_id":5519908486}},{"type":"Feature","geometry":{"type":"Point","coordinates":[5.3745309,43.2850015]},"properties":{"category":"bakery","name":"Au Pompon Rouge","opening_hours":"Mo-Fr 07:00-20:00; Sa 07:00-13:00,16:00-20:00; Su 07:00-13:00","osm_id":5554534010}},{"type":"Feature","geometry":{"type":"Point","coordinates":[5.3663023,43.2398168]},"properties":{"category":"bakery","name":"Boulangerie de Pastré","opening_hours":"Mo, We-Su 06:00-19:00","osm_id":5556756410}},{"type":"Feature","geometry":{"type":"Point","coordinates":[5.3953991,43.2668735]},"properties":{"category":"bakery","osm_id":5582085431}},{"type":"Feature","geometry":{"type":"Point","coordinates":[5.3745392,43.2959908]},"properties":{"category":"bakery","name":"La Mie Câline","osm_id":5817421444}},{"type":"Feature","geometry":{"type":"Point","coordinates":[5.379142,43.2956635]},"properties":{"category":"bakery","osm_id":6139186985}},{"type":"Feature","geometry":{"type":"Point","coordinates":[5.3947605,43.2847782]},"properties":{"category":"bakery","osm_id":6144905479}},{"type":"Feature","geometry":{"type":"Point","coordinates":[5.3833356,43.286378]},"properties":{"category":"bakery","name":"Banette","osm_id":6167205666}},{"type":"Feature","geometry":{"type":"Point","coordinates":[5.3832545,43.286531]},"properties":{"category":"bakery","name":"fournil de castelane","opening_hours":"Mo-Sa 07:00-19:00; Su 07:00-13:30","osm_id":6167205667}},{"type":"Feature","geometry":{"type":"Point","coordinates":[5.3760387,43.2895802]},"properties":{"category":"bakery","name":"Le Fournil de Breteuil","opening_hours":"Mo-Fr 06:30-21:00; Sa 07:00-20:00","osm_id":6240219598}},{"type":"Feature","geometry":{"type":"Point","coordinates":[5.3982091,43.2899837]},"properties":{"category":"bakery","name":"Leon & Banette","osm_id":6349153658}},{"type":"Feature","geometry":{"type":"Point","coordinates":[5.3840705,43.2845361]},"properties":{"category":"bakery","name":"Pause Gourmande","osm_id":6571078194}},{"type":"Feature","geometry":{"type":"Point","coordinates":[5.3884812,43.2782961]},"properties":{"category":"bakery","name":"Béret Baguette","opening_hours":"Mo-Fr 06:30-19:00","phone":"+33 4 91 78 98 45","website":"https://beret-baguette.com/","osm_id":6723055501}},{"type":"Feature","geometry":{"type":"Point","coordinates":[5.3806447,43.2845517]},"properties":{"category":"bakery","name":"La Tradi","osm_id":6736064748}},{"type":"Feature","geometry":{"type":"Point","coordinates":[5.3757504,43.2929562]},"properties":{"category":"bakery","name":"Le pain de l'Opéra","opening_hours":"Mo-Sa 07:00-19:30","osm_id":6801358185}},{"type":"Feature","geometry":{"type":"Point","coordinates":[5.3869082,43.2899926]},"properties":{"category":"bakery","name":"SUD·SUD·EST","opening_hours":"Mo-Fr 10:00-19:00","phone":"+33 4 91 37 44 30","osm_id":6926372287}},{"type":"Feature","geometry":{"type":"Point","coordinates":[5.3661172,43.2899356]},"properties":{"category":"bakery","name":"Boulangerie-patisserie Saint-Victor","osm_id":7065137358}},{"type":"Feature","geometry":{"type":"Point","coordinates":[5.3733256,43.2919762]},"properties":{"category":"bakery","name":"Le Fournil du Palais","osm_id":7088102580}},{"type":"Feature","geometry":{"type":"Point","coordinates":[5.3788235,43.2953112]},"properties":{"category":"bakery","name":"Le Fournil de Pomaria","osm_id":7264696892}},{"type":"Feature","geometry":{"type":"Point","coordinates":[5.3590145,43.290777]},"properties":{"category":"bakery","name":"Le Trianon","phone":"+334 91 52 03 74","osm_id":7265639233}},{"type":"Feature","geometry":{"type":"Point","coordinates":[5.359139,43.2901746]},"properties":{"category":"bakery","name":"Mando","osm_id":7362511936}},{"type":"Feature","geometry":{"type":"Point","coordinates":[5.3507522,43.2828444]},"properties":{"category":"bakery","name":"La vague gourmande","osm_id":7387093953}},{"type":"Feature","geometry":{"type":"Point","coordinates":[5.3855418,43.2866687]},"properties":{"category":"bakery","name":"Maison Zemour","osm_id":7415178861}},{"type":"Feature","geometry":{"type":"Point","coordinates":[5.3892539,43.2875658]},"properties":{"category":"bakery","osm_id":7415272318}},{"type":"Feature","geometry":{"type":"Point","coordinates":[5.3663204,43.2889647]},"properties":{"category":"bakery","name":"Les Massilious","opening_hours":"Mo-Sa 06:30-20:00","phone":"+33 4 91 52 79 27","osm_id":7612960274}},{"type":"Feature","geometry":{"type":"Point","coordinates":[5.3889797,43.2989992]},"properties":{"category":"bakery","name":"Le four et le moulin","opening_hours":"Mo-Su 06:30-21:00","osm_id":7749927874}},{"type":"Feature","geometry":{"type":"Point","coordinates":[5.3877172,43.2416911]},"properties":{"category":"bakery","name":"Fournil Du Roy d’Espagne","osm_id":7797691383}},{"type":"Feature","geometry":{"type":"Point","coordinates":[5.3983671,43.298758]},"properties":{"category":"bakery","name":"es Délices de Granoux","osm_id":7829025630}},{"type":"Feature","geometry":{"type":"Point","coordinates":[5.3979067,43.2987669]},"properties":{"category":"bakery","name":"Ambre","osm_id":7829025637}},{"type":"Feature","geometry":{"type":"Point","coordinates":[5.3600434,43.2846946]},"properties":{"category":"bakery","name":"Banette","osm_id":7833239296}},{"type":"Feature","geometry":{"type":"Point","coordinates":[5.3606912,43.2756797]},"properties":{"category":"bakery","name":"Hat's","osm_id":8231960045}},{"type":"Feature","geometry":{"type":"Point","coordinates":[5.3878306,43.2698176]},"properties":{"category":"bakery","name":"Hat's","phone":"+33 9 81 39 98 81","website":"https://www.hatsboulangerie.com","osm_id":8467947356}},{"type":"Feature","geometry":{"type":"Point","coordinates":[5.3765421,43.2931507]},"properties":{"category":"bakery","name":"La boulangerie aixoise","osm_id":8506460934}},{"type":"Feature","geometry":{"type":"Point","coordinates":[5.3816331,43.2950574]},"properties":{"category":"bakery","name":"Boulangerie pâtisserie orientale","osm_id":8534089381}},{"type":"Feature","geometry":{"type":"Point","coordinates":[5.3629789,43.286174]},"properties":{"category":"bakery","name":"Maison Saint-Honoré","opening_hours":"Tu-Sa 07:00-19:30; Su 07:00-13:30","osm_id":8659096796}},{"type":"Feature","geometry":{"type":"Point","coordinates":[5.3943345,43.2936968]},"properties":{"category":"shop","name":"Vélo Azur","phone":"+33 7 50 08 72 63","osm_id":8943334674}},{"type":"Feature","geometry":{"type":"Point","coordinates":[5.3653848,43.2388122]},"properties":{"category":"bakery","name":"Au délices de Noha","opening_hours":"Mo-We, Fr-Su 06:00-20:00","phone":"+33 9 83 80 49 75","osm_id":9017432092}},{"type":"Feature","geometry":{"type":"Point","coordinates":[5.3619018,43.2363029]},"properties":{"category":"bakery","name":"Campaillette","opening_hours":"Tu-Su 05:00-20:30","phone":"+33 4 91 73 86 78","osm_id":9017447706}},{"type":"Feature","geometry":{"type":"Point","coordinates":[5.3660367,43.2986269]},"properties":{"category":"bakery","name":"Boulangerie de l'Evêché","osm_id":9190146297}},{"type":"Feature","geometry":{"type":"Point","coordinates":[5.3833034,43.2815492]},"properties":{"category":"bakery","name":"Boulangerie Pâtisserie","osm_id":9233271101}},{"type":"Feature","geometry":{"type":"Point","coordinates":[5.3839311,43.2952996]},"properties":{"category":"shop","name":"ZZ Vélo Vintage","phone":"+336 46 62 10 65","osm_id":9266645443}},{"type":"Feature","geometry":{"type":"Point","coordinates":[5.3671576,43.290565]},"properties":{"category":"bakery","name":"La Petite","opening_hours":"Mo-Fr 09:30-18:30; Sa 10:00-18:30","osm_id":9378825717}},{"type":"Feature","geometry":{"type":"Point","coordinates":[5.3770193,43.2871722]},"properties":{"category":"bakery","osm_id":9507820517}},{"type":"Feature","geometry":{"type":"Point","coordinates":[5.3849962,43.2743737]},"properties":{"category":"bakery","name":"Au Moulin Doré","osm_id":9628807647}},{"type":"Feature","geometry":{"type":"Point","coordinates":[5.3736952,43.2887684]},"properties":{"category":"shop","name":"DoctorBike","opening_hours":"Mo-Sa 09:00-18:00","phone":"+33 6 35 49 28 44","website":"https://doctorbikemarseille.business.site/?utm_source=gmb&utm_medium=referral","osm_id":9637316120}},{"type":"Feature","geometry":{"type":"Point","coordinates":[5.3904452,43.2820914]},"properties":{"category":"bakery","name":"Hat's","website":"https://www.hatsboulangerie.com/","osm_id":9700059236}},{"type":"Feature","geometry":{"type":"Point","coordinates":[5.3817287,43.2814622]},"properties":{"category":"bakery","name":"Pains cakes et Cie","phone":"+33 4 91 53 32 09","website":"https://www.marseillebio.fr/boulangerie-bio-pains-cakes-cie-marseille-13008/","osm_id":9796285845}},{"type":"Feature","geometry":{"type":"Point","coordinates":[5.3854327,43.2836727]},"properties":{"category":"bakery","name":"Maison Saint Honoré","opening_hours":"Mo-Sa 07:00-19:30","phone":"+33 4 91 22 74 40","osm_id":9796312829}},{"type":"Feature","geometry":{"type":"Point","coordinates":[5.3856423,43.2891429]},"properties":{"category":"repair","name":"L'Etape Vélo","opening_hours":"Sa 09:30-12:30; Mo-We, Fr 09:30-13:00, 14:00-19:00; Th 14:30-19:00","phone":"+33618164612","osm_id":9838132761}},{"type":"Feature","geometry":{"type":"Point","coordinates":[5.3827724,43.2910388]},"properties":{"category":"bakery","name":"Pain Salvator","opening_hours":"Tu-Sa 09:00-19:00","phone":"+33634223002","website":"https://www.boulangerie-cafe-pain-salvator.fr","osm_id":9846038069}},{"type":"Feature","geometry":{"type":"Point","coordinates":[5.3674763,43.2969671]},"properties":{"category":"bakery","name":"Farinette","osm_id":9858335529}},{"type":"Feature","geometry":{"type":"Point","coordinates":[5.3824415,43.2848166]},"properties":{"category":"shop","name":"Steedy Shop","opening_hours":"Mo-Sa 10:00-13:00; Mo-Sa 15:00-19:00","website":"https://www.steedyshop.fr/","osm_id":9863576305}},{"type":"Feature","geometry":{"type":"Point","coordinates":[5.3765111,43.2806126]},"properties":{"category":"bakery","name":"Au contraire pâtisserie","opening_hours":"We-Sa 09:00-13:30, 15:00-19:00; Tu 10:00-13:30, 15:00-19:00; Su 09:00-12:00","website":"https://www.aucontrairepatisserie.com/","osm_id":9864426917}},{"type":"Feature","geometry":{"type":"Point","coordinates":[5.3632984,43.289203]},"properties":{"category":"bakery","name":"Boulangerie T65","opening_hours":"Tu-Sa 07:30-20:00; Su 07:30-14:00","website":"https://www.instagram.com/t65boulangerie/","osm_id":9904707343}},{"type":"Feature","geometry":{"type":"Point","coordinates":[5.3884575,43.2691795]},"properties":{"category":"bakery","name":"Le Moulin de David","osm_id":9920806377}},{"type":"Feature","geometry":{"type":"Point","coordinates":[5.3784705,43.2958213]},"properties":{"category":"bakery","name":"Pétrin Couchette","website":"https://www.petrincouchette.com/","osm_id":9976606402}},{"type":"Feature","geometry":{"type":"Point","coordinates":[5.3865117,43.2961653]},"properties":{"category":"bakery","name":"Gourmandise by Nico","osm_id":10017557032}},{"type":"Feature","geometry":{"type":"Point","coordinates":[5.3767959,43.2409888]},"properties":{"category":"bakery","name":"Les saveurs de Vincent et Louis","opening_hours":"Mo-Fr 07:00-19:00; Sa 07:00-14:00","osm_id":10172226369}},{"type":"Feature","geometry":{"type":"Point","coordinates":[5.3862579,43.2991378]},"properties":{"category":"shop","name":"Cycles Fayah","phone":"+33 6 95 85 69 89","website":"https://cycles-fayah-vente-et-reparation-velo.business.site/","osm_id":10266971683}},{"type":"Feature","geometry":{"type":"Point","coordinates":[5.365938,43.2980423]},"properties":{"category":"bakery","name":"Les sablés marseillés","osm_id":10558691809}},{"type":"Feature","geometry":{"type":"Point","coordinates":[5.3830674,43.2792474]},"properties":{"category":"bakery","name":"Paul","website":"https://www.paul.fr/stores/marseille_delibes","osm_id":10963236954}},{"type":"Feature","geometry":{"type":"Point","coordinates":[5.3890909,43.2811593]},"properties":{"category":"bakery","name":"Ronde des Pains","osm_id":10964039889}},{"type":"Feature","geometry":{"type":"Point","coordinates":[5.3976397,43.2746165]},"properties":{"category":"shop","name":"BHT Bike","osm_id":11161535805}},{"type":"Feature","geometry":{"type":"Point","coordinates":[5.3894886,43.2695023]},"properties":{"category":"shop","name":"Vélo Station","opening_hours":"Tu-Fr 10:00-19:00; Mo 12:00-19:00; Sa 10:00-18:00","phone":"+33 4 91 89 38 62","website":"https://www.velostation.com/Marseille-02","osm_id":11200431956}},{"type":"Feature","geometry":{"type":"Point","coordinates":[5.3868339,43.2964337]},"properties":{"category":"bakery","name":"Merlin","osm_id":11228719203}},{"type":"Feature","geometry":{"type":"Point","coordinates":[5.3817229,43.2976466]},"properties":{"category":"bakery","name":"Boulangerie de Marseille","osm_id":11228737733}},{"type":"Feature","geometry":{"type":"Point","coordinates":[5.3794719,43.2961728]},"properties":{"category":"bakery","name":"O'Coin Gourmand","osm_id":11249187362}},{"type":"Feature","geometry":{"type":"Point","coordinates":[5.3644891,43.2335663]},"properties":{"category":"bakery","name":"La Panière de la Grotte","osm_id":11298111044}},{"type":"Feature","geometry":{"type":"Point","coordinates":[5.3869266,43.2869336]},"properties":{"category":"shop","name":"En roue libre","osm_id":11386471035}},{"type":"Feature","geometry":{"type":"Point","coordinates":[5.3885465,43.2880622]},"properties":{"category":"bakery","name":"Ferments","opening_hours":"We-Sa 08:00-19:30; Su 08:00-12:30","osm_id":11387429017}},{"type":"Feature","geometry":{"type":"Point","coordinates":[5.3766308,43.2413586]},"properties":{"category":"bakery","name":"La muse bouche","opening_hours":"Mo,Tu,Th 07:00-18:00; We 07:00-15:00; Fr 07:00-17:30","osm_id":11469861372}},{"type":"Feature","geometry":{"type":"Point","coordinates":[5.3918654,43.2707168]},"properties":{"category":"bakery","name":"Mando","osm_id":11521324202}},{"type":"Feature","geometry":{"type":"Point","coordinates":[5.3869231,43.2795724]},"properties":{"category":"bakery","name":"Le Fournil de Prado","osm_id":11568947969}},{"type":"Feature","geometry":{"type":"Point","coordinates":[5.372327,43.2901626]},"properties":{"category":"bakery","name":"Le Fournil d'Andrea & Lucas","osm_id":11768935169}},{"type":"Feature","geometry":{"type":"Point","coordinates":[5.3816884,43.2999724]},"properties":{"category":"shop","name":"Cycles Fayette","opening_hours":"We-Sa 10:00-13:00, 15:00-19:00","osm_id":11811704770}},{"type":"Feature","geometry":{"type":"Point","coordinates":[5.3854203,43.2822346]},"properties":{"category":"bakery","name":"MD","osm_id":11939000925}},{"type":"Feature","geometry":{"type":"Point","coordinates":[5.3586135,43.2845659]},"properties":{"category":"bakery","name":"Bricoleurs de douceurs (Pâtisserie)","opening_hours":"Tu-Fr 09:30-13:00, 15:30-19:00; Sa 09:30-13:00, 14:00-19:00; Su 09:30-13:00","website":"https://www.bricoleursdedouceurs.fr","osm_id":11999132469}},{"type":"Feature","geometry":{"type":"Point","coordinates":[5.3771753,43.2969635]},"properties":{"category":"bakery","name":"Bagalette","osm_id":12051498665}},{"type":"Feature","geometry":{"type":"Point","coordinates":[5.3941332,43.2586778]},"properties":{"category":"bakery","name":"Pain Pan !","opening_hours":"Mo-Sa 07:00-19:30; Su 08:00-13:00","phone":"+33 6 15 44 75 45","osm_id":12246677683}},{"type":"Feature","geometry":{"type":"Point","coordinates":[5.3839127,43.2541731]},"properties":{"category":"bakery","name":"Les Bonnes Graines","phone":"+33 4 91 55 08 21","website":"https://www.biocooplesbonnesgraines.fr/boulangerie-906.html","osm_id":12623929138}},{"type":"Feature","geometry":{"type":"Point","coordinates":[5.386519,43.2701361]},"properties":{"category":"bakery","name":"Paul","opening_hours":"Mo-Su 06:30-19:30","phone":"+33 4 91 40 58 61","website":"https://www.paul.fr/stores/marseille_paradis","osm_id":12719035989}},{"type":"Feature","geometry":{"type":"Point","coordinates":[5.3744617,43.2628061]},"properties":{"category":"bakery","osm_id":12802852111}},{"type":"Feature","geometry":{"type":"Point","coordinates":[5.3843775,43.2999532]},"properties":{"category":"bakery","name":"La Paline","osm_id":12844597958}},{"type":"Feature","geometry":{"type":"Point","coordinates":[5.3813764,43.2968944]},"properties":{"category":"bakery","name":"Boulangerie Thiers","osm_id":12880318275}},{"type":"Feature","geometry":{"type":"Point","coordinates":[5.3714253,43.2967548]},"properties":{"category":"shop","name":"Tous en Biclou","phone":"+33 4 91 44 40 12","website":"https://tousenbiclou.fr/","osm_id":12922994349}},{"type":"Feature","geometry":{"type":"Point","coordinates":[5.377598,43.290654]},"properties":{"category":"bakery","name":"Toute une histoire","osm_id":13074242803}},{"type":"Feature","geometry":{"type":"Point","coordinates":[5.3915142,43.273037]},"properties":{"category":"bakery","name":"Le Fournil du Vélodrome","osm_id":13137566735}},{"type":"Feature","geometry":{"type":"Point","coordinates":[5.3899612,43.2666675]},"properties":{"category":"bakery","name":"Pain et Miel","opening_hours":"Mo-Su 05:00-20:00","phone":"+33 4 91 77 59 55","osm_id":13426650718}},{"type":"Feature","geometry":{"type":"Point","coordinates":[5.3761332,43.2940564]},"properties":{"category":"bakery","name":"Pain Pan","osm_id":13738193601}},{"type":"Feature","geometry":{"type":"Point","coordinates":[5.3536905,43.2861371]},"properties":{"category":"bakery","name":"Fournil des Auffes","osm_id":13749563102}},{"type":"Feature","geometry":{"type":"Point","coordinates":[5.3756,43.2947046]},"properties":{"category":"bakery","name":"Bonne Miette","opening_hours":"Mo-Sa 08:00-19:00","osm_id":13919353645}},{"type":"Feature","geometry":{"type":"Point","coordinates":[5.3788739,43.2617277]},"properties":{"category":"repair","name":"Cycle Tandem","osm_id":14021856967}}]}