{"type":"FeatureCollection","features":[{"type":"Feature","geometry":{"type":"Point","coordinates":[3.3254681,43.2629111]},"properties":{"category":"bakery","name":"Boulangerie","osm_id":461306918}},{"type":"Feature","geometry":{"type":"Point","coordinates":[3.3350506,43.2667821]},"properties":{"category":"bakery","osm_id":1915413546}},{"type":"Feature","geometry":{"type":"Point","coordinates":[3.3613747,43.2782169]},"properties":{"category":"bakery","name":"Chez Faustine","osm_id":4298523636}},{"type":"Feature","geometry":{"type":"Point","coordinates":[3.3578526,43.2779267]},"properties":{"category":"bakery","name":"Marheor","osm_id":5022637421}},{"type":"Feature","geometry":{"type":"Point","coordinates":[3.3325275,43.268612]},"properties":{"category":"bakery","name":"Maison Garcia","osm_id":9008560557}},{"type":"Feature","geometry":{"type":"Point","coordinates":[3.3622667,43.2895353]},"properties":{"category":"repair","osm_id":9865761152}},{"type":"Feature","geometry":{"type":"Point","coordinates":[3.3641971,43.2800073]},"properties":{"category":"bakery","osm_id":9877434441}}]}