{"type":"FeatureCollection","features":[{"type":"Feature","geometry":{"type":"Point","coordinates":[-0.8891121,43.2242453]},"properties":{"category":"bakery","name":"Ithurralde","osm_id":794200019}},{"type":"Feature","geometry":{"type":"Point","coordinates":[-0.882084,43.2241492]},"properties":{"category":"bakery","name":"Au Festival des Pains","osm_id":807796378}},{"type":"Feature","geometry":{"type":"Point","coordinates":[-0.8755629,43.2310751]},"properties":{"category":"bakery","name":"Garat","osm_id":8434063919}},{"type":"Feature","geometry":{"type":"Point","coordinates":[-0.8784765,43.2507426]},"properties":{"category":"bakery","name":"Le Fournil à bois Souletin","osm_id":11015534570}}]}