{"type":"FeatureCollection","features":[{"type":"Feature","geometry":{"type":"Point","coordinates":[2.233497,43.238905]},"properties":{"category":"bakery","name":"Epicerie-Dépôt Pain, Relais de Sully","osm_id":1728777402}},{"type":"Feature","geometry":{"type":"Point","coordinates":[2.2555947,43.2248731]},"properties":{"category":"bakery","name":"Le Platane","osm_id":1764176298}},{"type":"Feature","geometry":{"type":"Point","coordinates":[2.2308003,43.2796026]},"properties":{"category":"bakery","name":"Le Fournil","osm_id":2818126403}},{"type":"Feature","geometry":{"type":"Point","coordinates":[2.2644755,43.2548179]},"properties":{"category":"bakery","osm_id":5143888678}},{"type":"Feature","geometry":{"type":"Point","coordinates":[2.2085959,43.2001169]},"properties":{"category":"bakery","name":"Aux Saveurs d'Arzens","opening_hours":"Tu-Sa 06:00-12:30,17:00-19:30; Su 06:30-12:30","phone":"+33 9 50 09 64 68","osm_id":12896442935}}]}