{"type":"FeatureCollection","features":[{"type":"Feature","geometry":{"type":"Point","coordinates":[-1.778435,43.3695066]},"properties":{"category":"shop","name":"Les Roues de Lilou","phone":"+33 6 88 34 30 23","osm_id":6024475877}},{"type":"Feature","geometry":{"type":"Point","coordinates":[-1.7811485,43.3535588]},"properties":{"category":"repair","osm_id":8891928807}},{"type":"Feature","geometry":{"type":"Point","coordinates":[-1.7447153,43.3772863]},"properties":{"category":"repair","opening_hours":"24/7","osm_id":9649426650}}]}