{"type":"FeatureCollection","features":[{"type":"Feature","geometry":{"type":"Point","coordinates":[-1.5624059,43.3569262]},"properties":{"category":"shop","name":"Le Vélo Rouge","osm_id":6024496644}},{"type":"Feature","geometry":{"type":"Point","coordinates":[-1.5508416,43.3564267]},"properties":{"category":"shop","name":"Velektrix","opening_hours":"\"uniquement sur rendez-vous\"","osm_id":6024496645}},{"type":"Feature","geometry":{"type":"Point","coordinates":[-1.5747318,43.3584483]},"properties":{"category":"compressed_air","osm_id":12979444133}}]}