{"type":"FeatureCollection","features":[{"type":"Feature","geometry":{"type":"Point","coordinates":[3.5434989,43.3102752]},"properties":{"category":"bakery","name":"Holidays' Bread","opening_hours":"Mo-Su 07:30-21:00","osm_id":1418997157}},{"type":"Feature","geometry":{"type":"Point","coordinates":[3.5282863,43.3563071]},"properties":{"category":"bakery","name":"Les Saveurs d'Eugène","osm_id":1435190910}},{"type":"Feature","geometry":{"type":"Point","coordinates":[3.5294166,43.3543932]},"properties":{"category":"bakery","opening_hours":"Mo-Su 07:00-18:00","osm_id":1435190955}},{"type":"Feature","geometry":{"type":"Point","coordinates":[3.5426488,43.3102494]},"properties":{"category":"bakery","opening_hours":"Mo-Su 07:30-13:00,17:00-20:00","osm_id":4399979004}},{"type":"Feature","geometry":{"type":"Point","coordinates":[3.5400154,43.3046695]},"properties":{"category":"bakery","osm_id":4452389268}},{"type":"Feature","geometry":{"type":"Point","coordinates":[3.5522095,43.3172823]},"properties":{"category":"bakery","name":"Le Fournil de D.I.O.S.","osm_id":5789533453}},{"type":"Feature","geometry":{"type":"Point","coordinates":[3.5464376,43.3131288]},"properties":{"category":"bakery","name":"Saint-Jean","osm_id":6771730009}},{"type":"Feature","geometry":{"type":"Point","coordinates":[3.531349,43.3216628]},"properties":{"category":"repair","osm_id":10112880074}},{"type":"Feature","geometry":{"type":"Point","coordinates":[3.5470959,43.3183599]},"properties":{"category":"repair","osm_id":10870681190}},{"type":"Feature","geometry":{"type":"Point","coordinates":[3.5460048,43.3185886]},"properties":{"category":"bakery","osm_id":12367289135}},{"type":"Feature","geometry":{"type":"Point","coordinates":[3.5330553,43.3384895]},"properties":{"category":"bakery","name":"Fournil Saint-Pierre","osm_id":12660031517}},{"type":"Feature","geometry":{"type":"Point","coordinates":[3.5266552,43.3555473]},"properties":{"category":"bakery","osm_id":13741925597}},{"type":"Feature","geometry":{"type":"Point","coordinates":[3.5316069,43.3511615]},"properties":{"category":"repair","osm_id":14002678591}}]}