{"type":"FeatureCollection","features":[{"type":"Feature","geometry":{"type":"Point","coordinates":[-0.3604486,43.3021532]},"properties":{"category":"shop","name":"Vélo Station","opening_hours":"Tu-Fr 09:30-12:00,14:00-19:00; Sa 09:30-12:00,14:00-18:00","phone":"+33 5 59 02 27 54","osm_id":2339214380}},{"type":"Feature","geometry":{"type":"Point","coordinates":[-0.3639737,43.3004485]},"properties":{"category":"shop","name":"Cycles D. Planas","opening_hours":"Tu-Fr 10:00-12:00,16:00-18:30","phone":"+33 6 79 17 76 30","osm_id":6245300794}},{"type":"Feature","geometry":{"type":"Point","coordinates":[-0.3098487,43.3022723]},"properties":{"category":"shop","name":"Bicycle Shop 64","opening_hours":"Tu-Fr 09:30-12:30,14:30-19:00; Sa 10:00-18:00","phone":"+33 5 59 05 43 21","osm_id":6628780458}},{"type":"Feature","geometry":{"type":"Point","coordinates":[-0.3479401,43.3104793]},"properties":{"category":"shop","name":"Motocycles Biscorray","opening_hours":"Mo-Fr 08:00-12:00,14:00-19:00","phone":"+33 5 59 27 48 55","osm_id":6628780459}},{"type":"Feature","geometry":{"type":"Point","coordinates":[-0.3068498,43.301532]},"properties":{"category":"shop","name":"Cycles Paulien - Giant Pau","opening_hours":"Tu-Sa 09:30-12:00,14:00-19:00","phone":"+33 5 59 90 55 57","osm_id":6768039046}},{"type":"Feature","geometry":{"type":"Point","coordinates":[-0.3957686,43.3016566]},"properties":{"category":"repair","opening_hours":"24/7","osm_id":9754463573}},{"type":"Feature","geometry":{"type":"Point","coordinates":[-0.3797235,43.3249003]},"properties":{"category":"compressed_air","osm_id":9939092168}},{"type":"Feature","geometry":{"type":"Point","coordinates":[-0.3657151,43.3189783]},"properties":{"category":"repair","opening_hours":"24/7","osm_id":10896319911}},{"type":"Feature","geometry":{"type":"Point","coordinates":[-0.3656702,43.3189778]},"properties":{"category":"repair","opening_hours":"24/7","osm_id":10896319912}},{"type":"Feature","geometry":{"type":"Point","coordinates":[-0.3760672,43.3072132]},"properties":{"category":"compressed_air","osm_id":12043901193}},{"type":"Feature","geometry":{"type":"Point","coordinates":[-0.3763749,43.3086817]},"properties":{"category":"compressed_air","osm_id":12087730053}},{"type":"Feature","geometry":{"type":"Point","coordinates":[-0.3781432,43.3186402]},"properties":{"category":"compressed_air","osm_id":12139623974}},{"type":"Feature","geometry":{"type":"Point","coordinates":[-0.3677982,43.3220564]},"properties":{"category":"compressed_air","osm_id":12144240039}},{"type":"Feature","geometry":{"type":"Point","coordinates":[-0.3557669,43.3176542]},"properties":{"category":"compressed_air","osm_id":12145609327}},{"type":"Feature","geometry":{"type":"Point","coordinates":[-0.3296529,43.3080776]},"properties":{"category":"compressed_air","osm_id":12145709602}},{"type":"Feature","geometry":{"type":"Point","coordinates":[-0.3294748,43.3048146]},"properties":{"category":"compressed_air","osm_id":12154048267}},{"type":"Feature","geometry":{"type":"Point","coordinates":[-0.3522615,43.3287502]},"properties":{"category":"shop","name":"Movebike","osm_id":12237740705}},{"type":"Feature","geometry":{"type":"Point","coordinates":[-0.3448885,43.3038304]},"properties":{"category":"compressed_air","osm_id":12242031788}},{"type":"Feature","geometry":{"type":"Point","coordinates":[-0.3447956,43.3038369]},"properties":{"category":"compressed_air","osm_id":12242031792}},{"type":"Feature","geometry":{"type":"Point","coordinates":[-0.3444,43.3038888]},"properties":{"category":"compressed_air","osm_id":12242037401}},{"type":"Feature","geometry":{"type":"Point","coordinates":[-0.3443957,43.3039651]},"properties":{"category":"compressed_air","osm_id":12242037405}},{"type":"Feature","geometry":{"type":"Point","coordinates":[-0.3446146,43.304051]},"properties":{"category":"compressed_air","osm_id":12242037425}},{"type":"Feature","geometry":{"type":"Point","coordinates":[-0.3446977,43.3040338]},"properties":{"category":"compressed_air","osm_id":12242037429}},{"type":"Feature","geometry":{"type":"Point","coordinates":[-0.3447808,43.3040165]},"properties":{"category":"compressed_air","osm_id":12242037433}}]}