{"type":"FeatureCollection","features":[{"type":"Feature","geometry":{"type":"Point","coordinates":[3.3331993,43.3033379]},"properties":{"category":"bakery","name":"Le Petit Écolier","osm_id":6008326007}},{"type":"Feature","geometry":{"type":"Point","coordinates":[3.3684039,43.3969785]},"properties":{"category":"bakery","osm_id":8382164849}},{"type":"Feature","geometry":{"type":"Point","coordinates":[3.3018217,43.3186593]},"properties":{"category":"compressed_air","osm_id":9872314671}},{"type":"Feature","geometry":{"type":"Point","coordinates":[3.3637457,43.3123638]},"properties":{"category":"bakery","osm_id":13028540095}},{"type":"Feature","geometry":{"type":"Point","coordinates":[3.3340982,43.3035681]},"properties":{"category":"bakery","name":"Festival des pains","osm_id":13591049568}}]}