{"type":"FeatureCollection","features":[{"type":"Feature","geometry":{"type":"Point","coordinates":[1.9530176,43.3191714]},"properties":{"category":"bakery","name":"Pâtisserie Caudet","osm_id":497675703}},{"type":"Feature","geometry":{"type":"Point","coordinates":[1.9539011,43.3187419]},"properties":{"category":"bakery","name":"Le Pain Chaurien","osm_id":1198910648}},{"type":"Feature","geometry":{"type":"Point","coordinates":[1.9120355,43.3703139]},"properties":{"category":"bakery","osm_id":1350890934}},{"type":"Feature","geometry":{"type":"Point","coordinates":[1.9532769,43.3198237]},"properties":{"category":"bakery","name":"Aux mille pains","phone":"+33 4 68 23 68 51","osm_id":1694628444}},{"type":"Feature","geometry":{"type":"Point","coordinates":[1.9582964,43.3146895]},"properties":{"category":"bakery","name":"Pain et Passion","osm_id":1694641904}},{"type":"Feature","geometry":{"type":"Point","coordinates":[1.9422931,43.3173387]},"properties":{"category":"bakery","name":"La Panetière","opening_hours":"Mo-Su 06:30-19:30","osm_id":1694644418}},{"type":"Feature","geometry":{"type":"Point","coordinates":[1.9517114,43.3162103]},"properties":{"category":"bakery","name":"Le Diablotin","osm_id":2229023416}},{"type":"Feature","geometry":{"type":"Point","coordinates":[1.9590461,43.3001888]},"properties":{"category":"bakery","name":"Boulangerie Louis","osm_id":5842115882}},{"type":"Feature","geometry":{"type":"Point","coordinates":[1.9525625,43.3156083]},"properties":{"category":"bakery","name":"Au Pain du Lauragais","phone":"+33 4 68 23 86 59","website":"https://au-pain-du-lauragais.eatbu.com/","osm_id":6400170690}},{"type":"Feature","geometry":{"type":"Point","coordinates":[1.9566974,43.3059248]},"properties":{"category":"bakery","name":"Marie Blachère","osm_id":9542936053}},{"type":"Feature","geometry":{"type":"Point","coordinates":[1.9507346,43.3130095]},"properties":{"category":"shop","name":"Association La Roue qui tourne","opening_hours":"Mo-Fr 09:00-12:00,14:00-18:00","phone":"+33 7 68 13 87 23","website":"https://larouequitourne.com/","osm_id":12860201957}},{"type":"Feature","geometry":{"type":"Point","coordinates":[1.9501015,43.3122583]},"properties":{"category":"shop","name":"Maison de l'Ecomobilité","opening_hours":"Mo-Fr 09:00-17:00,14:00-18:00","phone":"+33 7 68 13 87 23","osm_id":12861475412}}]}