{"type":"FeatureCollection","features":[{"type":"Feature","geometry":{"type":"Point","coordinates":[6.1845283,43.3004111]},"properties":{"category":"bakery","name":"La locomotive","opening_hours":"Mo-Su 06:30-19:00","phone":"+33 4 94 42 91 41","osm_id":2207533585}},{"type":"Feature","geometry":{"type":"Point","coordinates":[6.1890422,43.3023292]},"properties":{"category":"bakery","name":"La Brioche de Nouchon","opening_hours":"Tu-Sa 06:30-13:00,16:00-19:30; Su 06:30-13:00","phone":"+33 4 94 57 24 28","osm_id":2595833025}},{"type":"Feature","geometry":{"type":"Point","coordinates":[6.1178536,43.338949]},"properties":{"category":"bakery","osm_id":4909491669}}]}