{"type":"FeatureCollection","features":[{"type":"Feature","geometry":{"type":"Point","coordinates":[1.3164191,43.330447]},"properties":{"category":"bakery","name":"Maison de Cuevas","osm_id":3395916154}},{"type":"Feature","geometry":{"type":"Point","coordinates":[1.322123,43.3288403]},"properties":{"category":"bakery","name":"Boulangerie-patisserie Lanson","opening_hours":"Tu 06:30-13:00,14:30-19:00; Su 07:00-13:00; We-Fr 06:30-13:00,14:00-19:00; Sa 07:00-13:00,14:00-19:00","osm_id":3395975541}}]}