{"type":"FeatureCollection","features":[{"type":"Feature","geometry":{"type":"Point","coordinates":[0.3715346,43.320786]},"properties":{"category":"bakery","osm_id":1889339809}},{"type":"Feature","geometry":{"type":"Point","coordinates":[0.3708131,43.3203528]},"properties":{"category":"bakery","name":"Le Pain des Lys","phone":"+33 5 62 94 44 44","osm_id":1889339813}},{"type":"Feature","geometry":{"type":"Point","coordinates":[0.3697053,43.320503]},"properties":{"category":"bakery","osm_id":1889339820}},{"type":"Feature","geometry":{"type":"Point","coordinates":[0.3710169,43.3210514]},"properties":{"category":"bakery","name":"Boulangerie des Arcades","opening_hours":"Mo,Th-Sa 06:30-13:30,15:30-19:30; Tu 06:30-13:30; Su,PH 06:30-12:45","osm_id":1889339822}}]}