{"type":"FeatureCollection","features":[{"type":"Feature","geometry":{"type":"Point","coordinates":[1.470638,43.3501465]},"properties":{"category":"bakery","name":"La Panetière Aux Saveurs d'Antan","opening_hours":"Mo-Su 07:00-20:00","phone":"+33 5 61 50 69 88","osm_id":1894930086}},{"type":"Feature","geometry":{"type":"Point","coordinates":[1.4728456,43.3470214]},"properties":{"category":"bakery","name":"Le Fournil des Saveurs","phone":"+33561783956","osm_id":1894931670}},{"type":"Feature","geometry":{"type":"Point","coordinates":[1.4791788,43.3510456]},"properties":{"category":"bakery","name":"Maison MF","opening_hours":"Mo-Tu,Fr-Su 06:30-13:00,16:00-19:30; We,Su,PH 06:30-13:00; Th off","phone":"+33 7 81 27 36 40","website":"https://www.maisonmf.fr/","osm_id":2339927012}},{"type":"Feature","geometry":{"type":"Point","coordinates":[1.4717383,43.3500428]},"properties":{"category":"bakery","osm_id":2339927033}},{"type":"Feature","geometry":{"type":"Point","coordinates":[1.460566,43.3625961]},"properties":{"category":"bakery","name":"Sophie Lebreuilly","osm_id":2339939890}},{"type":"Feature","geometry":{"type":"Point","coordinates":[1.4178826,43.371118]},"properties":{"category":"bakery","name":"F & M","osm_id":7434349793}},{"type":"Feature","geometry":{"type":"Point","coordinates":[1.4778598,43.352295]},"properties":{"category":"bakery","name":"Petitprez Jérôme","osm_id":8294976799}},{"type":"Feature","geometry":{"type":"Point","coordinates":[1.4725826,43.3521063]},"properties":{"category":"bakery","name":"Presutto","osm_id":9467291814}},{"type":"Feature","geometry":{"type":"Point","coordinates":[1.4652093,43.3583792]},"properties":{"category":"shop","name":"Phil'Bikes","phone":"+33 603956864","osm_id":9857616121}},{"type":"Feature","geometry":{"type":"Point","coordinates":[1.4629325,43.3615585]},"properties":{"category":"bakery","name":"La Mie de Pain","opening_hours":"Mo-Su 06:00-20:00","website":"https://www.lamiedepain-boulangerie.fr/boulangerie-la-mie-de-pain-auterive-31190/","osm_id":11771816641}},{"type":"Feature","geometry":{"type":"Point","coordinates":[1.464292,43.3601356]},"properties":{"category":"bakery","name":"Le Fournil Paysan","osm_id":13953486660}}]}