{"type":"FeatureCollection","features":[{"type":"Feature","geometry":{"type":"Point","coordinates":[6.0947676,43.3863749]},"properties":{"category":"bakery","name":"Le Palais Gourmand","osm_id":864882085}},{"type":"Feature","geometry":{"type":"Point","coordinates":[6.0437541,43.3302407]},"properties":{"category":"bakery","name":"Lafitau","opening_hours":"Mo-Fr 06:30-19:00; Sa 07:00-19:00; Su 07:00-13:15,15:30-19:00","phone":"+334 94 77 31 17","website":"https://lafitau.fr/boutique/lafitau-gareoult/","osm_id":2028439237}},{"type":"Feature","geometry":{"type":"Point","coordinates":[6.0771679,43.3146432]},"properties":{"category":"bakery","name":"Maison Tedesco","opening_hours":"Mo-Sa 06:00-19:30, Su 06:00-13:30","phone":"+33 4 94 04 97 17","osm_id":2108643766}},{"type":"Feature","geometry":{"type":"Point","coordinates":[6.0758461,43.316416]},"properties":{"category":"bakery","name":"Lafitau Rocbaron","opening_hours":"Mo-Fr 06:30-19:30; Sa 07:00-19:30; Su 07:00-13:30,15:30-19:00","phone":"+33 4 94 04 28 37","website":"http://www.lafitau.fr/","osm_id":3622562227}},{"type":"Feature","geometry":{"type":"Point","coordinates":[6.0401891,43.3941181]},"properties":{"category":"bakery","osm_id":6743771132}},{"type":"Feature","geometry":{"type":"Point","coordinates":[6.0852373,43.3405463]},"properties":{"category":"bakery","name":"Le Fournil de Pilou & Sandra","opening_hours":"Tu,Fr 07:00-12:30,15:00-19:30; Mo,We,Th,Sa,Su off","phone":"+336 07 57 90 73","website":"https://www.lefournildepilouetsandra.fr/","osm_id":13661790705}},{"type":"Feature","geometry":{"type":"Point","coordinates":[6.0468669,43.330578]},"properties":{"category":"bakery","name":"La Fournée de Bella","opening_hours":"Tu-Sa 06:00-19:30; Su 06:00-19:00","phone":"+33 4 94 04 40 75","osm_id":14072199135}},{"type":"Feature","geometry":{"type":"Point","coordinates":[6.0765414,43.3153613]},"properties":{"category":"compressed_air","osm_id":14123881424}}]}