{"type":"FeatureCollection","features":[{"type":"Feature","geometry":{"type":"Point","coordinates":[1.1451806,43.4926608]},"properties":{"category":"bakery","osm_id":5827845485}},{"type":"Feature","geometry":{"type":"Point","coordinates":[1.1214797,43.412527]},"properties":{"category":"bakery","name":"Au Bon Co-pain","website":"https://www.aubonco-pain-31.fr/","osm_id":12091446342}},{"type":"Feature","geometry":{"type":"Point","coordinates":[1.1182113,43.4120014]},"properties":{"category":"bakery","name":"Pain c de sucre","osm_id":12091469677}},{"type":"Feature","geometry":{"type":"Point","coordinates":[1.1160726,43.4139083]},"properties":{"category":"compressed_air","osm_id":14088234768}}]}