{"type":"FeatureCollection","features":[{"type":"Feature","geometry":{"type":"Point","coordinates":[6.0623937,43.4064538]},"properties":{"category":"bakery","name":"Boulangerie Lafitau","osm_id":1828696803}},{"type":"Feature","geometry":{"type":"Point","coordinates":[6.0626238,43.4065805]},"properties":{"category":"bakery","name":"Boulangerie Conraux","osm_id":1829030770}},{"type":"Feature","geometry":{"type":"Point","coordinates":[6.0630498,43.4064924]},"properties":{"category":"bakery","name":"A la Gerbe d'Or","osm_id":1829999763}},{"type":"Feature","geometry":{"type":"Point","coordinates":[6.0635971,43.4073576]},"properties":{"category":"bakery","name":"La Boulang'","osm_id":1831269121}},{"type":"Feature","geometry":{"type":"Point","coordinates":[6.0802234,43.4863477]},"properties":{"category":"bakery","name":"La Corrensoise","opening_hours":"Tu-Su","osm_id":4609455686}},{"type":"Feature","geometry":{"type":"Point","coordinates":[6.0487903,43.4083153]},"properties":{"category":"bakery","name":"Le Pétrin Ribeïrou","osm_id":4970998008}},{"type":"Feature","geometry":{"type":"Point","coordinates":[6.0680273,43.4058719]},"properties":{"category":"bakery","osm_id":12713826268}}]}