{"type":"FeatureCollection","features":[{"type":"Feature","geometry":{"type":"Point","coordinates":[5.2477044,43.4478406]},"properties":{"category":"bakery","osm_id":929013887}},{"type":"Feature","geometry":{"type":"Point","coordinates":[5.263035,43.400063]},"properties":{"category":"bakery","name":"Le Petrin Riberou","opening_hours":"07:00-15:00","osm_id":1294925748}},{"type":"Feature","geometry":{"type":"Point","coordinates":[5.2846219,43.4266324]},"properties":{"category":"bakery","osm_id":1783987251}},{"type":"Feature","geometry":{"type":"Point","coordinates":[5.2221036,43.4059168]},"properties":{"category":"bakery","osm_id":1893461010}},{"type":"Feature","geometry":{"type":"Point","coordinates":[5.21916,43.4115024]},"properties":{"category":"bakery","name":"Boulangerie Patisserie","phone":"+33 4 42 07 16 55","osm_id":1910428133}},{"type":"Feature","geometry":{"type":"Point","coordinates":[5.2210617,43.4135366]},"properties":{"category":"bakery","osm_id":1910428134}},{"type":"Feature","geometry":{"type":"Point","coordinates":[5.2342167,43.419844]},"properties":{"category":"bakery","name":"Alain Maillet","osm_id":1934380854}},{"type":"Feature","geometry":{"type":"Point","coordinates":[5.2522144,43.4106518]},"properties":{"category":"bakery","osm_id":1934393449}},{"type":"Feature","geometry":{"type":"Point","coordinates":[5.2223826,43.4853565]},"properties":{"category":"bakery","name":"Le Pétrin Ribeïrou","osm_id":1975216003}},{"type":"Feature","geometry":{"type":"Point","coordinates":[5.2087033,43.4093928]},"properties":{"category":"bakery","name":"Boulangerie Patisserie","osm_id":3835930612}},{"type":"Feature","geometry":{"type":"Point","coordinates":[5.2210114,43.4188258]},"properties":{"category":"bakery","name":"Au Blé d'Or","osm_id":4601817521}},{"type":"Feature","geometry":{"type":"Point","coordinates":[5.2261701,43.420264]},"properties":{"category":"bakery","name":"Sucré Salé","osm_id":4601962737}},{"type":"Feature","geometry":{"type":"Point","coordinates":[5.2069618,43.4155145]},"properties":{"category":"bakery","name":"Boulangerie Pâtisserie Le Fournil de Saint-Louis","opening_hours":"06:00-10:00","osm_id":4709930630}},{"type":"Feature","geometry":{"type":"Point","coordinates":[5.2222228,43.486241]},"properties":{"category":"bakery","name":"La Fournée de Rognac","opening_hours":"Mo-Fr 05:30-20:30; Sa-Su 06:00-20:30","osm_id":7358292192}},{"type":"Feature","geometry":{"type":"Point","coordinates":[5.2220123,43.4415207]},"properties":{"category":"bakery","name":"Brioche Dorée","phone":"+33 4 42 14 21 21","website":"https://www.briochedoree.fr/restaurants/1009-marseille-aeroport-hall-1","osm_id":7562007585}},{"type":"Feature","geometry":{"type":"Point","coordinates":[5.223525,43.4394836]},"properties":{"category":"bakery","name":"Brioche Dorée","opening_hours":"PH,Mo-Su 07:30-21:00","phone":"+33 4 42 14 21 21","website":"https://www.briochedoree.fr/restaurants/1010-marseille-aeroport-hall-4","osm_id":7562080885}},{"type":"Feature","geometry":{"type":"Point","coordinates":[5.2465653,43.4560802]},"properties":{"category":"bakery","name":"L'épi de Provence","osm_id":9576099385}},{"type":"Feature","geometry":{"type":"Point","coordinates":[5.2481123,43.4572463]},"properties":{"category":"bakery","name":"Fournil du Roucas","osm_id":9576099392}},{"type":"Feature","geometry":{"type":"Point","coordinates":[5.2784154,43.4263974]},"properties":{"category":"bakery","name":"La Nougatine","osm_id":9588094943}},{"type":"Feature","geometry":{"type":"Point","coordinates":[5.2312453,43.4719334]},"properties":{"category":"bakery","name":"Fournil des halles","opening_hours":"Mo-Sa 09:30-19:30","phone":"+33 6 32 09 88 32","osm_id":9776845761}},{"type":"Feature","geometry":{"type":"Point","coordinates":[5.2528943,43.4260276]},"properties":{"category":"bakery","name":"Marie Blachère","osm_id":10074770509}},{"type":"Feature","geometry":{"type":"Point","coordinates":[5.228185,43.4779555]},"properties":{"category":"shop","name":"Cycles Tinabici","opening_hours":"Tu-Fr 09:00-12:00,14:00-19:00; Sa 09:00-12:00,14:00-18:00","phone":"+33 4 42 34 87 46","website":"https://tinabici.com","osm_id":10800146851}},{"type":"Feature","geometry":{"type":"Point","coordinates":[5.2413313,43.4344026]},"properties":{"category":"bakery","name":"L'Atelier Antik","osm_id":10871381993}},{"type":"Feature","geometry":{"type":"Point","coordinates":[5.2558909,43.4279514]},"properties":{"category":"bakery","name":"La Fabrique Gustave & Felix","osm_id":10936853056}},{"type":"Feature","geometry":{"type":"Point","coordinates":[5.2040729,43.4057692]},"properties":{"category":"bakery","name":"Marie Blachère","osm_id":11053300781}},{"type":"Feature","geometry":{"type":"Point","coordinates":[5.2239657,43.41419]},"properties":{"category":"bakery","name":"Boulangerie","osm_id":12091947902}},{"type":"Feature","geometry":{"type":"Point","coordinates":[5.2322197,43.4219433]},"properties":{"category":"bakery","name":"Boulangerie Firmin","osm_id":12091955231}},{"type":"Feature","geometry":{"type":"Point","coordinates":[5.2251286,43.4089728]},"properties":{"category":"bakery","name":"Banette","opening_hours":"Tu-Sa 06:00-13:00,16:00-19:30; Su 06:00-13:00","phone":"+33 4 65 94 26 68","osm_id":12153270783}},{"type":"Feature","geometry":{"type":"Point","coordinates":[5.2322053,43.4884858]},"properties":{"category":"bakery","name":"La Mie de Rognac","osm_id":12236652301}},{"type":"Feature","geometry":{"type":"Point","coordinates":[5.2335633,43.4175961]},"properties":{"category":"compressed_air","osm_id":12754774240}},{"type":"Feature","geometry":{"type":"Point","coordinates":[5.2107123,43.4120718]},"properties":{"category":"compressed_air","osm_id":12754774241}},{"type":"Feature","geometry":{"type":"Point","coordinates":[5.2305331,43.4864191]},"properties":{"category":"repair","osm_id":12785494085}},{"type":"Feature","geometry":{"type":"Point","coordinates":[5.2369138,43.4421404]},"properties":{"category":"repair","osm_id":12785494087}},{"type":"Feature","geometry":{"type":"Point","coordinates":[5.2535095,43.4097565]},"properties":{"category":"repair","osm_id":12786054830}},{"type":"Feature","geometry":{"type":"Point","coordinates":[5.232993,43.4174286]},"properties":{"category":"bakery","name":"Boulangerie Antik","osm_id":13135622742}},{"type":"Feature","geometry":{"type":"Point","coordinates":[5.2395782,43.4178299]},"properties":{"category":"bakery","name":"L'atelier","opening_hours":"Tu-Sa 06:00-20:00; Su 06:00-13:00","phone":"+33 4 42 89 91 86","osm_id":13507954747}}]}