{"type":"FeatureCollection","features":[{"type":"Feature","geometry":{"type":"Point","coordinates":[6.6376855,43.444009]},"properties":{"category":"bakery","name":"La Boulangerie du Rocher","opening_hours":"Tu-Sa 06:30-13:30,16:30-19:30; Su 06:30-13:30","phone":"+33 4 94 45 71 55","website":"https://www.facebook.com/boulangeriedurocher","osm_id":2989755307}},{"type":"Feature","geometry":{"type":"Point","coordinates":[6.6359083,43.4461426]},"properties":{"category":"bakery","name":"Les Boulangeries du Soleil","opening_hours":"Mo-Su 06:00-20:00","osm_id":2999825911}},{"type":"Feature","geometry":{"type":"Point","coordinates":[6.638652,43.4617248]},"properties":{"category":"bakery","osm_id":3101600077}},{"type":"Feature","geometry":{"type":"Point","coordinates":[6.6358892,43.4619742]},"properties":{"category":"bakery","name":"Les Blés d'Argens","opening_hours":"Mo-Su 05:30-20:00","phone":"+33 4 94 45 51 73","osm_id":5430126947}},{"type":"Feature","geometry":{"type":"Point","coordinates":[6.6964673,43.455748]},"properties":{"category":"shop","name":"Riviera Bike","opening_hours":"Tu-Sa 09:00-12:00,14:00-19:00","phone":"+33 4 94 19 09 15","website":"https://www.facebook.com/riviera.bike.1/","osm_id":8426517679}},{"type":"Feature","geometry":{"type":"Point","coordinates":[6.698198,43.4452665]},"properties":{"category":"bakery","name":"Marie Blachère","opening_hours":"Mo-Sa 06:30-20:00; Su off","phone":"+33494450574","website":"https://boulangeries.marieblachere.com/Puget%20Sur%20Argens/","osm_id":11143854853}},{"type":"Feature","geometry":{"type":"Point","coordinates":[6.6714534,43.4666621]},"properties":{"category":"compressed_air","osm_id":11919389800}},{"type":"Feature","geometry":{"type":"Point","coordinates":[6.6830763,43.4554865]},"properties":{"category":"bakery","osm_id":13612483403}}]}