{"type":"FeatureCollection","features":[{"type":"Feature","geometry":{"type":"Point","coordinates":[2.7593604,43.4886272]},"properties":{"category":"bakery","name":"Délices de St Pons","osm_id":1477537481}},{"type":"Feature","geometry":{"type":"Point","coordinates":[2.7150554,43.4729694]},"properties":{"category":"compressed_air","opening_hours":"24/7","osm_id":9017712996}},{"type":"Feature","geometry":{"type":"Point","coordinates":[2.7143204,43.4732347]},"properties":{"category":"compressed_air","osm_id":9643870745}},{"type":"Feature","geometry":{"type":"Point","coordinates":[2.7633262,43.4865653]},"properties":{"category":"bakery","name":"Boulangerie Julié","osm_id":13003941644}}]}