{"type":"FeatureCollection","features":[{"type":"Feature","geometry":{"type":"Point","coordinates":[6.5351732,43.4916588]},"properties":{"category":"bakery","name":"Au Pétrin d'Aurélie","opening_hours":"Mo-Fr 06:00-13:30,15:00-19:30; Sa 06:00-13:00,15:00-19:30; Su 06:00-13:00","osm_id":2969327854}},{"type":"Feature","geometry":{"type":"Point","coordinates":[6.5356238,43.4933031]},"properties":{"category":"bakery","name":"Le Fournil de La Motte","opening_hours":"Mo-Sa 06:30-13:00,15:30-19:30; Su,PH 06:30-13:00","phone":"+33 4 94 85 44 25","osm_id":2969327855}},{"type":"Feature","geometry":{"type":"Point","coordinates":[6.5610619,43.4733627]},"properties":{"category":"bakery","name":"Le Fournil","phone":"+33 4 94 45 06 02","osm_id":5789339929}},{"type":"Feature","geometry":{"type":"Point","coordinates":[6.5663763,43.4729415]},"properties":{"category":"bakery","name":"Lupains","osm_id":10020296144}},{"type":"Feature","geometry":{"type":"Point","coordinates":[6.5737157,43.4709304]},"properties":{"category":"bakery","osm_id":13611983866}}]}