{"type":"FeatureCollection","features":[{"type":"Feature","geometry":{"type":"Point","coordinates":[6.8709912,43.4307333]},"properties":{"category":"bakery","name":"Le Coin Provençal","osm_id":2429974436}},{"type":"Feature","geometry":{"type":"Point","coordinates":[6.8576849,43.4329741]},"properties":{"category":"bakery","name":"La Mie Adorée","opening_hours":"Mo-Sa 06:30-19:30; Su,PH 07:00-19:30","osm_id":6680038543}},{"type":"Feature","geometry":{"type":"Point","coordinates":[6.8072771,43.4170058]},"properties":{"category":"bakery","name":"Secrets de famille","opening_hours":"Mo-Sa 06:00-13:00,15:00-19:30; Su 06:00-13:00","phone":"+33494192466","osm_id":7394137394}},{"type":"Feature","geometry":{"type":"Point","coordinates":[6.8504378,43.4189982]},"properties":{"category":"bakery","name":"Au Nid d'Abeille","opening_hours":"Mo-Tu,Th-Su 06:30-12:30","phone":"+33 4 94 82 84 35","osm_id":9992854403}}]}