{"type":"FeatureCollection","features":[{"type":"Feature","geometry":{"type":"Point","coordinates":[2.3725422,43.4863426]},"properties":{"category":"bakery","name":"Elodie et Remy","osm_id":6339781222}},{"type":"Feature","geometry":{"type":"Point","coordinates":[2.3932804,43.4976462]},"properties":{"category":"bakery","name":"Maison Bisetto","osm_id":6450623463}},{"type":"Feature","geometry":{"type":"Point","coordinates":[2.3754218,43.4905418]},"properties":{"category":"bakery","name":"Boulangerie Cabrita","osm_id":6908928204}},{"type":"Feature","geometry":{"type":"Point","coordinates":[2.3630899,43.4982875]},"properties":{"category":"shop","name":"Atelier Vélo","opening_hours":"\"Sur rendez-vous\"","phone":"+33 6 37 86 26 28","website":"http://atelierveloaussillon.free.fr/","osm_id":10209434530}},{"type":"Feature","geometry":{"type":"Point","coordinates":[2.3763115,43.4989525]},"properties":{"category":"bakery","osm_id":12699201547}},{"type":"Feature","geometry":{"type":"Point","coordinates":[2.3993853,43.4973935]},"properties":{"category":"compressed_air","osm_id":13672460390}}]}