{"type":"FeatureCollection","features":[{"type":"Feature","geometry":{"type":"Point","coordinates":[1.3305918,43.4768334]},"properties":{"category":"shop","name":"Vertical Bike","opening_hours":"Tu-Fr 10:00-13:00,14:00-19:00; Sa 09:00-13:00,14:00-18:00","phone":"+33534476912","website":"https://www.verticalbike.fr","osm_id":4134232187}},{"type":"Feature","geometry":{"type":"Point","coordinates":[1.3260456,43.4640493]},"properties":{"category":"shop","name":"Vélo Station","opening_hours":"Tu-Fr 10:00-19:00; Sa 09:00-18:00","phone":"+33 582 954 533","website":"https://www.velostation.com/-Muret-16-","osm_id":9213080952}},{"type":"Feature","geometry":{"type":"Point","coordinates":[1.3186043,43.4894546]},"properties":{"category":"shop","name":"Cvcles Cholet SAS","opening_hours":"Tu-Fr 09:30-19:00; Sa 09:30-18:00","phone":"+33 5 31 22 26 57","website":"www.facebook.com","osm_id":10892737617}},{"type":"Feature","geometry":{"type":"Point","coordinates":[1.3249791,43.4654064]},"properties":{"category":"shop","name":"Station V","osm_id":12031892101}}]}