{"type":"FeatureCollection","features":[{"type":"Feature","geometry":{"type":"Point","coordinates":[3.4824813,43.4797596]},"properties":{"category":"bakery","name":"Laurent Puech","phone":"+33467241029","osm_id":2439161164}},{"type":"Feature","geometry":{"type":"Point","coordinates":[3.4835743,43.4801742]},"properties":{"category":"bakery","name":"Maison Desaïs","opening_hours":"Tu-Sa 06:00-12:30; Su 07:00-12:30","phone":"+33 4 67 25 78 06","osm_id":2439161165}},{"type":"Feature","geometry":{"type":"Point","coordinates":[3.4371565,43.4360026]},"properties":{"category":"bakery","osm_id":2597788159}},{"type":"Feature","geometry":{"type":"Point","coordinates":[3.4830985,43.4807162]},"properties":{"category":"bakery","name":"Le Fournil","osm_id":3102808355}},{"type":"Feature","geometry":{"type":"Point","coordinates":[3.4228414,43.4600004]},"properties":{"category":"bakery","osm_id":9702203316}},{"type":"Feature","geometry":{"type":"Point","coordinates":[3.4214277,43.4604857]},"properties":{"category":"bakery","name":"Percheron","opening_hours":"Tu,Th,Fr 08:00-12:30,15:30-19:00; We,Sa 08:00-13:00,15:30-19:00; Su 08:00-12:30","osm_id":9702221917}},{"type":"Feature","geometry":{"type":"Point","coordinates":[3.4235099,43.4556351]},"properties":{"category":"bakery","name":"Le Fournil de Pézenas","osm_id":10075927208}},{"type":"Feature","geometry":{"type":"Point","coordinates":[3.4238015,43.4596755]},"properties":{"category":"bakery","name":"Pauline","osm_id":10206728055}},{"type":"Feature","geometry":{"type":"Point","coordinates":[3.4242495,43.4616657]},"properties":{"category":"shop","osm_id":10206835941}},{"type":"Feature","geometry":{"type":"Point","coordinates":[3.4226349,43.4597844]},"properties":{"category":"bakery","name":"La boulangerie Imaginaire","opening_hours":"Tu-Sa 07:00-19:00","phone":"+33 4 67 98 22 53","osm_id":10215270309}},{"type":"Feature","geometry":{"type":"Point","coordinates":[3.4182042,43.4617448]},"properties":{"category":"shop","name":"Planète Vélos","phone":"+33 4 67 98 34 04","osm_id":10304124926}},{"type":"Feature","geometry":{"type":"Point","coordinates":[3.4109692,43.4477413]},"properties":{"category":"bakery","name":"Lallemand","osm_id":10722389205}},{"type":"Feature","geometry":{"type":"Point","coordinates":[3.4070702,43.4207884]},"properties":{"category":"bakery","name":"Les Gourmandises de Rose","opening_hours":"Mo-Sa 06:30-13:00,16:30-18:00; We off; Su 06:30-13:00","phone":"+33 9 81 12 88 10","osm_id":11296171703}},{"type":"Feature","geometry":{"type":"Point","coordinates":[3.4198096,43.4568558]},"properties":{"category":"bakery","name":"Petit Pain","opening_hours":"Mo-Fr 07:00-18:00","osm_id":11649577744}},{"type":"Feature","geometry":{"type":"Point","coordinates":[3.424633,43.459838]},"properties":{"category":"bakery","name":"Le Fournil De Sca'pain","osm_id":11972403592}},{"type":"Feature","geometry":{"type":"Point","coordinates":[3.4239755,43.4608067]},"properties":{"category":"bakery","name":"L'Allemand","osm_id":12002747608}},{"type":"Feature","geometry":{"type":"Point","coordinates":[3.4070264,43.4180482]},"properties":{"category":"shop","name":"X1 Racing Suspension","opening_hours":"Mo-Fr 09:00-17:00","phone":"+33 4 67 32 88 25","website":"https://x1-racing-suspension.com/","osm_id":12786404542}},{"type":"Feature","geometry":{"type":"Point","coordinates":[3.4226308,43.4555551]},"properties":{"category":"compressed_air","osm_id":12925732702}}]}