{"type":"FeatureCollection","features":[{"type":"Feature","geometry":{"type":"Point","coordinates":[-1.5635815,43.4507939]},"properties":{"category":"shop","name":"Vélo New's 64","opening_hours":"Tu-Fr 09:00-12:00,14:00-19:00; Sa 09:00-12:00,14:00-18:00","phone":"+335 59 41 06 33","osm_id":5861186767}},{"type":"Feature","geometry":{"type":"Point","coordinates":[-1.5583755,43.4791208]},"properties":{"category":"shop","name":"Velektrix Biarritz","osm_id":5861211410}},{"type":"Feature","geometry":{"type":"Point","coordinates":[-1.5543213,43.4818863]},"properties":{"category":"shop","name":"Joe Bike","opening_hours":"Mo-Su 09:30-12:30,13:30-18:00","phone":"+33 9 81 96 44 11","osm_id":5861211411}},{"type":"Feature","geometry":{"type":"Point","coordinates":[-1.5648945,43.4790637]},"properties":{"category":"shop","name":"Newteon","osm_id":5861211412}},{"type":"Feature","geometry":{"type":"Point","coordinates":[-1.5772374,43.4333985]},"properties":{"category":"shop","name":"BOéquipement","osm_id":6024475873}},{"type":"Feature","geometry":{"type":"Point","coordinates":[-1.5452401,43.4600063]},"properties":{"category":"shop","name":"La Folie Verte","osm_id":10000812347}},{"type":"Feature","geometry":{"type":"Point","coordinates":[-1.5140369,43.485511]},"properties":{"category":"repair","opening_hours":"24/7","osm_id":11411798957}},{"type":"Feature","geometry":{"type":"Point","coordinates":[-1.5067435,43.4796361]},"properties":{"category":"repair","opening_hours":"24/7","osm_id":11411798958}},{"type":"Feature","geometry":{"type":"Point","coordinates":[-1.5083939,43.4790853]},"properties":{"category":"repair","osm_id":11836798069}},{"type":"Feature","geometry":{"type":"Point","coordinates":[-1.5605207,43.4833381]},"properties":{"category":"repair","osm_id":12073719272}},{"type":"Feature","geometry":{"type":"Point","coordinates":[-1.5883971,43.4453065]},"properties":{"category":"repair","osm_id":12192750601}},{"type":"Feature","geometry":{"type":"Point","coordinates":[-1.519869,43.4949333]},"properties":{"category":"shop","name":"Citibike","opening_hours":"Tu-Sa 10:00-19:00","phone":"+33 5 59 20 81 11","website":"http://www.citibike.fr/","osm_id":12407478001}},{"type":"Feature","geometry":{"type":"Point","coordinates":[-1.574978,43.4476108]},"properties":{"category":"compressed_air","osm_id":12972948984}},{"type":"Feature","geometry":{"type":"Point","coordinates":[-1.5202877,43.476312]},"properties":{"category":"repair","osm_id":13041408223}},{"type":"Feature","geometry":{"type":"Point","coordinates":[-1.5596791,43.4799904]},"properties":{"category":"repair","osm_id":13259819995}},{"type":"Feature","geometry":{"type":"Point","coordinates":[-1.5604229,43.4795592]},"properties":{"category":"repair","osm_id":13342063838}},{"type":"Feature","geometry":{"type":"Point","coordinates":[-1.5138724,43.4802391]},"properties":{"category":"shop","name":"Pop Bike Shop","phone":"+33987488434","osm_id":13806374120}}]}