{"type":"FeatureCollection","features":[{"type":"Feature","geometry":{"type":"Point","coordinates":[3.3002655,43.4267989]},"properties":{"category":"bakery","osm_id":4038981967}},{"type":"Feature","geometry":{"type":"Point","coordinates":[3.3416595,43.4702248]},"properties":{"category":"bakery","name":"Boulangerie d'Alignan-sur-Vent","phone":"+33 9 80 67 44 26","osm_id":11091800640}},{"type":"Feature","geometry":{"type":"Point","coordinates":[3.3078086,43.4257315]},"properties":{"category":"bakery","name":"Le St Julien","opening_hours":"Mo-Sa 06:00-20:00; Su 06:00-13:00","osm_id":11630790947}},{"type":"Feature","geometry":{"type":"Point","coordinates":[3.3851388,43.4443391]},"properties":{"category":"bakery","osm_id":12390531632}},{"type":"Feature","geometry":{"type":"Point","coordinates":[3.3190229,43.4999495]},"properties":{"category":"bakery","osm_id":13891417148}}]}