{"type":"FeatureCollection","features":[{"type":"Feature","geometry":{"type":"Point","coordinates":[-0.7980084,43.4895609]},"properties":{"category":"compressed_air","osm_id":9869135656}},{"type":"Feature","geometry":{"type":"Point","coordinates":[-0.7525837,43.4813798]},"properties":{"category":"shop","osm_id":9902785195}},{"type":"Feature","geometry":{"type":"Point","coordinates":[-0.7559196,43.4720429]},"properties":{"category":"repair","osm_id":14000346597}},{"type":"Feature","geometry":{"type":"Point","coordinates":[-0.7558978,43.4720334]},"properties":{"category":"compressed_air","osm_id":14000372805}}]}