{"type":"FeatureCollection","features":[{"type":"Feature","geometry":{"type":"Point","coordinates":[-1.6052896,43.4234171]},"properties":{"category":"bakery","name":"Laurent Frappier","phone":"+33 5 59 23 67 22","osm_id":4402578492}},{"type":"Feature","geometry":{"type":"Point","coordinates":[-1.6046768,43.42397]},"properties":{"category":"shop","name":"Velektrix","phone":"+33 5 59 43 78 76","website":"https://velektrix.fr","osm_id":6024475874}},{"type":"Feature","geometry":{"type":"Point","coordinates":[-1.6266725,43.4044173]},"properties":{"category":"bakery","name":"Secrets de Pains","opening_hours":"Mo-Su 06:30-20:00","phone":"+33 5 59 26 04 57","osm_id":11516171082}}]}