{"type":"FeatureCollection","features":[{"type":"Feature","geometry":{"type":"Point","coordinates":[6.3615263,43.4931799]},"properties":{"category":"bakery","name":"Le Pétrin Lorguais","opening_hours":"Tu-Sa 06:30-13:00,15:30-19:00; Su 06:30-13:00","phone":"+33 4 89 90 57 73","osm_id":2293854989}},{"type":"Feature","geometry":{"type":"Point","coordinates":[6.3635125,43.4914674]},"properties":{"category":"bakery","name":"Ronde des Pains","opening_hours":"Mo-Sa 06:00-13:00,16:00-19:00; Tu off; Su 07:00-13:00","phone":"+33 4 94 85 52 01","osm_id":3221265588}},{"type":"Feature","geometry":{"type":"Point","coordinates":[6.3600992,43.4921623]},"properties":{"category":"bakery","name":"Ronde des Pains","opening_hours":"Tu-Su 06:45-12:45","phone":"+33 4 94 73 70 22","osm_id":3221265589}},{"type":"Feature","geometry":{"type":"Point","coordinates":[6.3577757,43.489288]},"properties":{"category":"bakery","name":"Fournil Saint-Roch","opening_hours":"Th-Tu,PH 06:00-19:30","phone":"+33 4 94 73 73 16","osm_id":3229905410}},{"type":"Feature","geometry":{"type":"Point","coordinates":[6.3031004,43.4505796]},"properties":{"category":"bakery","name":"Lou Bouan Pan","osm_id":4635053261}},{"type":"Feature","geometry":{"type":"Point","coordinates":[6.3515778,43.4878879]},"properties":{"category":"bakery","name":"Marie Blachère","opening_hours":"Mo-Sa 06:30-20:00","phone":"+33 4 94 76 61 43","website":"https://boulangeries.marieblachere.com/Lorgues","osm_id":9833517658}},{"type":"Feature","geometry":{"type":"Point","coordinates":[6.3599635,43.4905413]},"properties":{"category":"bakery","name":"Le Pétrin Ribeïrou","opening_hours":"07:00-20:00","phone":"+33 4 94 50 08 12","website":"https://www.petrin-ribeirou.com","osm_id":12058027044}}]}