{"type":"FeatureCollection","features":[{"type":"Feature","geometry":{"type":"Point","coordinates":[5.860709,43.452892]},"properties":{"category":"bakery","osm_id":2964010235}},{"type":"Feature","geometry":{"type":"Point","coordinates":[5.8672227,43.4444127]},"properties":{"category":"bakery","name":"Boulangerie Hernandez","website":"https://boulangeriehernandez.fr/","osm_id":6634394799}},{"type":"Feature","geometry":{"type":"Point","coordinates":[5.862639,43.4528046]},"properties":{"category":"bakery","name":"Boulanger Pâtissier","opening_hours":"Tu,We,Fr,Sa 09:00-18:00","osm_id":11173648706}},{"type":"Feature","geometry":{"type":"Point","coordinates":[5.8600583,43.4593852]},"properties":{"category":"bakery","name":"Baltazar","osm_id":12640071821}},{"type":"Feature","geometry":{"type":"Point","coordinates":[5.8616324,43.4496918]},"properties":{"category":"bakery","name":"Le Pain Chez Mimo","opening_hours":"Mo-Fr 05:00-13:00","osm_id":13608147079}},{"type":"Feature","geometry":{"type":"Point","coordinates":[5.8586716,43.4534464]},"properties":{"category":"bakery","name":"Le Fournil Provençal","opening_hours":"Mo-Su 06:00-19:30","phone":"+339 80 93 18 30","osm_id":13857092980}}]}