{"type":"FeatureCollection","features":[{"type":"Feature","geometry":{"type":"Point","coordinates":[6.4736417,43.4468434]},"properties":{"category":"bakery","name":"Boulangerie Patisserie","osm_id":3924028404}},{"type":"Feature","geometry":{"type":"Point","coordinates":[6.4261858,43.4215906]},"properties":{"category":"bakery","osm_id":4472708628}},{"type":"Feature","geometry":{"type":"Point","coordinates":[6.4267488,43.4543297]},"properties":{"category":"bakery","osm_id":6570474088}},{"type":"Feature","geometry":{"type":"Point","coordinates":[6.4787279,43.4625318]},"properties":{"category":"bakery","name":"Le Fournil des Arcs","opening_hours":"Mo-Tu 07:00-13:00,15:30-19:30; We off; Th-Sa 07:00-13:00,15:30-19:30; Su 07:00-13:00","phone":"+33 4 94 73 32 09","website":"https://boulangerie-patisserie-chocolaterie-confiserie.business.site/website/boulangerie-patisserie-chocolaterie-confiserie/","osm_id":7093399276}},{"type":"Feature","geometry":{"type":"Point","coordinates":[6.4777324,43.4631792]},"properties":{"category":"bakery","name":"Au croissant doré","osm_id":7733903845}},{"type":"Feature","geometry":{"type":"Point","coordinates":[6.4275577,43.4235793]},"properties":{"category":"shop","name":"Velo Pro Shop","opening_hours":"Mo 14:30-19:00; Tu-Fr 09:00-12:30,14:30-19:00; Sa 09:00-12:30","phone":"+33 4 94 99 54 83","website":"https://velo-pro-shop.com/","osm_id":9148259698}},{"type":"Feature","geometry":{"type":"Point","coordinates":[6.4530841,43.414717]},"properties":{"category":"compressed_air","osm_id":10816779488}},{"type":"Feature","geometry":{"type":"Point","coordinates":[6.482774,43.4559377]},"properties":{"category":"repair","osm_id":12785494069}},{"type":"Feature","geometry":{"type":"Point","coordinates":[6.437405,43.4325823]},"properties":{"category":"bakery","osm_id":13611908637}}]}