{"type":"FeatureCollection","features":[{"type":"Feature","geometry":{"type":"Point","coordinates":[5.317829,43.4554894]},"properties":{"category":"compressed_air","osm_id":6149719375}},{"type":"Feature","geometry":{"type":"Point","coordinates":[5.3816486,43.4906239]},"properties":{"category":"shop","name":"rutile.bike","opening_hours":"Mo-Fr 10:00-19:00; Sa 09:30-19:00","phone":"+33 4 89 41 70 70","website":"https://rutile.bike/pages/showroom-velo-electrique-reconditionne-aix-en-provence","osm_id":6515024058}},{"type":"Feature","geometry":{"type":"Point","coordinates":[5.3645829,43.4178229]},"properties":{"category":"shop","name":"Trek","opening_hours":"Mo off; Tu-Sa 10:00-18:30; Su off","osm_id":9216066873}},{"type":"Feature","geometry":{"type":"Point","coordinates":[5.398443,43.4315641]},"properties":{"category":"shop","name":"Alltricks Store Bouc Bel Air","opening_hours":"Mo-Sa 10:00-19:00","website":"https://www.alltricks.fr/surl/magasin-velo-marseille","osm_id":9421224363}},{"type":"Feature","geometry":{"type":"Point","coordinates":[5.383818,43.4835498]},"properties":{"category":"compressed_air","osm_id":9859742236}},{"type":"Feature","geometry":{"type":"Point","coordinates":[5.3751865,43.4914338]},"properties":{"category":"repair","opening_hours":"24/7","osm_id":11993287026}}]}