{"type":"FeatureCollection","features":[{"type":"Feature","geometry":{"type":"Point","coordinates":[4.4277339,43.4546096]},"properties":{"category":"compressed_air","osm_id":3717106951}},{"type":"Feature","geometry":{"type":"Point","coordinates":[4.4275216,43.4514635]},"properties":{"category":"bakery","name":"Jean le Boulanger","opening_hours":"Tu-We 07:30-18:00; Th 07:00-18:00; Fr 07:30-19:00; Sa-Su 07:30-18:00","osm_id":4569958390}},{"type":"Feature","geometry":{"type":"Point","coordinates":[4.4277093,43.4543777]},"properties":{"category":"bakery","name":"Le fournil saintois","opening_hours":"Mo-Su 06:30-19:00","osm_id":4879853221}}]}