{"type":"FeatureCollection","features":[{"type":"Feature","geometry":{"type":"Point","coordinates":[6.1219887,43.4735115]},"properties":{"category":"bakery","name":"Du Four au Moulin","osm_id":1326687507}},{"type":"Feature","geometry":{"type":"Point","coordinates":[6.1822665,43.4764927]},"properties":{"category":"bakery","name":"Patisserie aux Délices","osm_id":2688704762}},{"type":"Feature","geometry":{"type":"Point","coordinates":[6.1839359,43.4764415]},"properties":{"category":"bakery","name":"Le Fournil","osm_id":2912636125}},{"type":"Feature","geometry":{"type":"Point","coordinates":[6.1829957,43.4764437]},"properties":{"category":"bakery","name":"Boulangerie Pons","osm_id":4751169990}},{"type":"Feature","geometry":{"type":"Point","coordinates":[6.1423451,43.4337297]},"properties":{"category":"bakery","name":"Chez Panise","osm_id":11090405317}}]}