{"type":"FeatureCollection","features":[{"type":"Feature","geometry":{"type":"Point","coordinates":[-1.48946,43.49917]},"properties":{"category":"shop","name":"Txirrind'Ola","opening_hours":"Mo-Fr 14:00-18:00; We 14:00-20:00; Sa 10:00-13:00","phone":"+33 7 81 50 72 73","osm_id":4469759973}},{"type":"Feature","geometry":{"type":"Point","coordinates":[-1.4830242,43.4963857]},"properties":{"category":"shop","name":"Cyclable","phone":"+33 5 59 08 89 71","osm_id":5602310249}},{"type":"Feature","geometry":{"type":"Point","coordinates":[-1.4520299,43.4924841]},"properties":{"category":"compressed_air","opening_hours":"24/7","osm_id":5812406945}},{"type":"Feature","geometry":{"type":"Point","coordinates":[-1.4446301,43.4816349]},"properties":{"category":"compressed_air","osm_id":5825497731}},{"type":"Feature","geometry":{"type":"Point","coordinates":[-1.4987381,43.4963273]},"properties":{"category":"shop","name":"Culture Vélo","phone":"+33 5 59 57 99 03","website":"https://www.culturevelo.com/-Anglet-","osm_id":5861158650}},{"type":"Feature","geometry":{"type":"Point","coordinates":[-1.4854344,43.4867829]},"properties":{"category":"shop","name":"Espace Morisson","osm_id":5861180455}},{"type":"Feature","geometry":{"type":"Point","coordinates":[-1.4912808,43.4889703]},"properties":{"category":"shop","name":"Intersport","osm_id":5861180457}},{"type":"Feature","geometry":{"type":"Point","coordinates":[-1.4931589,43.4911765]},"properties":{"category":"shop","name":"Giant","osm_id":10095191498}},{"type":"Feature","geometry":{"type":"Point","coordinates":[-1.4696574,43.4962395]},"properties":{"category":"shop","name":"Bicicletta La Maison du Cycle","osm_id":10117172276}},{"type":"Feature","geometry":{"type":"Point","coordinates":[-1.4938195,43.4956478]},"properties":{"category":"shop","name":"Ciel","opening_hours":"Mo,Su off; Tu-Sa 10:00-19:00","phone":"+33 5 40 39 39 00","website":"https://www.velociel.com/","osm_id":10865252142}},{"type":"Feature","geometry":{"type":"Point","coordinates":[-1.4972016,43.4591039]},"properties":{"category":"repair","osm_id":12506682432}},{"type":"Feature","geometry":{"type":"Point","coordinates":[-1.4827694,43.4819134]},"properties":{"category":"compressed_air","osm_id":12907559808}}]}