{"type":"FeatureCollection","features":[{"type":"Feature","geometry":{"type":"Point","coordinates":[6.9555931,43.555806]},"properties":{"category":"shop","name":"Culture Vélo","opening_hours":"Tu-Sa 10:00-13:00,15:00-19:00","phone":"+33 4 93 47 20 26","website":"https://www.culturevelo.com/","osm_id":1406979219}},{"type":"Feature","geometry":{"type":"Point","coordinates":[6.9254398,43.5975723]},"properties":{"category":"shop","name":"NTC","osm_id":1703208896}},{"type":"Feature","geometry":{"type":"Point","coordinates":[6.9983862,43.5773189]},"properties":{"category":"shop","name":"Cycles Sordello","phone":"+33 4 93 69 06 26","website":"http://cyclessordello-bikerental.com/","osm_id":6397112340}},{"type":"Feature","geometry":{"type":"Point","coordinates":[6.9576782,43.5506705]},"properties":{"category":"repair","opening_hours":"24/7","osm_id":9269877778}},{"type":"Feature","geometry":{"type":"Point","coordinates":[6.962389,43.5421076]},"properties":{"category":"repair","opening_hours":"24/7","osm_id":9273055229}},{"type":"Feature","geometry":{"type":"Point","coordinates":[6.9422416,43.5385904]},"properties":{"category":"shop","name":"Mandelieu 2 Roues","osm_id":9923277968}},{"type":"Feature","geometry":{"type":"Point","coordinates":[6.9545026,43.5668198]},"properties":{"category":"repair","opening_hours":"24/7","osm_id":10695415293}},{"type":"Feature","geometry":{"type":"Point","coordinates":[6.9583085,43.5501302]},"properties":{"category":"compressed_air","osm_id":11883490443}},{"type":"Feature","geometry":{"type":"Point","coordinates":[6.964113,43.5678714]},"properties":{"category":"shop","name":"Choisir Le Vélo","opening_hours":"Sa 09:00-12:00","website":"https://www.choisirlevelo.org/","osm_id":11888521183}},{"type":"Feature","geometry":{"type":"Point","coordinates":[6.9458846,43.5272926]},"properties":{"category":"repair","osm_id":12639320321}},{"type":"Feature","geometry":{"type":"Point","coordinates":[6.9864645,43.5487178]},"properties":{"category":"repair","osm_id":12786137335}},{"type":"Feature","geometry":{"type":"Point","coordinates":[6.9416332,43.5243516]},"properties":{"category":"repair","osm_id":12786137341}},{"type":"Feature","geometry":{"type":"Point","coordinates":[6.9469352,43.5367467]},"properties":{"category":"repair","osm_id":12823279923}},{"type":"Feature","geometry":{"type":"Point","coordinates":[6.928814,43.5900108]},"properties":{"category":"repair","opening_hours":"24/7","osm_id":13705838506}}]}