{"type":"FeatureCollection","features":[{"type":"Feature","geometry":{"type":"Point","coordinates":[-1.4635527,43.5958315]},"properties":{"category":"shop","name":"Surf'Lab Location de vélo et surf","opening_hours":"09:30-13:00,16:00-19:00","phone":"+33 5 59 45 71 09","website":"https://www.surf-labenne.com/","osm_id":4965718510}},{"type":"Feature","geometry":{"type":"Point","coordinates":[-1.4993792,43.5080923]},"properties":{"category":"shop","name":"Véloocity","phone":"+33 5 59 93 24 53","website":"https://www.veloocity.com","osm_id":5861218712}},{"type":"Feature","geometry":{"type":"Point","coordinates":[-1.4607565,43.538166]},"properties":{"category":"shop","name":"Bicyk'Land","opening_hours":"Mo-Fr 09:00-12:30,14:00-18:30; Sa 10:00-18:00","phone":"+33 5 59 52 44 94","osm_id":8190811418}},{"type":"Feature","geometry":{"type":"Point","coordinates":[-1.4197948,43.5858125]},"properties":{"category":"compressed_air","osm_id":9006151651}},{"type":"Feature","geometry":{"type":"Point","coordinates":[-1.4268913,43.5890455]},"properties":{"category":"shop","name":"Ocean Bike Les Vélocéans","opening_hours":"closed","phone":"+33 6 85 96 88 10","website":"https://oceanbike-labenne.fr/","osm_id":9643464966}},{"type":"Feature","geometry":{"type":"Point","coordinates":[-1.4934942,43.5277179]},"properties":{"category":"shop","name":"Clavette","opening_hours":"Tu-Sa 09:00-12:30; We 09:00-12:30,14:00-17:50; Fr 09:00-12:30,14:15-17:50","website":"https://clavetteclavette.wixsite.com/clavette","osm_id":10753080769}},{"type":"Feature","geometry":{"type":"Point","coordinates":[-1.4669307,43.50498]},"properties":{"category":"compressed_air","osm_id":10880587514}},{"type":"Feature","geometry":{"type":"Point","coordinates":[-1.4719125,43.5991465]},"properties":{"category":"repair","opening_hours":"24/7","osm_id":11051569837}},{"type":"Feature","geometry":{"type":"Point","coordinates":[-1.4606788,43.5424503]},"properties":{"category":"shop","name":"Clavette & Cie","opening_hours":"We,Th 14:00-18:00; Fr 14:00-19:00; Sa 09:00-12:30","phone":"+33 6 52 74 66 60","osm_id":13470991985}},{"type":"Feature","geometry":{"type":"Point","coordinates":[-1.4717827,43.5718922]},"properties":{"category":"repair","osm_id":13727740084}},{"type":"Feature","geometry":{"type":"Point","coordinates":[-1.4634988,43.5235193]},"properties":{"category":"compressed_air","osm_id":13867414796}}]}