{"type":"FeatureCollection","features":[{"type":"Feature","geometry":{"type":"Point","coordinates":[6.4575536,43.5351645]},"properties":{"category":"shop","name":"Dragui Cycles","opening_hours":"Tu-Sa 09:00-12:00, Mo-Sa 14:00-19:00","phone":"+33 4 94 67 08 91","osm_id":7516980590}},{"type":"Feature","geometry":{"type":"Point","coordinates":[6.4510851,43.5327053]},"properties":{"category":"compressed_air","osm_id":7739962851}},{"type":"Feature","geometry":{"type":"Point","coordinates":[6.4808252,43.5101807]},"properties":{"category":"shop","name":"Flash Bike","opening_hours":"Tu-Sa 09:00-12:00, 14:00-19:00; Mo 14:00-19:00","osm_id":8530291942}},{"type":"Feature","geometry":{"type":"Point","coordinates":[6.4651926,43.5357206]},"properties":{"category":"repair","opening_hours":"24/7","osm_id":13638735130}},{"type":"Feature","geometry":{"type":"Point","coordinates":[6.4652017,43.535727]},"properties":{"category":"repair","opening_hours":"24/7","osm_id":13638735131}}]}