{"type":"FeatureCollection","features":[{"type":"Feature","geometry":{"type":"Point","coordinates":[1.1774249,43.5137712]},"properties":{"category":"bakery","name":"Le Moulin Gourmand","osm_id":6281312845}},{"type":"Feature","geometry":{"type":"Point","coordinates":[1.1770859,43.5145273]},"properties":{"category":"bakery","name":"Aux Délys","osm_id":6281357831}},{"type":"Feature","geometry":{"type":"Point","coordinates":[1.1757122,43.5131442]},"properties":{"category":"bakery","name":"La Boul Ange","osm_id":7137009341}},{"type":"Feature","geometry":{"type":"Point","coordinates":[1.1497929,43.5906613]},"properties":{"category":"bakery","osm_id":12696700107}},{"type":"Feature","geometry":{"type":"Point","coordinates":[1.1786884,43.5895377]},"properties":{"category":"shop","name":"HypeBike","phone":"+33 5 62 62 81 12","osm_id":13071498262}}]}