{"type":"FeatureCollection","features":[{"type":"Feature","geometry":{"type":"Point","coordinates":[3.714976,43.5017928]},"properties":{"category":"bakery","osm_id":3157980472}},{"type":"Feature","geometry":{"type":"Point","coordinates":[3.711129,43.500028]},"properties":{"category":"bakery","name":"La Pétrie Gourmande","osm_id":3158011388}},{"type":"Feature","geometry":{"type":"Point","coordinates":[3.7121576,43.5002454]},"properties":{"category":"bakery","name":"Le Croustillant","osm_id":3158033865}},{"type":"Feature","geometry":{"type":"Point","coordinates":[3.7185686,43.5576094]},"properties":{"category":"bakery","name":"Axelle","osm_id":4009613317}},{"type":"Feature","geometry":{"type":"Point","coordinates":[3.7772411,43.5495533]},"properties":{"category":"bakery","name":"La Fleur de Lys","osm_id":4021550383}},{"type":"Feature","geometry":{"type":"Point","coordinates":[3.7769284,43.5505187]},"properties":{"category":"bakery","name":"L'Èpi d'Or","osm_id":4021592916}},{"type":"Feature","geometry":{"type":"Point","coordinates":[3.7767976,43.5519074]},"properties":{"category":"shop","name":"Maxycles","osm_id":4021624965}},{"type":"Feature","geometry":{"type":"Point","coordinates":[3.7832266,43.5507505]},"properties":{"category":"bakery","name":"Galzin","osm_id":4021863505}},{"type":"Feature","geometry":{"type":"Point","coordinates":[3.7634347,43.5823644]},"properties":{"category":"bakery","name":"Clautipat","osm_id":4121307338}},{"type":"Feature","geometry":{"type":"Point","coordinates":[3.759278,43.5831156]},"properties":{"category":"bakery","name":"Aux Pains du Forum","osm_id":4122989474}},{"type":"Feature","geometry":{"type":"Point","coordinates":[3.7669219,43.5797346]},"properties":{"category":"bakery","name":"Simonin Brigitte","osm_id":4123003687}},{"type":"Feature","geometry":{"type":"Point","coordinates":[3.7952396,43.5593843]},"properties":{"category":"bakery","name":"Boulangerie Valat","osm_id":4152761675}},{"type":"Feature","geometry":{"type":"Point","coordinates":[3.793696,43.5611031]},"properties":{"category":"bakery","name":"BouSol - boulangerie solidaire","osm_id":4152943397}},{"type":"Feature","geometry":{"type":"Point","coordinates":[3.7077133,43.5489015]},"properties":{"category":"bakery","name":"Le pétrin de Steph'Anne","osm_id":4202153046}},{"type":"Feature","geometry":{"type":"Point","coordinates":[3.7141131,43.5501102]},"properties":{"category":"bakery","name":"Pain Patisserie","osm_id":4202238686}},{"type":"Feature","geometry":{"type":"Point","coordinates":[3.7952633,43.5471843]},"properties":{"category":"bakery","name":"La Mie Câline","osm_id":5654644323}},{"type":"Feature","geometry":{"type":"Point","coordinates":[3.72822,43.5576985]},"properties":{"category":"bakery","name":"Marie Blachère","opening_hours":"Mo-Sa 06:30-19:30","phone":"+33 4 67 64 06 38","website":"https://boulangeries.marieblachere.com/fr/france-FR/5385/marie-blachere-cournonterral/details","osm_id":14107713210}},{"type":"Feature","geometry":{"type":"Point","coordinates":[3.7185159,43.5574682]},"properties":{"category":"shop","name":"MEG","website":"https://www.instagram.com/p/CqDohhYovej/","osm_id":14107713213}}]}