{"type":"FeatureCollection","features":[{"type":"Feature","geometry":{"type":"Point","coordinates":[2.2637647,43.5381425]},"properties":{"category":"bakery","name":"Boulangerie - Patisserie Marchese","osm_id":2004128217}},{"type":"Feature","geometry":{"type":"Point","coordinates":[2.2629811,43.5387009]},"properties":{"category":"bakery","name":"Boulangerie Patisserie La Dauphinoise","osm_id":2004177722}},{"type":"Feature","geometry":{"type":"Point","coordinates":[2.2163129,43.592538]},"properties":{"category":"bakery","name":"La Mie de Pain","opening_hours":"Mo-Sa 06:00-20:00","website":"https://www.lamiedepain-boulangerie.fr/boulangerie-la-mie-de-pain-castres-81100/","osm_id":2463348443}},{"type":"Feature","geometry":{"type":"Point","coordinates":[2.2513475,43.5457843]},"properties":{"category":"compressed_air","osm_id":2940664542}},{"type":"Feature","geometry":{"type":"Point","coordinates":[2.2766444,43.5797034]},"properties":{"category":"bakery","name":"Castillon","osm_id":7951428217}},{"type":"Feature","geometry":{"type":"Point","coordinates":[2.2628411,43.5399534]},"properties":{"category":"bakery","name":"Boulangerie Oliveira","osm_id":9891837185}},{"type":"Feature","geometry":{"type":"Point","coordinates":[2.2747546,43.5481453]},"properties":{"category":"compressed_air","osm_id":12090340132}},{"type":"Feature","geometry":{"type":"Point","coordinates":[2.2712436,43.588617]},"properties":{"category":"bakery","name":"Boulangerie Ange","opening_hours":"Mo-Sa 06:30-19:30","phone":"+33 5 32 09 18 30","website":"https://www.boulangerie-ange.fr/stores/boulangerie-ange-castres/","osm_id":13696046780}}]}