{"type":"FeatureCollection","features":[{"type":"Feature","geometry":{"type":"Point","coordinates":[0.1620517,43.5238702]},"properties":{"category":"bakery","name":"Ronde des Pains","opening_hours":"Mo-We, Fr, Sa 06:30-13:00, 14:30-19:30; Su 06:30-13:00","osm_id":1376776628}},{"type":"Feature","geometry":{"type":"Point","coordinates":[0.1604764,43.5242424]},"properties":{"category":"bakery","name":"Les Gourmandises","osm_id":1376776639}},{"type":"Feature","geometry":{"type":"Point","coordinates":[0.1715984,43.5182101]},"properties":{"category":"compressed_air","osm_id":9024358391}}]}