{"type":"FeatureCollection","features":[{"type":"Feature","geometry":{"type":"Point","coordinates":[-1.1777177,43.563816]},"properties":{"category":"bakery","name":"Les Chemins du Pain","opening_hours":"Tu,Th,Sa 07:00-14:00; We,Fr 07:00-14:00,16:00-19:00","phone":"+33 5 58 91 86 57","osm_id":8367090032}},{"type":"Feature","geometry":{"type":"Point","coordinates":[-1.1115535,43.5460485]},"properties":{"category":"bakery","name":"Boulangerie Clémentine","opening_hours":"06:00-13:00,15:30-19:45; Tu off; Th 06:00-13:00","phone":"+33 5 58 73 08 84","osm_id":8738437163}},{"type":"Feature","geometry":{"type":"Point","coordinates":[-1.1047265,43.54485]},"properties":{"category":"bakery","name":"Les Gourmandises de Nicolas","opening_hours":"Tu-Su 07:00-19:30","phone":"+33 5 58 73 79 08","website":"https://www.lesgourmandisesdenicolas.fr/","osm_id":8738489368}},{"type":"Feature","geometry":{"type":"Point","coordinates":[-1.1279618,43.5519901]},"properties":{"category":"bakery","name":"Maison Tafernaberry","opening_hours":"Tu-Sa 06:00-13:00,15:30-19:00; Su 06:00-13:00","phone":"+33 5 58 73 03 49","osm_id":8738514068}},{"type":"Feature","geometry":{"type":"Point","coordinates":[-1.1033826,43.5450482]},"properties":{"category":"bakery","name":"Maison Tafernaberry","opening_hours":"Tu-Sa 06:00-13:00,16:00-19:30; Su 06:00-13:00","osm_id":8738526589}},{"type":"Feature","geometry":{"type":"Point","coordinates":[-1.1778586,43.588756]},"properties":{"category":"bakery","name":"Saveurs du Pays d'Orthe","osm_id":12677570937}}]}