{"type":"FeatureCollection","features":[{"type":"Feature","geometry":{"type":"Point","coordinates":[1.3432253,43.5258757]},"properties":{"category":"shop","name":"Family-cycles","opening_hours":"Mo-Fr 09:00-12:00,14:00-19:00; Sa 09:00-18:00","phone":"+33 7 81 05 82 96","website":"https://www.family-cycles.fr/","osm_id":10892643954}},{"type":"Feature","geometry":{"type":"Point","coordinates":[1.3300444,43.5778425]},"properties":{"category":"shop","name":"Solution.s Vélo","opening_hours":"Mo-Fr 09:30-19:00","website":"https://solutions-velo.business.site/","osm_id":11012481578}},{"type":"Feature","geometry":{"type":"Point","coordinates":[1.3680038,43.5125295]},"properties":{"category":"compressed_air","osm_id":11280181120}},{"type":"Feature","geometry":{"type":"Point","coordinates":[1.3537562,43.5395263]},"properties":{"category":"repair","opening_hours":"24/7","osm_id":11435019131}},{"type":"Feature","geometry":{"type":"Point","coordinates":[1.3917803,43.5700249]},"properties":{"category":"repair","osm_id":11463337942}},{"type":"Feature","geometry":{"type":"Point","coordinates":[1.3454786,43.5357295]},"properties":{"category":"repair","osm_id":11589966812}},{"type":"Feature","geometry":{"type":"Point","coordinates":[1.3757749,43.5767159]},"properties":{"category":"repair","opening_hours":"24/7","osm_id":12817706877}},{"type":"Feature","geometry":{"type":"Point","coordinates":[1.3591,43.5882787]},"properties":{"category":"shop","name":"Le Rayon","opening_hours":"We 12:30-18:30","website":"https://www.mairie-tournefeuille.fr/actualite/le-rayon-une-nouvelle-structure-municipale-dediee-aux-mobilites-durables/","osm_id":13137999969}},{"type":"Feature","geometry":{"type":"Point","coordinates":[1.3772778,43.5766308]},"properties":{"category":"repair","opening_hours":"24/7","osm_id":13190778083}},{"type":"Feature","geometry":{"type":"Point","coordinates":[1.3907132,43.5633599]},"properties":{"category":"repair","osm_id":13437407108}},{"type":"Feature","geometry":{"type":"Point","coordinates":[1.3890359,43.5641997]},"properties":{"category":"repair","osm_id":13437407109}},{"type":"Feature","geometry":{"type":"Point","coordinates":[1.3890907,43.5643279]},"properties":{"category":"repair","osm_id":13437407110}},{"type":"Feature","geometry":{"type":"Point","coordinates":[1.3422368,43.5840509]},"properties":{"category":"shop","name":"Atelier Mamout Cycle","osm_id":13780997194}}]}