{"type":"FeatureCollection","features":[{"type":"Feature","geometry":{"type":"Point","coordinates":[3.3966178,43.5758486]},"properties":{"category":"bakery","osm_id":2195154965}},{"type":"Feature","geometry":{"type":"Point","coordinates":[3.3677938,43.5071775]},"properties":{"category":"bakery","name":"Ô Bon Caux-Pain","opening_hours":"We,Sa 06:30-12:30; Mo,Tu,Th,Fr,Su 06:30-12:30,16:30-19:30","phone":"+33 4 67 11 97 34","osm_id":5700035051}},{"type":"Feature","geometry":{"type":"Point","coordinates":[3.3681539,43.5067804]},"properties":{"category":"bakery","name":"Chez Pâti","opening_hours":"Tu-Fr 07:00-12:30,16:00-19:00; Sa-Su 07:00-12:00; PH 07:00-12:00","osm_id":12976814708}},{"type":"Feature","geometry":{"type":"Point","coordinates":[3.3799499,43.5398611]},"properties":{"category":"bakery","name":"Le Fournil de Fontès","opening_hours":"Tu-Sa 07:00-12:30, 17:30-19:30; Su 07:00-12:30; PH 07:00-12:30","phone":"+33 4 67 25 13 94","osm_id":14196982850}},{"type":"Feature","geometry":{"type":"Point","coordinates":[3.3329037,43.5342181]},"properties":{"category":"bakery","name":"Fournil Choff Marcel","opening_hours":"Mo-Tu 07:30-12:30, Th-Su 07:30-12:30; PH on","osm_id":14197260088}}]}