{"type":"FeatureCollection","features":[{"type":"Feature","geometry":{"type":"Point","coordinates":[3.8958358,43.5991233]},"properties":{"category":"shop","name":"Overwatt","opening_hours":"Tu-Sa 09:00-13:00,14:00-18:00","phone":"+33467220229","website":"https://montpellier.over-watt.fr","osm_id":4434225346}},{"type":"Feature","geometry":{"type":"Point","coordinates":[3.8448616,43.5826591]},"properties":{"category":"shop","name":"La Boutique du Vélo","phone":"+33 4 67 13 29 67","website":"https://www.boutiqueduvelo.com/","osm_id":4528089750}},{"type":"Feature","geometry":{"type":"Point","coordinates":[3.8460543,43.570897]},"properties":{"category":"compressed_air","osm_id":9610753055}},{"type":"Feature","geometry":{"type":"Point","coordinates":[3.8954687,43.5669719]},"properties":{"category":"shop","name":"SASU Vélo Sport","osm_id":11417009672}},{"type":"Feature","geometry":{"type":"Point","coordinates":[3.8898017,43.5990776]},"properties":{"category":"shop","name":"Infini Cycle","opening_hours":"Tu-Fr 10:00-13:00,14:00-18:30; Sa 10:00-18:00","website":"https://infini-cycle.fr","osm_id":12361718603}},{"type":"Feature","geometry":{"type":"Point","coordinates":[3.8842836,43.5121618]},"properties":{"category":"repair","osm_id":13609423602}},{"type":"Feature","geometry":{"type":"Point","coordinates":[3.8842987,43.5121611]},"properties":{"category":"repair","name":"Station de Réparation Vélo","osm_id":13703754526}}]}