{"type":"FeatureCollection","features":[{"type":"Feature","geometry":{"type":"Point","coordinates":[3.0820719,43.5952683]},"properties":{"category":"bakery","name":"Boulangerie Caumes","opening_hours":"PH,Mo-Su 06:30-13:00,16:00-19:00","osm_id":2590882535}},{"type":"Feature","geometry":{"type":"Point","coordinates":[3.0622874,43.5791888]},"properties":{"category":"shop","name":"Cyclable","opening_hours":"Mo-Sa 09:00-12:00, Mo,Tu,Th,Fr 14:00-18:30","osm_id":3398680047}},{"type":"Feature","geometry":{"type":"Point","coordinates":[3.0583364,43.5786213]},"properties":{"category":"bakery","name":"Patissier Boulanger Chocolatier Planes","opening_hours":"PH,Tu-Su 06:00-12:30","osm_id":8864974228}},{"type":"Feature","geometry":{"type":"Point","coordinates":[3.0802146,43.5878423]},"properties":{"category":"compressed_air","osm_id":9639494020}},{"type":"Feature","geometry":{"type":"Point","coordinates":[3.0825021,43.5884985]},"properties":{"category":"shop","osm_id":11098945105}},{"type":"Feature","geometry":{"type":"Point","coordinates":[3.0823584,43.5920823]},"properties":{"category":"bakery","name":"La Parisette","osm_id":11226892265}},{"type":"Feature","geometry":{"type":"Point","coordinates":[3.0753673,43.5085567]},"properties":{"category":"repair","opening_hours":"24/7","osm_id":13921044901}}]}