{"type":"FeatureCollection","features":[{"type":"Feature","geometry":{"type":"Point","coordinates":[5.0006537,43.579771]},"properties":{"category":"bakery","name":"Le Fournil de la Gare","opening_hours":"Tu-Sa 06:00-19:30, Su 06:00-19:00","phone":"+33 4 90 58 18 99","osm_id":3968483874}},{"type":"Feature","geometry":{"type":"Point","coordinates":[5.0321554,43.5500597]},"properties":{"category":"bakery","name":"Séverine et jean Michel","osm_id":5316120730}},{"type":"Feature","geometry":{"type":"Point","coordinates":[5.000136,43.5798087]},"properties":{"category":"bakery","osm_id":5774747556}},{"type":"Feature","geometry":{"type":"Point","coordinates":[5.005828,43.5997203]},"properties":{"category":"bakery","name":"Boulangerie Ange","opening_hours":"Mo-Sa 05:30-19:30; Su 07:00-13:30","phone":"+33 4 90 57 31 58","website":"https://www.boulangerie-ange.fr/stores/boulangerie-ange-miramas/","osm_id":6983605414}},{"type":"Feature","geometry":{"type":"Point","coordinates":[5.0340029,43.5501788]},"properties":{"category":"bakery","name":"Le Florentin","osm_id":8415076460}},{"type":"Feature","geometry":{"type":"Point","coordinates":[5.001504,43.5828665]},"properties":{"category":"bakery","name":"L'Art du Pain","osm_id":8938715364}},{"type":"Feature","geometry":{"type":"Point","coordinates":[5.0010303,43.5820996]},"properties":{"category":"bakery","name":"Boulangerie Jaune","osm_id":9631342907}},{"type":"Feature","geometry":{"type":"Point","coordinates":[5.0026765,43.5892587]},"properties":{"category":"bakery","osm_id":9720085856}},{"type":"Feature","geometry":{"type":"Point","coordinates":[5.0021213,43.5849557]},"properties":{"category":"bakery","name":"Le Coin Gourmand","osm_id":9774917828}},{"type":"Feature","geometry":{"type":"Point","coordinates":[5.0032984,43.5870467]},"properties":{"category":"bakery","name":"Le Pain D'epi","osm_id":9774917884}},{"type":"Feature","geometry":{"type":"Point","coordinates":[5.0325522,43.549347]},"properties":{"category":"bakery","name":"Boulangerie Pâtisserie Pontier","osm_id":9788837516}},{"type":"Feature","geometry":{"type":"Point","coordinates":[5.0325513,43.5484694]},"properties":{"category":"bakery","name":"Pizza chez Jérôme","osm_id":9788857817}},{"type":"Feature","geometry":{"type":"Point","coordinates":[5.0013629,43.5822475]},"properties":{"category":"bakery","osm_id":10755996349}},{"type":"Feature","geometry":{"type":"Point","coordinates":[5.040449,43.5509902]},"properties":{"category":"repair","osm_id":12785494083}}]}