{"type":"FeatureCollection","features":[{"type":"Feature","geometry":{"type":"Point","coordinates":[6.1802482,43.5671261]},"properties":{"category":"bakery","name":"Les Pins","osm_id":4621795290}},{"type":"Feature","geometry":{"type":"Point","coordinates":[6.1498901,43.5263795]},"properties":{"category":"bakery","osm_id":4621805261}},{"type":"Feature","geometry":{"type":"Point","coordinates":[6.1506861,43.5267072]},"properties":{"category":"bakery","name":"Le Fournil","phone":"+334 94 59 50 12","website":"https://lefournil-cotignac.com/","osm_id":6034984232}},{"type":"Feature","geometry":{"type":"Point","coordinates":[6.1490641,43.5289291]},"properties":{"category":"bakery","osm_id":6775054592}}]}