{"type":"FeatureCollection","features":[{"type":"Feature","geometry":{"type":"Point","coordinates":[5.2574656,43.5286112]},"properties":{"category":"bakery","name":"L'Artisan","phone":"+33 4 42 74 88 76","osm_id":1975131681}},{"type":"Feature","geometry":{"type":"Point","coordinates":[5.2709977,43.5413981]},"properties":{"category":"bakery","name":"L’Orge","opening_hours":"Mo-Sa 06:00-20:00; Su 06:00-19:00","phone":"+33 9 51 50 97 72","osm_id":6694507585}},{"type":"Feature","geometry":{"type":"Point","coordinates":[5.2606205,43.542205]},"properties":{"category":"bakery","name":"Le Fournil d'Isa","osm_id":7155913388}},{"type":"Feature","geometry":{"type":"Point","coordinates":[5.2550854,43.5339153]},"properties":{"category":"bakery","name":"L'atelier Antik","opening_hours":"Tu-Fr 05:30-20:30; Sa-Su 06:00-20:30","phone":"+33 4 65 94 91 95","osm_id":8214112447}},{"type":"Feature","geometry":{"type":"Point","coordinates":[5.2583583,43.5281648]},"properties":{"category":"compressed_air","osm_id":9556064694}},{"type":"Feature","geometry":{"type":"Point","coordinates":[5.2536549,43.5226596]},"properties":{"category":"bakery","name":"L'Atelier d'Olivier","phone":"+33 4 13 41 89 22","osm_id":12315758170}},{"type":"Feature","geometry":{"type":"Point","coordinates":[5.231813,43.5164743]},"properties":{"category":"bakery","name":"La Fournée Paysanne","opening_hours":"Tu,Th,Fr 10:30-13:00","phone":"+33 6 62 74 29 31","osm_id":12361582602}},{"type":"Feature","geometry":{"type":"Point","coordinates":[5.2006431,43.5189965]},"properties":{"category":"bakery","name":"B Comme Boulangerie","osm_id":13964547328}}]}