{"type":"FeatureCollection","features":[{"type":"Feature","geometry":{"type":"Point","coordinates":[6.2433694,43.5145832]},"properties":{"category":"bakery","name":"Josephine","osm_id":3665639228}},{"type":"Feature","geometry":{"type":"Point","coordinates":[6.2317948,43.5636534]},"properties":{"category":"bakery","name":"Au Pain Quotidien","osm_id":5624493791}},{"type":"Feature","geometry":{"type":"Point","coordinates":[6.2330483,43.5637491]},"properties":{"category":"bakery","name":"Au Moulin de Pierre","osm_id":5624493817}},{"type":"Feature","geometry":{"type":"Point","coordinates":[6.27561,43.5823878]},"properties":{"category":"bakery","name":"Le Pain Doré","opening_hours":"Mo-Su 07:00-12:45","phone":"+33 4 94 76 89 45","osm_id":8177441525}}]}