{"type":"FeatureCollection","features":[{"type":"Feature","geometry":{"type":"Point","coordinates":[6.0118465,43.566029]},"properties":{"category":"compressed_air","opening_hours":"24/7","osm_id":1878581138}},{"type":"Feature","geometry":{"type":"Point","coordinates":[6.0062435,43.557457]},"properties":{"category":"bakery","name":"Boulangerie Gervasoni","osm_id":2293891256}},{"type":"Feature","geometry":{"type":"Point","coordinates":[6.0085988,43.5629741]},"properties":{"category":"bakery","name":"Gervasoni et fils","osm_id":6772934035}},{"type":"Feature","geometry":{"type":"Point","coordinates":[6.0918541,43.5907946]},"properties":{"category":"bakery","osm_id":11382256989}},{"type":"Feature","geometry":{"type":"Point","coordinates":[6.0167046,43.5933458]},"properties":{"category":"bakery","osm_id":13716717641}}]}