{"type":"FeatureCollection","features":[{"type":"Feature","geometry":{"type":"Point","coordinates":[3.1987256,43.5205017]},"properties":{"category":"bakery","name":"Le Fournil Laurentien","osm_id":2792725509}},{"type":"Feature","geometry":{"type":"Point","coordinates":[3.1815622,43.5613185]},"properties":{"category":"bakery","name":"L'Arbre à Pains","opening_hours":"Mo,We,Fr 08:00-18:00; Tu,Th,Sa 08:00-13:00","phone":"+33 4 67 97 78 25","website":"https://www.larbreapains-faugeres.fr/","osm_id":6205243690}},{"type":"Feature","geometry":{"type":"Point","coordinates":[3.1155644,43.5927753]},"properties":{"category":"bakery","name":"La Pétrie","osm_id":9037268370}},{"type":"Feature","geometry":{"type":"Point","coordinates":[3.1391651,43.5978731]},"properties":{"category":"bakery","name":"Boulangerie Pâtisserie Chocolaterie Chez Vivien et Rébécca","osm_id":9232476418}},{"type":"Feature","geometry":{"type":"Point","coordinates":[3.1122493,43.594756]},"properties":{"category":"compressed_air","osm_id":9637165745}},{"type":"Feature","geometry":{"type":"Point","coordinates":[3.1161941,43.5926069]},"properties":{"category":"bakery","name":"Boutinaud Didier","osm_id":12529706634}}]}