{"type":"FeatureCollection","features":[{"type":"Feature","geometry":{"type":"Point","coordinates":[3.9202618,43.5857988]},"properties":{"category":"shop","name":"Cycles SH","phone":"+33 9 83 21 76 21","website":"https://www.shcycles.fr/","osm_id":1944530149}},{"type":"Feature","geometry":{"type":"Point","coordinates":[3.9335802,43.5843294]},"properties":{"category":"shop","name":"Cycling Montpellier","phone":"+33 4 67 22 23 99","website":"https://www.culturevelo.com/-Montpellier-","osm_id":2195803117}},{"type":"Feature","geometry":{"type":"Point","coordinates":[3.9084831,43.5999862]},"properties":{"category":"shop","name":"M'Vélo","opening_hours":"Mo-Fr 10:00-19:00; Sa 10:00-12:30,14:00-17:00","phone":"+33 9 73 45 23 23","website":"https://www.mvelo.fr/","osm_id":3285721262}},{"type":"Feature","geometry":{"type":"Point","coordinates":[3.9398735,43.5307524]},"properties":{"category":"shop","name":"Cycloloc","osm_id":3757608330}},{"type":"Feature","geometry":{"type":"Point","coordinates":[3.9359094,43.5892283]},"properties":{"category":"shop","name":"BMX Avenue","opening_hours":"Tu-Sa 10:00-13:00,14:00-18:00","phone":"+33 4 67 73 22 36","website":"https://www.bmxavenue.com","osm_id":3834399059}},{"type":"Feature","geometry":{"type":"Point","coordinates":[3.9412141,43.5828573]},"properties":{"category":"shop","name":"Rêve de vélo","opening_hours":"Tu-Sa 10:00-19:00","phone":"+33 4 67 27 87 72","website":"https://www.revedevelo.com/","osm_id":4391554026}},{"type":"Feature","geometry":{"type":"Point","coordinates":[3.9406178,43.5902739]},"properties":{"category":"shop","name":"Ovelo","opening_hours":"Tu-Sa 10:00-19:00","phone":"+33 4 67 68 71 23","website":"https://www.ovelo.fr/","osm_id":9542965499}},{"type":"Feature","geometry":{"type":"Point","coordinates":[3.9396778,43.5743454]},"properties":{"category":"shop","name":"Giant","opening_hours":"Tu-Sa 10:00-13:00,14:00-19:00","phone":"+33 4 67 50 40 20","website":"https://www.giant-montpellier-perols.fr","osm_id":9631536768}},{"type":"Feature","geometry":{"type":"Point","coordinates":[3.9399807,43.5744387]},"properties":{"category":"shop","name":"E Grim","opening_hours":"Tu-Sa 10:00-13:00,14:00-19:00","phone":"+33 4 67 50 48 18","website":"https://www.e-grim-store.com","osm_id":9631536769}},{"type":"Feature","geometry":{"type":"Point","coordinates":[3.939586,43.5744639]},"properties":{"category":"shop","name":"Giant","opening_hours":"Tu-Sa 10:00-13:00, 14:00-19:00","osm_id":9687406040}},{"type":"Feature","geometry":{"type":"Point","coordinates":[3.9343662,43.5354727]},"properties":{"category":"repair","opening_hours":"24/7","osm_id":10575459053}},{"type":"Feature","geometry":{"type":"Point","coordinates":[3.918924,43.5849415]},"properties":{"category":"shop","name":"SACO Vélo","website":"https://sacovelo.fr/","osm_id":11582722271}},{"type":"Feature","geometry":{"type":"Point","coordinates":[3.9370295,43.5927889]},"properties":{"category":"shop","name":"Mondovélo","opening_hours":"Tu-Sa 09:30-12:30,14:00-19:00","phone":"+33 4 22 59 00 86","website":"https://montpellier-lattes.mondovelo.fr","osm_id":12373398869}}]}