{"type":"FeatureCollection","features":[{"type":"Feature","geometry":{"type":"Point","coordinates":[2.7989956,43.6064503]},"properties":{"category":"bakery","name":"Boulangerie-Épicerie Tarolle","osm_id":1623847915}},{"type":"Feature","geometry":{"type":"Point","coordinates":[2.7024919,43.6020553]},"properties":{"category":"bakery","opening_hours":"Tu-Sa 07:00-12:30","osm_id":1853388812}},{"type":"Feature","geometry":{"type":"Point","coordinates":[2.7043117,43.6008444]},"properties":{"category":"bakery","name":"Flipo (pâtisserie)","osm_id":3479228701}},{"type":"Feature","geometry":{"type":"Point","coordinates":[2.703386,43.6008206]},"properties":{"category":"bakery","osm_id":3746332463}},{"type":"Feature","geometry":{"type":"Point","coordinates":[2.7071081,43.6008768]},"properties":{"category":"repair","opening_hours":"24/7","osm_id":12231177068}}]}