{"type":"FeatureCollection","features":[{"type":"Feature","geometry":{"type":"Point","coordinates":[4.2763471,43.6898641]},"properties":{"category":"shop","name":"Le Barjonaute","website":"http://lebarjonaute.com","osm_id":2383646803}},{"type":"Feature","geometry":{"type":"Point","coordinates":[4.2968421,43.6424482]},"properties":{"category":"bakery","osm_id":2383646820}},{"type":"Feature","geometry":{"type":"Point","coordinates":[4.2092189,43.685398]},"properties":{"category":"bakery","name":"Le Pain de nos Ancêtres","osm_id":3417491452}},{"type":"Feature","geometry":{"type":"Point","coordinates":[4.2082067,43.684475]},"properties":{"category":"bakery","osm_id":3417491453}},{"type":"Feature","geometry":{"type":"Point","coordinates":[4.2008223,43.692168]},"properties":{"category":"bakery","name":"Boulangeries Gilles A. S.A.R.L","osm_id":5844754567}},{"type":"Feature","geometry":{"type":"Point","coordinates":[4.2020031,43.6931427]},"properties":{"category":"compressed_air","osm_id":7296820645}},{"type":"Feature","geometry":{"type":"Point","coordinates":[4.2370925,43.6744087]},"properties":{"category":"bakery","name":"Boulangerie La Tradition","opening_hours":"Mo-Sa 06:30-12:30,16:30-19:30; Su 06:30-12:30","phone":"+33 4 66 88 02 08","osm_id":8432670128}},{"type":"Feature","geometry":{"type":"Point","coordinates":[4.2775905,43.6964282]},"properties":{"category":"bakery","name":"Boulangerie Pâtisserie \"David & Cathy\"","osm_id":10811325548}},{"type":"Feature","geometry":{"type":"Point","coordinates":[4.2750692,43.6927761]},"properties":{"category":"bakery","name":"Les délices de Camargue","opening_hours":"Mo-Su 09:00-19:00","osm_id":11919663569}}]}