{"type":"FeatureCollection","features":[{"type":"Feature","geometry":{"type":"Point","coordinates":[5.1139402,43.628475]},"properties":{"category":"bakery","name":"Marie Blachère","osm_id":363834117}},{"type":"Feature","geometry":{"type":"Point","coordinates":[5.1383397,43.6304957]},"properties":{"category":"bakery","name":"Marie Blachère","website":"https://boulangeries.marieblachere.com/Pelisanne","osm_id":3165761839}},{"type":"Feature","geometry":{"type":"Point","coordinates":[5.1470416,43.6309414]},"properties":{"category":"bakery","name":"Les douceurs de Maya","phone":"+33 4 90 58 19 32","osm_id":4051031217}},{"type":"Feature","geometry":{"type":"Point","coordinates":[5.170232,43.6853893]},"properties":{"category":"repair","osm_id":12310142124}},{"type":"Feature","geometry":{"type":"Point","coordinates":[5.1011848,43.6473298]},"properties":{"category":"bakery","name":"Boulangerie Ange","opening_hours":"Mo-Sa 06:30-20:00","website":"https://www.boulangerie-ange.fr/stores/boulangerie-ange-salon-de-provence/","osm_id":12351827694}},{"type":"Feature","geometry":{"type":"Point","coordinates":[5.1363706,43.6301799]},"properties":{"category":"bakery","name":"Boulangerie Ange","osm_id":12691482457}},{"type":"Feature","geometry":{"type":"Point","coordinates":[5.1022497,43.6302084]},"properties":{"category":"shop","name":"Aprovel","opening_hours":"Tu 17:30-19:00","osm_id":13176909423}},{"type":"Feature","geometry":{"type":"Point","coordinates":[5.1534511,43.6285067]},"properties":{"category":"repair","osm_id":13791187583}}]}