{"type":"FeatureCollection","features":[{"type":"Feature","geometry":{"type":"Point","coordinates":[4.8051007,43.6336526]},"properties":{"category":"shop","name":"Alpilles Cycles","phone":"+33 4 90 47 29 09","website":"https://www.facebook.com/Alpilles-cycles-732878533546451/","osm_id":6135718227}},{"type":"Feature","geometry":{"type":"Point","coordinates":[4.8002196,43.6226598]},"properties":{"category":"repair","osm_id":12785460296}},{"type":"Feature","geometry":{"type":"Point","coordinates":[4.814618,43.6389016]},"properties":{"category":"repair","osm_id":13790154207}}]}