{"type":"FeatureCollection","features":[{"type":"Feature","geometry":{"type":"Point","coordinates":[-0.9927647,43.6096368]},"properties":{"category":"bakery","name":"Maison Defesche","opening_hours":"Tu-Fr 06:30-13:00,16:30-19:30; Sa,Su 06:30-13:00","phone":"+33 5 58 98 39 87","osm_id":8227684088}},{"type":"Feature","geometry":{"type":"Point","coordinates":[-0.9009841,43.6614193]},"properties":{"category":"bakery","name":"Aux Grains de la Ferme","phone":"+33 6 61 13 36 88","osm_id":12729693181}},{"type":"Feature","geometry":{"type":"Point","coordinates":[-0.9965177,43.6047778]},"properties":{"category":"bakery","name":"Au Fournil des Filles","opening_hours":"Mo,Tu,Fr,Sa 07:00-13:00,16:00-19:00; We 07:00-13:00; Su 07:30-13:00","phone":"+33 5 58 42 33 35","osm_id":13372119198}}]}