{"type":"FeatureCollection","features":[{"type":"Feature","geometry":{"type":"Point","coordinates":[-0.3768578,43.6971782]},"properties":{"category":"bakery","name":"Maison Decerf","opening_hours":"Tu-Sa 07:00-12:30,15:30-19:00; Su 07:00-12:30","phone":"+33 6 69 64 48 43","osm_id":8032603410}},{"type":"Feature","geometry":{"type":"Point","coordinates":[-0.3785558,43.6405712]},"properties":{"category":"bakery","name":"Boulangerie Ducousso","opening_hours":"Tu 07:30-13:00,17:00-21:00; We-Su 07:00-17:00","phone":"+33 5 58 44 53 54","osm_id":10219908305}}]}