{"type":"FeatureCollection","features":[{"type":"Feature","geometry":{"type":"Point","coordinates":[-0.5941974,43.6533689]},"properties":{"category":"bakery","name":"Coudroy","opening_hours":"Tu-Sa 06:30-20:00; Su 06:30-13:00","phone":"+33 5 58 79 31 26","osm_id":8408703943}},{"type":"Feature","geometry":{"type":"Point","coordinates":[-0.5946164,43.6562763]},"properties":{"category":"bakery","name":"Boulangerie Pâtisserie Burgaudeau","opening_hours":"Mo 07:00-19:30; Tu-Sa 06:00-13:00,14:30-19:30; Su 06:00-13:00","phone":"+33 5 58 79 58 69","website":"https://boulangerie-patisserie-traiteur-burgaudeau.fr/","osm_id":9675125774}}]}