{"type":"FeatureCollection","features":[{"type":"Feature","geometry":{"type":"Point","coordinates":[3.5814106,43.6822803]},"properties":{"category":"bakery","name":"Maison Thailhades","osm_id":833281187}},{"type":"Feature","geometry":{"type":"Point","coordinates":[3.5033154,43.6501263]},"properties":{"category":"bakery","name":"Le Fournil de Pauline","opening_hours":"Mo-Su 06:00-19:30","phone":"+33 4 67 63 56 02","website":"https://lefournildepauline.wixsite.com/lefournildepauline/patisserie","osm_id":833478678}},{"type":"Feature","geometry":{"type":"Point","coordinates":[3.5854666,43.6854291]},"properties":{"category":"bakery","name":"Christelle et Olivier","osm_id":846571558}},{"type":"Feature","geometry":{"type":"Point","coordinates":[3.5883735,43.683712]},"properties":{"category":"bakery","name":"Le Saint-Benoit","osm_id":1396034449}},{"type":"Feature","geometry":{"type":"Point","coordinates":[3.5866075,43.6854342]},"properties":{"category":"bakery","name":"O Co'Pains","osm_id":1396049146}},{"type":"Feature","geometry":{"type":"Point","coordinates":[3.551909,43.6525789]},"properties":{"category":"bakery","osm_id":1723385226}},{"type":"Feature","geometry":{"type":"Point","coordinates":[3.5538129,43.6518727]},"properties":{"category":"bakery","name":"Ma Mie Adorée","opening_hours":"Mo-Su 06:00-20:00","phone":"+33 4 99 66 91 56","osm_id":2300147081}},{"type":"Feature","geometry":{"type":"Point","coordinates":[3.5517673,43.6527439]},"properties":{"category":"shop","name":"Pro Rider 34","osm_id":3738775630}},{"type":"Feature","geometry":{"type":"Point","coordinates":[3.5527926,43.6531441]},"properties":{"category":"bakery","name":"La Pétrie","opening_hours":"Mo-We,Fr 06:00-13:00,16:00-19:30; Sa 06:00-13:00,15:30-19:30; Su 06:00-13:00","osm_id":3738795993}},{"type":"Feature","geometry":{"type":"Point","coordinates":[3.5422843,43.6527415]},"properties":{"category":"shop","osm_id":3739179263}},{"type":"Feature","geometry":{"type":"Point","coordinates":[3.5825622,43.6831388]},"properties":{"category":"bakery","osm_id":4885607149}},{"type":"Feature","geometry":{"type":"Point","coordinates":[3.5444664,43.6511314]},"properties":{"category":"bakery","name":"Boulangerie Gaëlle","opening_hours":"Mo-Sa 06:30-19:30; Su 07:00-13:00","phone":"+33 4 67 60 43 41","osm_id":5281687400}},{"type":"Feature","geometry":{"type":"Point","coordinates":[3.5767485,43.682621]},"properties":{"category":"bakery","name":"Boulangerie Gaëlle","osm_id":9963859268}},{"type":"Feature","geometry":{"type":"Point","coordinates":[3.5125816,43.6179059]},"properties":{"category":"bakery","name":"Festival des Pains","osm_id":11423768398}},{"type":"Feature","geometry":{"type":"Point","coordinates":[3.5025297,43.649264]},"properties":{"category":"bakery","name":"Le Galo'Pain","osm_id":12797557281}},{"type":"Feature","geometry":{"type":"Point","coordinates":[3.5104188,43.650684]},"properties":{"category":"bakery","name":"Ma Mie Adorée","opening_hours":"Mo-Su 06:00-20:00","phone":"+33 4 67 27 10 30","osm_id":12798327831}},{"type":"Feature","geometry":{"type":"Point","coordinates":[3.5029794,43.6493686]},"properties":{"category":"bakery","name":"Le Gonis","osm_id":12801823968}},{"type":"Feature","geometry":{"type":"Point","coordinates":[3.5561549,43.6559364]},"properties":{"category":"bakery","name":"Boulangerie 211","opening_hours":"Tu, Th 10:00-13:30, 16:00-19:00; Sa 09:00-13:30, 15:30-19:00","osm_id":14023773901}}]}