{"type":"FeatureCollection","features":[{"type":"Feature","geometry":{"type":"Point","coordinates":[4.6271914,43.6761207]},"properties":{"category":"bakery","name":"Maison Soulier","opening_hours":"Mo-Fr 06:30-20:00; Sa 06:00-20:00; Su 07:00-19:00","phone":"+33 4 90 96 09 30","website":"https://www.maisonsoulierboulangerie.fr/","osm_id":1030016486}},{"type":"Feature","geometry":{"type":"Point","coordinates":[4.6393301,43.6938105]},"properties":{"category":"bakery","name":"Marie Blachère","opening_hours":"Mo-Sa 07:00-19:30","phone":"+33 4 90 93 77 65","website":"https://boulangeries.marieblachere.com/fr/france-FR/5010/marie-blachere-arles/details","osm_id":2152051986}},{"type":"Feature","geometry":{"type":"Point","coordinates":[4.6313065,43.6802895]},"properties":{"category":"bakery","name":"Festival des Pains","opening_hours":"Mo-Su 06:00-19:30; Th off","osm_id":3245314373}},{"type":"Feature","geometry":{"type":"Point","coordinates":[4.6493561,43.6631967]},"properties":{"category":"bakery","name":"Jean Dit Talon","opening_hours":"Mo-Su 06:00-20:00; We off","phone":"+33 4 90 54 17 11","osm_id":3248061247}},{"type":"Feature","geometry":{"type":"Point","coordinates":[4.6193263,43.6794812]},"properties":{"category":"bakery","name":"Laurent Collin","osm_id":3271013230}},{"type":"Feature","geometry":{"type":"Point","coordinates":[4.6155834,43.6815291]},"properties":{"category":"bakery","name":"Boulangerie Patisserie","osm_id":3271013231}},{"type":"Feature","geometry":{"type":"Point","coordinates":[4.6385333,43.6747223]},"properties":{"category":"bakery","name":"Le Fournil des Ateliers","opening_hours":"Mo-Sa 06:30-13:30,15:30-19:00","phone":"+33 6 13 29 12 93","website":"https://www.lefournildesateliers.fr/","osm_id":4436580134}},{"type":"Feature","geometry":{"type":"Point","coordinates":[4.646002,43.6656106]},"properties":{"category":"bakery","name":"L'atelier Antik","opening_hours":"Mo-Su 05:30-20:30","osm_id":4648271296}},{"type":"Feature","geometry":{"type":"Point","coordinates":[4.6266297,43.6778396]},"properties":{"category":"bakery","name":"Maitres Patissiers Poudevigne","opening_hours":"Tu-Sa 07:00-19:00","phone":"+33 4 90 96 03 72","website":"https://www.facebook.com/pg/patisserieduforum/about/?ref=page_internal","osm_id":5131089221}},{"type":"Feature","geometry":{"type":"Point","coordinates":[4.6386744,43.6641843]},"properties":{"category":"bakery","name":"Marie Blachère","opening_hours":"Mo-Sa 06:30-19:30","phone":"+33 4 90 43 64 51","website":"https://boulangeries.marieblachere.com/fr/france-FR/5071/marie-blachere-arles-fourchon/details","osm_id":5685841548}},{"type":"Feature","geometry":{"type":"Point","coordinates":[4.6063628,43.6780455]},"properties":{"category":"bakery","name":"Boulangerie Ange","osm_id":5982762707}},{"type":"Feature","geometry":{"type":"Point","coordinates":[4.6342446,43.6670194]},"properties":{"category":"shop","name":"La Petite Reine d'Arles","phone":"+33 4 90 49 94 02","osm_id":6123305771}},{"type":"Feature","geometry":{"type":"Point","coordinates":[4.631095,43.6847666]},"properties":{"category":"shop","name":"Taco & Co","website":"https://www.tacoandco.fr","osm_id":6418396573}},{"type":"Feature","geometry":{"type":"Point","coordinates":[4.6521883,43.6612851]},"properties":{"category":"bakery","name":"Les Fromentiers","osm_id":7080623258}},{"type":"Feature","geometry":{"type":"Point","coordinates":[4.6381538,43.6862628]},"properties":{"category":"shop","name":"Veloc'Arles","osm_id":7512878102}},{"type":"Feature","geometry":{"type":"Point","coordinates":[4.6423003,43.6987709]},"properties":{"category":"bakery","osm_id":7758087703}},{"type":"Feature","geometry":{"type":"Point","coordinates":[4.6323805,43.6824217]},"properties":{"category":"bakery","name":"La Panetiere","osm_id":7836754560}},{"type":"Feature","geometry":{"type":"Point","coordinates":[4.6939295,43.6482691]},"properties":{"category":"bakery","name":"L'Insolite","opening_hours":"Tu-Fr 06:30-19:00; PH,Sa,Su 06:30-13:00","osm_id":8228691396}},{"type":"Feature","geometry":{"type":"Point","coordinates":[4.634993,43.6750496]},"properties":{"category":"bakery","name":"Boulangerie Biocoop","opening_hours":"Tu-Sa 07:30-19:00","phone":"+33 4 90 54 21 24","website":"https://www.biocoop-arelate.fr/","osm_id":9157331295}},{"type":"Feature","geometry":{"type":"Point","coordinates":[4.6342479,43.6750914]},"properties":{"category":"bakery","name":"La Ronde des Pains","osm_id":9236048113}},{"type":"Feature","geometry":{"type":"Point","coordinates":[4.6108127,43.693113]},"properties":{"category":"bakery","osm_id":11069678801}},{"type":"Feature","geometry":{"type":"Point","coordinates":[4.6492365,43.6632621]},"properties":{"category":"shop","name":"Deltata Ride MTB","phone":"+33 6 25 07 82 81","website":"https://www.deltaridemtb.com/","osm_id":11302932354}},{"type":"Feature","geometry":{"type":"Point","coordinates":[4.6281931,43.6721932]},"properties":{"category":"bakery","name":"Maison Soulier","opening_hours":"Mo-Su 06:30-13:00","phone":"+33 4 90 54 76 96","website":"https://www.maisonsoulier.fr/","osm_id":11930051752}},{"type":"Feature","geometry":{"type":"Point","coordinates":[4.6319655,43.6850212]},"properties":{"category":"repair","osm_id":12556239177}},{"type":"Feature","geometry":{"type":"Point","coordinates":[4.6275926,43.6748288]},"properties":{"category":"repair","osm_id":12707841874}},{"type":"Feature","geometry":{"type":"Point","coordinates":[4.6371547,43.6906997]},"properties":{"category":"compressed_air","osm_id":13165991830}},{"type":"Feature","geometry":{"type":"Point","coordinates":[4.6345955,43.6677577]},"properties":{"category":"compressed_air","osm_id":13267263057}},{"type":"Feature","geometry":{"type":"Point","coordinates":[4.651499,43.6629951]},"properties":{"category":"repair","opening_hours":"24/7","osm_id":13338616011}},{"type":"Feature","geometry":{"type":"Point","coordinates":[4.6225814,43.6751966]},"properties":{"category":"bakery","name":"Le Fournil de la Roquette","opening_hours":"Fr-Tu 06:00-18:50","osm_id":13359991958}}]}