{"type":"FeatureCollection","features":[{"type":"Feature","geometry":{"type":"Point","coordinates":[-1.2291681,43.68737]},"properties":{"category":"bakery","name":"Le fournil de Saint-Geours","opening_hours":"Mo-Sa 06:15-13:30,15:30-20:00; Su 07:00-13:30","phone":"+33 5 58 57 31 57","website":"https://www.boulangerie-patisserie-pizzeria-landes.fr/patisserie-saint-geours-maremne","osm_id":5367730821}},{"type":"Feature","geometry":{"type":"Point","coordinates":[-1.2283829,43.6873895]},"properties":{"category":"bakery","name":"Au Pastis Landais","opening_hours":"Tu-Su 05:30-20:15","osm_id":7364803626}},{"type":"Feature","geometry":{"type":"Point","coordinates":[-1.2353081,43.6400588]},"properties":{"category":"bakery","name":"La boulange de Josse","osm_id":9838713219}},{"type":"Feature","geometry":{"type":"Point","coordinates":[-1.2802054,43.6640379]},"properties":{"category":"bakery","name":"Des idées gourmandes","osm_id":9840921488}},{"type":"Feature","geometry":{"type":"Point","coordinates":[-1.2822949,43.6684829]},"properties":{"category":"bakery","name":"La mie de pain","phone":"+33 5 58 41 96 85","osm_id":9841385521}},{"type":"Feature","geometry":{"type":"Point","coordinates":[-1.2867886,43.6666401]},"properties":{"category":"compressed_air","osm_id":11133645875}}]}