{"type":"FeatureCollection","features":[{"type":"Feature","geometry":{"type":"Point","coordinates":[3.7978085,43.6478161]},"properties":{"category":"bakery","name":"Julien Michel","opening_hours":"Tu-Sa 06:30-13:30,16:00-19:30; Su 06:30-13:00","phone":"+33 4 67 75 33 89","website":"https://julien-michel.com/","osm_id":500193900}},{"type":"Feature","geometry":{"type":"Point","coordinates":[3.7990916,43.6269221]},"properties":{"category":"bakery","name":"Les Saveurs du Golf","osm_id":3850532177}},{"type":"Feature","geometry":{"type":"Point","coordinates":[3.7820371,43.6105419]},"properties":{"category":"bakery","name":"Aux Plaisirs de St Georges","opening_hours":"Tu-Sa 06:00-13:30,15:30-19:30; Su 06:00-13:00","phone":"+33 4 67 75 22 42","osm_id":4038563445}},{"type":"Feature","geometry":{"type":"Point","coordinates":[3.7842742,43.6102403]},"properties":{"category":"bakery","name":"L'Artisan","opening_hours":"Mo,Tu,Th,Fr 06:30-13:00,16:00-19:30, Sa,Su 07:00-13:00, Sa 16:00-19:30","phone":"+33467452039","osm_id":4038587840}},{"type":"Feature","geometry":{"type":"Point","coordinates":[3.7367259,43.6054244]},"properties":{"category":"bakery","name":"Le Mille Feuille","opening_hours":"Mo-Su 08:00-13:00, 14:00-19:30","osm_id":4203991190}},{"type":"Feature","geometry":{"type":"Point","coordinates":[3.7968986,43.64832]},"properties":{"category":"shop","name":"Basaltwheels","opening_hours":"Mo,Tu,Th 08:30-12:00,14:00-18:00; Fr 08:30-12:00","phone":"+33 6 01 15 08 30","website":"https://www.basaltwheels.com/","osm_id":4248181957}},{"type":"Feature","geometry":{"type":"Point","coordinates":[3.7854894,43.6077038]},"properties":{"category":"bakery","name":"La Mie Adorée","osm_id":6691044288}},{"type":"Feature","geometry":{"type":"Point","coordinates":[3.7212328,43.6687486]},"properties":{"category":"bakery","name":"Boulangerie Marie Fabregat","osm_id":11288712175}}]}