{"type":"FeatureCollection","features":[{"type":"Feature","geometry":{"type":"Point","coordinates":[7.1235863,43.605705]},"properties":{"category":"shop","name":"Antibes Cycles","opening_hours":"Mo-We,Fr-Sa 08:30-12:30,14:00-18:00; Th 14:00-18:00; PH off","phone":"+33 4 93 61 27 33","website":"https://antibescycles.weebly.com/","osm_id":747441260}},{"type":"Feature","geometry":{"type":"Point","coordinates":[7.1938427,43.6593607]},"properties":{"category":"shop","name":"SPOC","phone":"+33 4 93 07 40 44","osm_id":2691006383}},{"type":"Feature","geometry":{"type":"Point","coordinates":[7.1684097,43.6579716]},"properties":{"category":"shop","name":"Bikes'n'Stars","osm_id":2695056350}},{"type":"Feature","geometry":{"type":"Point","coordinates":[7.1448696,43.6571489]},"properties":{"category":"shop","name":"La Roue Libre Cagnes","opening_hours":"Mo 14:30-19:00; Tu-Sa 08:30-12:00,14:30-19:00","phone":"+33 9 80 89 49 84","website":"https://www.larouelibre.fr","osm_id":2695056361}},{"type":"Feature","geometry":{"type":"Point","coordinates":[7.1934716,43.6622674]},"properties":{"category":"shop","name":"Leader Cycles","osm_id":5208097105}},{"type":"Feature","geometry":{"type":"Point","coordinates":[7.1349821,43.6307287]},"properties":{"category":"repair","opening_hours":"24/7","osm_id":7822876938}},{"type":"Feature","geometry":{"type":"Point","coordinates":[7.1479759,43.6597473]},"properties":{"category":"repair","osm_id":8176486366}},{"type":"Feature","geometry":{"type":"Point","coordinates":[7.122638,43.6739777]},"properties":{"category":"compressed_air","osm_id":8960958334}},{"type":"Feature","geometry":{"type":"Point","coordinates":[7.1509968,43.6496874]},"properties":{"category":"repair","opening_hours":"24/7","osm_id":10225201453}},{"type":"Feature","geometry":{"type":"Point","coordinates":[7.1788022,43.656466]},"properties":{"category":"repair","opening_hours":"24/7","osm_id":10238822777}},{"type":"Feature","geometry":{"type":"Point","coordinates":[7.1539815,43.6557694]},"properties":{"category":"repair","opening_hours":"24/7","osm_id":10238822778}},{"type":"Feature","geometry":{"type":"Point","coordinates":[7.1950397,43.6601157]},"properties":{"category":"repair","osm_id":10841426179}},{"type":"Feature","geometry":{"type":"Point","coordinates":[7.1893106,43.682685]},"properties":{"category":"repair","osm_id":11462401636}},{"type":"Feature","geometry":{"type":"Point","coordinates":[7.1482754,43.6586312]},"properties":{"category":"repair","opening_hours":"24/7","osm_id":11491144774}},{"type":"Feature","geometry":{"type":"Point","coordinates":[7.1922462,43.6683678]},"properties":{"category":"repair","osm_id":11521623678}},{"type":"Feature","geometry":{"type":"Point","coordinates":[7.1349913,43.6307375]},"properties":{"category":"compressed_air","osm_id":12656255650,"has_compressed_air":true}},{"type":"Feature","geometry":{"type":"Point","coordinates":[7.1676109,43.6605356]},"properties":{"category":"repair","osm_id":12786137331}},{"type":"Feature","geometry":{"type":"Point","coordinates":[7.1341163,43.6297743]},"properties":{"category":"repair","osm_id":12786137333}},{"type":"Feature","geometry":{"type":"Point","coordinates":[7.1263566,43.611525]},"properties":{"category":"repair","osm_id":12786137339}},{"type":"Feature","geometry":{"type":"Point","coordinates":[7.1996088,43.6744787]},"properties":{"category":"repair","osm_id":13020426167}},{"type":"Feature","geometry":{"type":"Point","coordinates":[7.1923254,43.6588757]},"properties":{"category":"shop","name":"Spoc","opening_hours":"Mo 14:00-19:00; Tu-Sa 09:30-19:00","phone":"+33493074044","website":"https://spoc.fr/","osm_id":13534510919}},{"type":"Feature","geometry":{"type":"Point","coordinates":[7.1197559,43.6474545]},"properties":{"category":"repair","osm_id":13572300118}},{"type":"Feature","geometry":{"type":"Point","coordinates":[7.1222256,43.6454999]},"properties":{"category":"repair","osm_id":13572300121}},{"type":"Feature","geometry":{"type":"Point","coordinates":[7.1687274,43.6576658]},"properties":{"category":"repair","opening_hours":"24/7","osm_id":13580257476}},{"type":"Feature","geometry":{"type":"Point","coordinates":[7.1300486,43.66392]},"properties":{"category":"repair","opening_hours":"24/7","osm_id":13580257477}},{"type":"Feature","geometry":{"type":"Point","coordinates":[7.1460802,43.6448353]},"properties":{"category":"repair","opening_hours":"24/7","osm_id":13584252339}},{"type":"Feature","geometry":{"type":"Point","coordinates":[7.1659102,43.6689942]},"properties":{"category":"repair","opening_hours":"24/7","osm_id":13611393651}},{"type":"Feature","geometry":{"type":"Point","coordinates":[7.1912773,43.6737666]},"properties":{"category":"repair","osm_id":13820540199}}]}