{"type":"FeatureCollection","features":[{"type":"Feature","geometry":{"type":"Point","coordinates":[0.04527,43.6054799]},"properties":{"category":"bakery","name":"Délices Gascon","phone":"+33 5 62095427","osm_id":4358922548}},{"type":"Feature","geometry":{"type":"Point","coordinates":[0.0486227,43.6047312]},"properties":{"category":"bakery","name":"Ruis","phone":"+33 5 62693031","osm_id":4781769606}},{"type":"Feature","geometry":{"type":"Point","coordinates":[0.0421436,43.6011646]},"properties":{"category":"compressed_air","osm_id":13810330381}}]}