{"type":"FeatureCollection","features":[{"type":"Feature","geometry":{"type":"Point","coordinates":[-1.4280912,43.6597846]},"properties":{"category":"shop","name":"Cycles Lannemajou","opening_hours":"May-Sep Mo-Sa 09:00-12:30,14:15-19:00; May-Sep Su 10:00-13:00,15:00-19:00; Oct-Apr Mo,Su off; Oct-Apr Tu-Sa 09:00-12:15,14:15-19:00","phone":"+33 5 58 43 76 75","website":"https://cycles-lannemajou.fr","osm_id":1667674668}},{"type":"Feature","geometry":{"type":"Point","coordinates":[-1.4430761,43.6489829]},"properties":{"category":"bakery","name":"La Boulangerie des Plages","opening_hours":"Sep-Jun Tu-Sa 07:00-19:30; Sep-Jun Su 07:00-13:30; Jul-Aug Mo-Su,PH 07:00-20:00","phone":"+33 5 58 42 54 18","osm_id":2182534880}},{"type":"Feature","geometry":{"type":"Point","coordinates":[-1.431472,43.6392687]},"properties":{"category":"bakery","name":"Des idées gourmandes","opening_hours":"Mo-Sa 06:30-19:00; We off; Su 06:30-13:00","phone":"+33 5 59 41 89 63","website":"https://www.des-idees-gourmandes.com/","osm_id":2417632247}},{"type":"Feature","geometry":{"type":"Point","coordinates":[-1.4335998,43.6501349]},"properties":{"category":"bakery","name":"Boulangerie du Port Copaline","opening_hours":"Mo-Su 07:00-20:00","phone":"+33 5 58 47 98 08","website":"https://www.boulangerieduport-capbreton.fr/","osm_id":2419203614}},{"type":"Feature","geometry":{"type":"Point","coordinates":[-1.4258554,43.6377298]},"properties":{"category":"bakery","name":"Au Crousti Pain","opening_hours":"Mo-Sa 07:00-20:00","phone":"+33 9 72 50 70 90","website":"http://lepalaisdelucas.fr/nos-boutiques/","osm_id":3024467934}},{"type":"Feature","geometry":{"type":"Point","coordinates":[-1.4313258,43.6408585]},"properties":{"category":"bakery","name":"Lucas","phone":"+33 5 58 49 96 61","osm_id":3064180245}},{"type":"Feature","geometry":{"type":"Point","coordinates":[-1.4364493,43.6912684]},"properties":{"category":"bakery","name":"Le Pain de la Grande Boulangerie","opening_hours":"Mo-Su 07:00-15:00,16:30-20:30","osm_id":4443359533}},{"type":"Feature","geometry":{"type":"Point","coordinates":[-1.4078308,43.6499198]},"properties":{"category":"bakery","osm_id":4591552785}},{"type":"Feature","geometry":{"type":"Point","coordinates":[-1.4284324,43.6590433]},"properties":{"category":"bakery","name":"Lucas","opening_hours":"Mo-Su 07:00-20:00","phone":"+33 5 58 43 51 20","website":"https://lepalaisdelucas.fr/","osm_id":4878565523}},{"type":"Feature","geometry":{"type":"Point","coordinates":[-1.4332149,43.6423382]},"properties":{"category":"shop","name":"Joe Bike","opening_hours":"Mo-Su 09:30-19:00","phone":"+33 5 58 72 19 99","osm_id":4963949385}},{"type":"Feature","geometry":{"type":"Point","coordinates":[-1.4310236,43.6495457]},"properties":{"category":"shop","name":"Station Total","phone":"+33 5 58 72 12 86","osm_id":4964041885}},{"type":"Feature","geometry":{"type":"Point","coordinates":[-1.4330776,43.6521714]},"properties":{"category":"shop","name":"Joe Bike","opening_hours":"Jun-Sep 09:30-19:00; Oct-May Mo off","phone":"+33 5 58 41 89 37","website":"https://www.joebike.fr/landes/location-velos-capbreton/","osm_id":4964090079}},{"type":"Feature","geometry":{"type":"Point","coordinates":[-1.4355263,43.6903445]},"properties":{"category":"shop","name":"Location de vélo - Surf shop l'Esquiro","phone":"+33 5 58 43 33 35","osm_id":4965552230}},{"type":"Feature","geometry":{"type":"Point","coordinates":[-1.4337426,43.6500998]},"properties":{"category":"shop","name":"Éco-Loc","opening_hours":"Tu-Su 10:00-12:00,14:30-18:30; Sep 10:00-12:00,14:30-18:30","phone":"+33 5 58 43 15 27","website":"https://www.eco-loc-velos.fr/","osm_id":4965652476}},{"type":"Feature","geometry":{"type":"Point","coordinates":[-1.431656,43.641036]},"properties":{"category":"bakery","name":"B. Casano","opening_hours":"Mo-Sa 07:00-20:00; Su 07:30-13:00,16:00-19:00","osm_id":5802462554}},{"type":"Feature","geometry":{"type":"Point","coordinates":[-1.4405593,43.6532349]},"properties":{"category":"bakery","name":"Du Pain sur la Planche","opening_hours":"Mo-Su 07:30-20:00","osm_id":7907663096}},{"type":"Feature","geometry":{"type":"Point","coordinates":[-1.4305793,43.6599907]},"properties":{"category":"bakery","name":"Lucas","opening_hours":"Mo-Su 07:30-14:00,16:00-19:30","phone":"+33 5 58 43 73 88","website":"https://lepalaisdelucas.fr/","osm_id":8100841642}},{"type":"Feature","geometry":{"type":"Point","coordinates":[-1.4285744,43.6587322]},"properties":{"category":"bakery","name":"Pâtisserie du Golf","phone":"+33 5 58 43 52 15","website":"https://www.patisseriehossegor.com/","osm_id":8100924651}},{"type":"Feature","geometry":{"type":"Point","coordinates":[-1.42646,43.6592864]},"properties":{"category":"bakery","opening_hours":"Mo-Sa 07:30-14:00,16:30-19:30; Su 07:30-14:00","phone":"+33 5 58 73 05 53","website":"https://www.jules-et-john.fr/chez-jules-boulangerie.html","osm_id":8100946884}},{"type":"Feature","geometry":{"type":"Point","coordinates":[-1.4320566,43.6439498]},"properties":{"category":"bakery","name":"Le Délice de Clara","opening_hours":"Mo-Su 06:00-20:00","phone":"+33 5 58 41 06 06","website":"https://www.copaline.com/","osm_id":8364625026}},{"type":"Feature","geometry":{"type":"Point","coordinates":[-1.4289029,43.6572736]},"properties":{"category":"shop","name":"Hossegor Bike","opening_hours":"We-Su 09:30-12:30,14:30-18:30","phone":"+33 6 30 38 43 73","website":"https://www.hossegorbike.com/","osm_id":8524843774}},{"type":"Feature","geometry":{"type":"Point","coordinates":[-1.4430602,43.6623387]},"properties":{"category":"shop","name":"Sunrise","phone":"+33558435396","website":"https://www.sunriselocvelos.com/","osm_id":8524868965}},{"type":"Feature","geometry":{"type":"Point","coordinates":[-1.4409444,43.6537218]},"properties":{"category":"shop","name":"Jerry Bike Rental","phone":"+33 6 59 14 02 24","website":"https://jerry-bike-rental.com","osm_id":8772372254}},{"type":"Feature","geometry":{"type":"Point","coordinates":[-1.4414144,43.6562438]},"properties":{"category":"shop","name":"Païkikala","phone":"+33 6 19 11 19 37","website":"https://www.paikikala.fr/","osm_id":8772702618}},{"type":"Feature","geometry":{"type":"Point","coordinates":[-1.4337215,43.6865269]},"properties":{"category":"shop","name":"Jerry Bike","phone":"+33 6 59 14 02 24","website":"https://jerry-bike-rental.com","osm_id":8776027164}},{"type":"Feature","geometry":{"type":"Point","coordinates":[-1.4279645,43.658135]},"properties":{"category":"shop","name":"Maa","osm_id":9741108010}},{"type":"Feature","geometry":{"type":"Point","coordinates":[-1.425936,43.6416375]},"properties":{"category":"shop","name":"Capbreton Bike","opening_hours":"Mo-Sa 09:30-18:30","phone":"+33 6 52 51 72 57","website":"https://www.lokki.rent/loueur/capbretonbike","osm_id":9858068975}},{"type":"Feature","geometry":{"type":"Point","coordinates":[-1.4299966,43.6322161]},"properties":{"category":"bakery","name":"Boulangerie des Pins","osm_id":9858265470}},{"type":"Feature","geometry":{"type":"Point","coordinates":[-1.4362627,43.6500079]},"properties":{"category":"repair","osm_id":9934602944}},{"type":"Feature","geometry":{"type":"Point","coordinates":[-1.4291223,43.6582574]},"properties":{"category":"shop","name":"Joe Bike","phone":"+33 5 58 41 91 81","website":"https://www.joebike.fr/landes/location-velos-hossegor/","osm_id":12696683531}},{"type":"Feature","geometry":{"type":"Point","coordinates":[-1.4300478,43.6943002]},"properties":{"category":"shop","name":"JOE BIKE","opening_hours":"Mo-Su 09:30-19:00","phone":"+33558417541","osm_id":12883046454}}]}