{"type":"FeatureCollection","features":[{"type":"Feature","geometry":{"type":"Point","coordinates":[1.5219983,43.6430764]},"properties":{"category":"bakery","osm_id":404721785}},{"type":"Feature","geometry":{"type":"Point","coordinates":[1.5158387,43.6950817]},"properties":{"category":"bakery","name":"L'Epi des Trois Seigneurs","osm_id":1417528248}},{"type":"Feature","geometry":{"type":"Point","coordinates":[1.5156611,43.6093666]},"properties":{"category":"bakery","name":"Secrets de Pains","opening_hours":"Mo-Sa 06:00-20:00; Su 06:00-19:00","osm_id":2296901012}},{"type":"Feature","geometry":{"type":"Point","coordinates":[1.501683,43.6681442]},"properties":{"category":"bakery","osm_id":5870801997}},{"type":"Feature","geometry":{"type":"Point","coordinates":[1.5014008,43.6360971]},"properties":{"category":"bakery","name":"Marie Blachère","opening_hours":"Mo-Sa 08:00-20:00","osm_id":6126525266}},{"type":"Feature","geometry":{"type":"Point","coordinates":[1.5066464,43.6503763]},"properties":{"category":"bakery","name":"Marie Blachère","opening_hours":"Mo-Sa 07:00-19:30; Su 08:00-12:30","phone":"+33 5 61 70 80 52","website":"https://boulangeries.marieblachere.com/fr/france-FR/5357/marie-blachere-st-jean/details","osm_id":8702370561}},{"type":"Feature","geometry":{"type":"Point","coordinates":[1.51502,43.6711735]},"properties":{"category":"shop","name":"BoutiCycle Toulouse Rouffiac-Tolosan","opening_hours":"Tu-Fr 10:00-13:00, 14:00-19:00, Sa 10:00-18:00","phone":"+33 967804501","osm_id":10081447876}},{"type":"Feature","geometry":{"type":"Point","coordinates":[1.516202,43.6707186]},"properties":{"category":"bakery","osm_id":11275822512}},{"type":"Feature","geometry":{"type":"Point","coordinates":[1.505604,43.665146]},"properties":{"category":"bakery","osm_id":11731618512}},{"type":"Feature","geometry":{"type":"Point","coordinates":[1.5320528,43.6438818]},"properties":{"category":"compressed_air","osm_id":12894726874}},{"type":"Feature","geometry":{"type":"Point","coordinates":[1.5006078,43.6509549]},"properties":{"category":"bakery","name":"Boulangerie des Pyrénées","opening_hours":"Mo-Sa 06:30-20:00","phone":"+33 5 62 89 30 80","website":"https://www.boulangeriedespyrenees.com","osm_id":14102662728}}]}