{"type":"FeatureCollection","features":[{"type":"Feature","geometry":{"type":"Point","coordinates":[2.2689269,43.6213151]},"properties":{"category":"bakery","osm_id":472430116}},{"type":"Feature","geometry":{"type":"Point","coordinates":[2.2630309,43.6103133]},"properties":{"category":"bakery","name":"Boulangerie Pâtisserie Didier","opening_hours":"Mo-Su 06:00-20:00","osm_id":968578316}},{"type":"Feature","geometry":{"type":"Point","coordinates":[2.2760832,43.6319829]},"properties":{"category":"bakery","osm_id":2009760577}},{"type":"Feature","geometry":{"type":"Point","coordinates":[2.2453898,43.6073674]},"properties":{"category":"bakery","name":"Chez Halina","osm_id":2406368906}},{"type":"Feature","geometry":{"type":"Point","coordinates":[2.241047,43.6052779]},"properties":{"category":"bakery","name":"La Mie Câline","opening_hours":"Mo-Su 06:00-20:00","phone":"+33 5 63 62 83 37","website":"https://www.lamiecaline.com/","osm_id":2408956483}},{"type":"Feature","geometry":{"type":"Point","coordinates":[2.2376691,43.6100678]},"properties":{"category":"bakery","name":"Gillet","osm_id":2414617138}},{"type":"Feature","geometry":{"type":"Point","coordinates":[2.2403191,43.6056486]},"properties":{"category":"bakery","name":"Côté Quignon","opening_hours":"Tu-Sa 07:30-19:15; Mo 07:30-14:00,15:30-19:15","osm_id":2417003213}},{"type":"Feature","geometry":{"type":"Point","coordinates":[2.2393377,43.6082929]},"properties":{"category":"bakery","name":"L'Emile Pains","opening_hours":"Mo-Su 06:00-20:00","osm_id":2427198368}},{"type":"Feature","geometry":{"type":"Point","coordinates":[2.2436036,43.6046573]},"properties":{"category":"bakery","name":"Briocherie Cheldine","osm_id":2429513392}},{"type":"Feature","geometry":{"type":"Point","coordinates":[2.2683785,43.6159114]},"properties":{"category":"bakery","name":"Pains & Compagnie","osm_id":2437952880}},{"type":"Feature","geometry":{"type":"Point","coordinates":[2.2389352,43.6091132]},"properties":{"category":"bakery","name":"Julier","osm_id":2440858445}},{"type":"Feature","geometry":{"type":"Point","coordinates":[2.2913862,43.6643523]},"properties":{"category":"bakery","name":"La Roquecourbaine","osm_id":2780794615}},{"type":"Feature","geometry":{"type":"Point","coordinates":[2.2921609,43.6651158]},"properties":{"category":"bakery","name":"Boulangerie Patisserie le Fournil du Puisot","osm_id":3044588684}},{"type":"Feature","geometry":{"type":"Point","coordinates":[2.253836,43.602236]},"properties":{"category":"shop","name":"La ReCycle","opening_hours":"Th 17:00-20:00","website":"https://www.larecycle.fr/","osm_id":9162479162}}]}