{"type":"FeatureCollection","features":[{"type":"Feature","geometry":{"type":"Point","coordinates":[-0.645874,43.6911457]},"properties":{"category":"bakery","name":"Boulangerie Épicerie Billaud","opening_hours":"Tu-Fr 07:30-12:30,16:00-19:00; Sa 08:00-12:30,16:00-19:00; Su 07:00-12:30","phone":"+33 5 24 28 66 57","website":"https://www.boulangerie-billaud.fr","osm_id":8482371958}},{"type":"Feature","geometry":{"type":"Point","coordinates":[-0.6010742,43.6587989]},"properties":{"category":"bakery","name":"Boulangerie Delpech","phone":"+33 5 58 79 82 01","osm_id":8887903203}},{"type":"Feature","geometry":{"type":"Point","coordinates":[-0.6193841,43.6410199]},"properties":{"category":"bakery","name":"Boulangerie Boucheres","opening_hours":"Mo-Sa 06:30-19:00","phone":"+33 5 58 79 11 64","osm_id":10769626618}}]}