{"type":"FeatureCollection","features":[{"type":"Feature","geometry":{"type":"Point","coordinates":[6.8481281,43.6983393]},"properties":{"category":"bakery","name":"Amandine Enzo","osm_id":1688960079}},{"type":"Feature","geometry":{"type":"Point","coordinates":[6.8772706,43.6403703]},"properties":{"category":"bakery","name":"Hiriart Chocolatier","osm_id":3212665083}},{"type":"Feature","geometry":{"type":"Point","coordinates":[6.8681275,43.6391253]},"properties":{"category":"bakery","name":"La Boulangerie de Charlotte","osm_id":9883670792}},{"type":"Feature","geometry":{"type":"Point","coordinates":[6.8785295,43.6413352]},"properties":{"category":"bakery","name":"Fournil de Peymeinade","opening_hours":"Mo-Su 06:30-19:00","phone":"+33 4 93 77 90 36","osm_id":10836929605}},{"type":"Feature","geometry":{"type":"Point","coordinates":[6.8781237,43.6411827]},"properties":{"category":"bakery","osm_id":11038619481}},{"type":"Feature","geometry":{"type":"Point","coordinates":[6.8576291,43.6934474]},"properties":{"category":"bakery","name":"Aux Gourmandises de Lana et Cyana","opening_hours":"Mo-Su 07:00-14:00","phone":"+33 4 93 66 36 87","osm_id":11254940912}},{"type":"Feature","geometry":{"type":"Point","coordinates":[6.8779729,43.6413401]},"properties":{"category":"shop","name":"Cycles Orsolino","osm_id":12019986069}},{"type":"Feature","geometry":{"type":"Point","coordinates":[6.8910721,43.6453173]},"properties":{"category":"repair","osm_id":13020438217}}]}