{"type":"FeatureCollection","features":[{"type":"Feature","geometry":{"type":"Point","coordinates":[3.45623,43.6448367]},"properties":{"category":"bakery","name":"H & H boulangerie","phone":"+33983686040","website":"https://www.hhboulangerie.fr","osm_id":833455446}},{"type":"Feature","geometry":{"type":"Point","coordinates":[3.490724,43.6014321]},"properties":{"category":"bakery","name":"Boulangerie Reverbel","osm_id":1835101158}},{"type":"Feature","geometry":{"type":"Point","coordinates":[3.4340536,43.6247735]},"properties":{"category":"bakery","name":"Le comptoir des pains","osm_id":2119574762}},{"type":"Feature","geometry":{"type":"Point","coordinates":[3.4309986,43.6274142]},"properties":{"category":"bakery","name":"EPIFURIEU","osm_id":3096940954}},{"type":"Feature","geometry":{"type":"Point","coordinates":[3.4919253,43.6004819]},"properties":{"category":"bakery","name":"Le Panetol","osm_id":8772869942}},{"type":"Feature","geometry":{"type":"Point","coordinates":[3.4374533,43.6315828]},"properties":{"category":"bakery","name":"Epifurieu","osm_id":9958060030}},{"type":"Feature","geometry":{"type":"Point","coordinates":[3.4366839,43.6229604]},"properties":{"category":"shop","name":"Velo-Oxygen","opening_hours":"Mo-Fr 09:00-12:00; Mo-Fr 14:00-18:30; Sa 09:00-12:00","phone":"+33 4 67 44 98 22","website":"https://www.velo-oxygen34.com/","osm_id":9959354748}}]}