{"type":"FeatureCollection","features":[{"type":"Feature","geometry":{"type":"Point","coordinates":[5.0836703,43.6409257]},"properties":{"category":"bakery","name":"Marie Blachère","opening_hours":"Mo-Sa 06:30-19:30","osm_id":624569321}},{"type":"Feature","geometry":{"type":"Point","coordinates":[5.0631321,43.6074006]},"properties":{"category":"bakery","name":"M&T","opening_hours":"Mo,We-Sa 06:00-13:00,15:00-19:30; Su 06:00-13:00","osm_id":1132443335}},{"type":"Feature","geometry":{"type":"Point","coordinates":[5.0631389,43.6071296]},"properties":{"category":"bakery","name":"Banette","osm_id":1132443337}},{"type":"Feature","geometry":{"type":"Point","coordinates":[5.0779792,43.6329143]},"properties":{"category":"shop","name":"Batinich","opening_hours":"Tu-Sa 09:00-12:00,14:00-19:00","osm_id":2337376839}},{"type":"Feature","geometry":{"type":"Point","coordinates":[5.0941885,43.6452119]},"properties":{"category":"bakery","name":"Le Boulevard des Délices","osm_id":2409755580}},{"type":"Feature","geometry":{"type":"Point","coordinates":[5.0943605,43.6425701]},"properties":{"category":"shop","name":"Pera Cycle","osm_id":2409755583}},{"type":"Feature","geometry":{"type":"Point","coordinates":[5.0942602,43.6385356]},"properties":{"category":"bakery","name":"Le boulanger de la place","opening_hours":"Mo-Su 06:00-20:00","osm_id":4031283032}},{"type":"Feature","geometry":{"type":"Point","coordinates":[5.0746632,43.6406523]},"properties":{"category":"bakery","osm_id":4371145692}},{"type":"Feature","geometry":{"type":"Point","coordinates":[5.0977012,43.6474829]},"properties":{"category":"bakery","name":"Côté Pain","osm_id":4907726502}},{"type":"Feature","geometry":{"type":"Point","coordinates":[5.0760671,43.6385696]},"properties":{"category":"bakery","name":"Marie Blachère","osm_id":4908602633}},{"type":"Feature","geometry":{"type":"Point","coordinates":[5.0306914,43.6953348]},"properties":{"category":"bakery","name":"Les Douceurs de Mila","opening_hours":"Tu-Sa 07:00-19:30; Su 07:00-13:00; PH 07:00-13:00","phone":"+33 4 86 68 19 66","osm_id":7553202842}},{"type":"Feature","geometry":{"type":"Point","coordinates":[5.077655,43.6335088]},"properties":{"category":"bakery","name":"Le fournil de Salon","opening_hours":"Mo-Su 06:00-20:00","phone":"+33 4 90 73 10 92","osm_id":8458201050}},{"type":"Feature","geometry":{"type":"Point","coordinates":[5.0748816,43.6334312]},"properties":{"category":"shop","name":"Giant","opening_hours":"Tu-Sa 09:30-12:30, 14:00-18:30","phone":"+33 4 90 73 32 54","website":"https://www.giant-salon-de-provence.fr/fr","osm_id":8532486728}},{"type":"Feature","geometry":{"type":"Point","coordinates":[5.0971495,43.6412443]},"properties":{"category":"bakery","name":"Maison Tamisier","osm_id":8559651267}},{"type":"Feature","geometry":{"type":"Point","coordinates":[5.0296598,43.6918872]},"properties":{"category":"bakery","name":"La Récré Gourmande","osm_id":9354087878}},{"type":"Feature","geometry":{"type":"Point","coordinates":[5.0994176,43.623253]},"properties":{"category":"bakery","name":"Paul","opening_hours":"Mo-Su 06:30-20:00","phone":"+33 4 82 29 98 82","website":"https://www.paul.fr/stores/salon_de_provence","osm_id":9465485255}},{"type":"Feature","geometry":{"type":"Point","coordinates":[5.085559,43.6400118]},"properties":{"category":"bakery","name":"La Mavinon","osm_id":10657587216}},{"type":"Feature","geometry":{"type":"Point","coordinates":[5.0864718,43.6401728]},"properties":{"category":"bakery","name":"Stéphane Conte Artisan","osm_id":10660699487}},{"type":"Feature","geometry":{"type":"Point","coordinates":[5.0964787,43.6424338]},"properties":{"category":"bakery","name":"Dames Levain","osm_id":10942398709}},{"type":"Feature","geometry":{"type":"Point","coordinates":[5.097612,43.637876]},"properties":{"category":"bakery","name":"L'océan des Pains","osm_id":11144131045}},{"type":"Feature","geometry":{"type":"Point","coordinates":[5.0988054,43.6392337]},"properties":{"category":"bakery","name":"L'Atelier De Marion","osm_id":11163378748}},{"type":"Feature","geometry":{"type":"Point","coordinates":[5.0992725,43.6525762]},"properties":{"category":"bakery","osm_id":12253436616}},{"type":"Feature","geometry":{"type":"Point","coordinates":[5.0996926,43.6531355]},"properties":{"category":"compressed_air","opening_hours":"24/7","osm_id":12460961916}},{"type":"Feature","geometry":{"type":"Point","coordinates":[5.0773571,43.6346489]},"properties":{"category":"compressed_air","osm_id":12709631682}},{"type":"Feature","geometry":{"type":"Point","coordinates":[5.0884656,43.6393726]},"properties":{"category":"repair","osm_id":12785494089}},{"type":"Feature","geometry":{"type":"Point","coordinates":[5.0994507,43.6373907]},"properties":{"category":"bakery","name":"Banette","osm_id":12901885413}},{"type":"Feature","geometry":{"type":"Point","coordinates":[5.0919899,43.6439936]},"properties":{"category":"bakery","name":"Le Fournil de Félix Pyat","osm_id":13019952038}},{"type":"Feature","geometry":{"type":"Point","coordinates":[5.0383281,43.6877397]},"properties":{"category":"compressed_air","osm_id":13305267121}},{"type":"Feature","geometry":{"type":"Point","coordinates":[5.0588563,43.6405988]},"properties":{"category":"bakery","osm_id":13603301685}}]}