{"type":"FeatureCollection","features":[{"type":"Feature","geometry":{"type":"Point","coordinates":[4.181196,43.7390482]},"properties":{"category":"bakery","osm_id":1428394041}},{"type":"Feature","geometry":{"type":"Point","coordinates":[4.1807489,43.7395655]},"properties":{"category":"bakery","name":"Pain et Gourmandises","osm_id":1428994655}},{"type":"Feature","geometry":{"type":"Point","coordinates":[4.1479668,43.753768]},"properties":{"category":"bakery","name":"Patisserie de la Promenade","opening_hours":"Tu-Sa 06:45-13:15,16:15-19:15; Su 06:45-13:00","phone":"+33 4 66 80 24 49","osm_id":1520040203}},{"type":"Feature","geometry":{"type":"Point","coordinates":[4.13943,43.7207367]},"properties":{"category":"bakery","name":"Au Pétrin d'Oppidum","opening_hours":"Tu-Su 07:00-13:00,16:00-20:00","phone":"+33 4 67 86 44 78","osm_id":1600007359}},{"type":"Feature","geometry":{"type":"Point","coordinates":[4.1929648,43.7860737]},"properties":{"category":"bakery","name":"L'Amandine","opening_hours":"Mo-Sa 06:30-19:30; Su 07:00-13:00","website":"www.l-amadine.fr","osm_id":1734313281}},{"type":"Feature","geometry":{"type":"Point","coordinates":[4.1750998,43.7191007]},"properties":{"category":"bakery","osm_id":1751063232}},{"type":"Feature","geometry":{"type":"Point","coordinates":[4.1148228,43.7888472]},"properties":{"category":"bakery","name":"Chez Flo","opening_hours":"Mo-Th 09:00-14:00,16:30-21:00; Fr 09:00-14:00,16:30-20:30; Sa 09:00-13:00","phone":"+33 9 53 11 80 99","osm_id":1852795361}},{"type":"Feature","geometry":{"type":"Point","coordinates":[4.1587745,43.773234]},"properties":{"category":"bakery","name":"L'Amandine","opening_hours":"Mo-Su 06:30-19:30","phone":"+33 4 66 93 21 80","osm_id":3387949431}},{"type":"Feature","geometry":{"type":"Point","coordinates":[4.1207602,43.7704062]},"properties":{"category":"bakery","name":"Au Moulin à Pains","opening_hours":"Mo-Fr 06:30-12:30,16:30-19:00; We,Sa,Su 06:30-12:30","phone":"+33 4 66 80 91 89","osm_id":4975557332}},{"type":"Feature","geometry":{"type":"Point","coordinates":[4.1581656,43.7731862]},"properties":{"category":"shop","name":"Vélo Expresso","opening_hours":"Tu-Sa 09:00-19:00","osm_id":7512857386}},{"type":"Feature","geometry":{"type":"Point","coordinates":[4.1328968,43.7131762]},"properties":{"category":"compressed_air","osm_id":7801161144}},{"type":"Feature","geometry":{"type":"Point","coordinates":[4.174759,43.7217403]},"properties":{"category":"bakery","name":"Équatoriale","opening_hours":"Mo-Fr 06:30-19:30; Sa-Su 06:30-13:00","osm_id":11921815269}},{"type":"Feature","geometry":{"type":"Point","coordinates":[4.1474925,43.7535576]},"properties":{"category":"bakery","name":"l'amandine","osm_id":13688072881}}]}