{"type":"FeatureCollection","features":[{"type":"Feature","geometry":{"type":"Point","coordinates":[1.6872105,43.773323]},"properties":{"category":"bakery","name":"Rue des Pains","osm_id":638934339}},{"type":"Feature","geometry":{"type":"Point","coordinates":[1.6877832,43.7725258]},"properties":{"category":"bakery","name":"Boulangerie Castillon","osm_id":767123943}},{"type":"Feature","geometry":{"type":"Point","coordinates":[1.676187,43.7717692]},"properties":{"category":"bakery","name":"La Boule Ange","osm_id":1421703126}},{"type":"Feature","geometry":{"type":"Point","coordinates":[1.6852269,43.773088]},"properties":{"category":"bakery","name":"Chez Ben & Océ","osm_id":2415905178}},{"type":"Feature","geometry":{"type":"Point","coordinates":[1.6686669,43.7687363]},"properties":{"category":"bakery","name":"Marie Blachère","osm_id":11343098182}}]}