{"type":"FeatureCollection","features":[{"type":"Feature","geometry":{"type":"Point","coordinates":[4.8330034,43.7929757]},"properties":{"category":"bakery","name":"La Fournée des Alpilles","osm_id":5514548543}},{"type":"Feature","geometry":{"type":"Point","coordinates":[4.8304082,43.7890088]},"properties":{"category":"bakery","name":"Boulangerie Bergese","opening_hours":"We-Su 06:30-19:00","osm_id":6910808785}},{"type":"Feature","geometry":{"type":"Point","coordinates":[4.8337041,43.7890393]},"properties":{"category":"bakery","name":"Paul","opening_hours":"Mo-Su 07:00-19:30","phone":"+33 4 90 26 72 70","website":"https://www.paul.fr/stores/saint_remy_de_provence","osm_id":8341407398}},{"type":"Feature","geometry":{"type":"Point","coordinates":[4.8346844,43.7888482]},"properties":{"category":"bakery","name":"Stéphane et Alicia Barette","opening_hours":"Mo,Tu,Th-Sa 06:30-13:30,15:30-19:30; Su,PH 07:00-12:00; We off","osm_id":9598014470}},{"type":"Feature","geometry":{"type":"Point","coordinates":[4.8039392,43.7213577]},"properties":{"category":"bakery","name":"Aux Becs Sucrés","opening_hours":"Mo-Sa 06:30-13:00,15:00-19:00; We off; Su 06:30-13:00","phone":"+33 4 90 54 46 30","osm_id":11251264137}},{"type":"Feature","geometry":{"type":"Point","coordinates":[4.8318713,43.7892863]},"properties":{"category":"bakery","osm_id":11951691574}},{"type":"Feature","geometry":{"type":"Point","coordinates":[4.8305923,43.7869224]},"properties":{"category":"bakery","name":"Maison Spiteri","opening_hours":"Tu-Sa 07:00-19:00; Su 08:00-13:00","osm_id":12785397359}},{"type":"Feature","geometry":{"type":"Point","coordinates":[4.8318746,43.7864523]},"properties":{"category":"repair","osm_id":13120919759}},{"type":"Feature","geometry":{"type":"Point","coordinates":[4.8058698,43.7207388]},"properties":{"category":"bakery","name":"Pain du Coin","opening_hours":"Mo-Su 07:00-19:00","osm_id":13708773978}},{"type":"Feature","geometry":{"type":"Point","coordinates":[4.8213517,43.7944386]},"properties":{"category":"bakery","name":"Terre et Blé","opening_hours":"Mo-Sa 09:00-19:00","phone":"+33 4 90 89 72 30","website":"https://terreetble.com","osm_id":13989729001}}]}