{"type":"FeatureCollection","features":[{"type":"Feature","geometry":{"type":"Point","coordinates":[-0.4287075,43.7729572]},"properties":{"category":"bakery","name":"L'Amour du Pain","opening_hours":"Mo-Sa 06:30-13:00,15:15-19:15; Th off; Su 07:00-13:00","phone":"+33 5 58 45 41 67","osm_id":2098517107}},{"type":"Feature","geometry":{"type":"Point","coordinates":[-0.427423,43.7726508]},"properties":{"category":"bakery","name":"Le Fournil Gourmand","osm_id":9571370275}},{"type":"Feature","geometry":{"type":"Point","coordinates":[-0.474907,43.7281078]},"properties":{"category":"bakery","name":"Aux Grains de la Ferme","phone":"+33 6 61 13 36 88","osm_id":12731827912}},{"type":"Feature","geometry":{"type":"Point","coordinates":[-0.4287256,43.7699633]},"properties":{"category":"bakery","name":"Maison Decerf","osm_id":13086445040}}]}