{"type":"FeatureCollection","features":[{"type":"Feature","geometry":{"type":"Point","coordinates":[1.5863972,43.7207068]},"properties":{"category":"bakery","name":"Thibault","phone":"+33 5 61 84 25 95","osm_id":1981227857}},{"type":"Feature","geometry":{"type":"Point","coordinates":[1.5856638,43.7225565]},"properties":{"category":"bakery","name":"Pan et Pat","osm_id":5005354350}},{"type":"Feature","geometry":{"type":"Point","coordinates":[1.5603127,43.7037176]},"properties":{"category":"bakery","name":"Boulangerie Cadenet","phone":"+33 9 75 52 15 34","osm_id":9218587614}},{"type":"Feature","geometry":{"type":"Point","coordinates":[1.5612824,43.7022183]},"properties":{"category":"bakery","name":"Clément","osm_id":12979661871}}]}