{"type":"FeatureCollection","features":[{"type":"Feature","geometry":{"type":"Point","coordinates":[4.4268835,43.7995355]},"properties":{"category":"bakery","name":"Au pétrin des 2 frères","osm_id":1977319940}},{"type":"Feature","geometry":{"type":"Point","coordinates":[4.4251874,43.7996754]},"properties":{"category":"bakery","name":"Boulangerie Patisserie L'équinoxe","osm_id":4932080840}},{"type":"Feature","geometry":{"type":"Point","coordinates":[4.4311517,43.7688941]},"properties":{"category":"bakery","name":"Mandy Cakes","osm_id":6959860749}},{"type":"Feature","geometry":{"type":"Point","coordinates":[4.4317857,43.7696844]},"properties":{"category":"shop","name":"Mud Panther Bicycles","osm_id":7512809266}}]}