{"type":"FeatureCollection","features":[{"type":"Feature","geometry":{"type":"Point","coordinates":[4.6446366,43.7054737]},"properties":{"category":"bakery","name":"Marie Blachère","opening_hours":"Mo-Sa 08:30-19:30","osm_id":6863508703}},{"type":"Feature","geometry":{"type":"Point","coordinates":[4.6907809,43.795133]},"properties":{"category":"shop","name":"Technicycles","website":"https://technicycles.fr/","osm_id":7512839122}},{"type":"Feature","geometry":{"type":"Point","coordinates":[4.690012,43.7964823]},"properties":{"category":"bakery","name":"Marie Blachère","osm_id":9626258565}}]}