{"type":"FeatureCollection","features":[{"type":"Feature","geometry":{"type":"Point","coordinates":[5.2442055,43.7197696]},"properties":{"category":"bakery","name":"Boulangerie Patisserie Gonzalez","phone":"+33 4 42 28 42 18","osm_id":2325511641}},{"type":"Feature","geometry":{"type":"Point","coordinates":[5.2450461,43.7203693]},"properties":{"category":"bakery","name":"Aux Saveurs De Guillaume","phone":"+33 4 88 29 27 43","osm_id":2325511644}},{"type":"Feature","geometry":{"type":"Point","coordinates":[5.2030804,43.7559648]},"properties":{"category":"bakery","name":"Au Vieux Four","osm_id":7465459678}}]}