{"type":"FeatureCollection","features":[{"type":"Feature","geometry":{"type":"Point","coordinates":[-0.9260836,43.7876582]},"properties":{"category":"bakery","name":"Les gourmandises d'Anais","phone":"+33 5 58 57 91 69","osm_id":5375887421}},{"type":"Feature","geometry":{"type":"Point","coordinates":[-0.9257638,43.7016361]},"properties":{"category":"bakery","name":"Boulangerie Dassié","opening_hours":"Mo-Sa 06:00-13:00,15:30-19:30; Su 06:00-13:00","phone":"+33 5 58 89 50 14","osm_id":7402096286}},{"type":"Feature","geometry":{"type":"Point","coordinates":[-0.9251848,43.7879813]},"properties":{"category":"bakery","name":"La Cigale et la Fournée - La Ronde des Pains","opening_hours":"Tu-Sa 05:00-14:00,15:00-20:00; Su 05:00-13:30","phone":"+33 5 58 57 21 54","osm_id":7467259064}}]}