{"type":"FeatureCollection","features":[{"type":"Feature","geometry":{"type":"Point","coordinates":[7.507991,43.7761069]},"properties":{"category":"bakery","name":"Pain Chaud du Jardin","osm_id":7237379573}},{"type":"Feature","geometry":{"type":"Point","coordinates":[7.5053968,43.7751294]},"properties":{"category":"bakery","name":"Augustin. L'art du pain","opening_hours":"Mo-Sa 07:00-19:30","phone":"+33 4 93 96 07 51","website":"https://www.briochedoree.fr/restaurants/346-menton-16-place-clemenceau","osm_id":7559665085}},{"type":"Feature","geometry":{"type":"Point","coordinates":[7.5181286,43.7841182]},"properties":{"category":"shop","name":"R Bike Menton","opening_hours":"Mo-Sa 09:00-12:00, 15:00-19:00","phone":"+33 6 26 03 31 37","website":"https://rbikementon.com/","osm_id":8721446680}},{"type":"Feature","geometry":{"type":"Point","coordinates":[7.5051415,43.7757725]},"properties":{"category":"bakery","name":"Mitron bakery","opening_hours":"Tu-Sa 08:00-15:00; Su 00:00-24:00","phone":"+33 4 93 57 67 82","website":"https://mitronbakery.com/","osm_id":11684505069}},{"type":"Feature","geometry":{"type":"Point","coordinates":[7.5218972,43.784747]},"properties":{"category":"repair","opening_hours":"24/7","osm_id":13301054228}}]}