{"type":"FeatureCollection","features":[{"type":"Feature","geometry":{"type":"Point","coordinates":[5.4399236,43.7741725]},"properties":{"category":"bakery","name":"Chez Christine et Christophe","opening_hours":"Tu-Su 06:00-13:00, 14:30-19:30","osm_id":2409730063}},{"type":"Feature","geometry":{"type":"Point","coordinates":[5.4383477,43.7729929]},"properties":{"category":"bakery","name":"Fournil Partagé","osm_id":4169886992}},{"type":"Feature","geometry":{"type":"Point","coordinates":[5.4385819,43.7732075]},"properties":{"category":"bakery","osm_id":4490612701}},{"type":"Feature","geometry":{"type":"Point","coordinates":[5.4399016,43.7729254]},"properties":{"category":"repair","osm_id":13020593693}},{"type":"Feature","geometry":{"type":"Point","coordinates":[5.4978143,43.7843497]},"properties":{"category":"bakery","name":"Le fournil de Cabrières","osm_id":13722576706}}]}