{"type":"FeatureCollection","features":[{"type":"Feature","geometry":{"type":"Point","coordinates":[3.9800887,43.7329272]},"properties":{"category":"bakery","name":"Boulangerie Patisserie Serge Sabatier","opening_hours":"Mo-Sa 07:30-12:30,16:45-19:15; Su 07:30-12:30","phone":"+33 4 34 40 42 40","osm_id":4023863311}},{"type":"Feature","geometry":{"type":"Point","coordinates":[3.9088366,43.7730213]},"properties":{"category":"bakery","name":"Les soeurettes","opening_hours":"Tu-We, Fr-Sa 07:00-13:00, 16:00-18:30; Su 07:00-12:30; Th 07:00-13:00","phone":"+33 4 67 60 54 19","osm_id":10889898239}}]}