{"type":"FeatureCollection","features":[{"type":"Feature","geometry":{"type":"Point","coordinates":[4.9540085,43.7880983]},"properties":{"category":"bakery","name":"La Tentation Gourmande","opening_hours":"Mo-Fr 06:00-13:00,14:00-19:00; Sa 06:00-13:00,15:30-19:00; Su 06:00-13:00; Tu off","phone":"+33 4 90 92 65 88","osm_id":6547536026}},{"type":"Feature","geometry":{"type":"Point","coordinates":[4.9476911,43.7070223]},"properties":{"category":"bakery","name":"L'Aurellienne","opening_hours":"Tu-Sa 06:15-12:45,16:00-19:00; Su 06:15-12:45","phone":"+33 4 90 59 92 20","osm_id":8756077336}}]}