{"type":"FeatureCollection","features":[{"type":"Feature","geometry":{"type":"Point","coordinates":[4.2200286,43.7436485]},"properties":{"category":"bakery","osm_id":1284190708}},{"type":"Feature","geometry":{"type":"Point","coordinates":[4.2998256,43.784226]},"properties":{"category":"bakery","osm_id":1917565286}},{"type":"Feature","geometry":{"type":"Point","coordinates":[4.2986509,43.7843934]},"properties":{"category":"bakery","name":"Marie Blachère","opening_hours":"Mo-Sa 06:30-19:30","phone":"+33 4 66 63 86 47","website":"https://boulangeries.marieblachere.com/fr/france-FR/5302/marie-blachere-milhaud/details","osm_id":1918332410}},{"type":"Feature","geometry":{"type":"Point","coordinates":[4.2004437,43.7391316]},"properties":{"category":"bakery","name":"La P'tite Boulange","osm_id":3432079499}},{"type":"Feature","geometry":{"type":"Point","coordinates":[4.2699573,43.7578448]},"properties":{"category":"bakery","name":"Aux P'tits Pains de Manon","osm_id":3761503476}},{"type":"Feature","geometry":{"type":"Point","coordinates":[4.26714,43.7559896]},"properties":{"category":"bakery","name":"Boulangerie Artisanale","opening_hours":"Mo-Fr 06:30-13:00,16:30-19:00; Sa 06:30-13:00; PH,Su 07:00-13:00","osm_id":3761503504}},{"type":"Feature","geometry":{"type":"Point","coordinates":[4.2041172,43.7827447]},"properties":{"category":"bakery","name":"Ador le pain","opening_hours":"Mo off; Tu-Sa 07:00-19:30; Su 07:30-13:00","osm_id":6924278695}},{"type":"Feature","geometry":{"type":"Point","coordinates":[4.2298818,43.7906601]},"properties":{"category":"bakery","name":"Nages & Gourmandises","opening_hours":"Th-Sa 07:15-13:00; Su 07:15-12:30","phone":"+33 4 49 05 19 11","osm_id":9983426217}},{"type":"Feature","geometry":{"type":"Point","coordinates":[4.2683317,43.7069256]},"properties":{"category":"bakery","name":"Marie Blachère","opening_hours":"Mo-Sa 06:30-20:00","phone":"+33 4 66 71 10 44","website":"https://boulangeries.marieblachere.com/Vauvert","osm_id":10807990771}},{"type":"Feature","geometry":{"type":"Point","coordinates":[4.2194794,43.734801]},"properties":{"category":"bakery","name":"L'Atelier Papilles","opening_hours":"Mo-Sa 06:30-19:30; Su 06:30-12:30","phone":"+33 9 60 36 11 95","osm_id":13233601211}}]}