{"type":"FeatureCollection","features":[{"type":"Feature","geometry":{"type":"Point","coordinates":[3.7323244,43.7910863]},"properties":{"category":"bakery","name":"La Tour","opening_hours":"Mo-Su 07:00-12:45,16:00-19:30","phone":"+33 4 67 06 95 01","website":"https://www.patisserie-latour.fr/","osm_id":1743788221}},{"type":"Feature","geometry":{"type":"Point","coordinates":[3.7321214,43.7907902]},"properties":{"category":"bakery","name":"Label des Champs","osm_id":1743788235}},{"type":"Feature","geometry":{"type":"Point","coordinates":[3.7361437,43.7892377]},"properties":{"category":"bakery","name":"La Tour","opening_hours":"Mo-Su 06:00-20:00","phone":"+33 4 67 06 95 01","website":"https://www.patisserie-latour.fr/","osm_id":3808217423}},{"type":"Feature","geometry":{"type":"Point","coordinates":[3.7369767,43.7892594]},"properties":{"category":"repair","osm_id":9504157686}}]}