{"type":"FeatureCollection","features":[{"type":"Feature","geometry":{"type":"Point","coordinates":[7.1924028,43.7100054]},"properties":{"category":"shop","name":"Culture Vélo","website":"https://www.culturevelo.com/-Nice-Saint-Isidore-","osm_id":2691003822}},{"type":"Feature","geometry":{"type":"Point","coordinates":[7.1064357,43.7250124]},"properties":{"category":"shop","name":"Cycles 963","phone":"+33483391907","osm_id":4276689704}},{"type":"Feature","geometry":{"type":"Point","coordinates":[7.144547,43.749928]},"properties":{"category":"repair","opening_hours":"24/7","osm_id":7622486928}},{"type":"Feature","geometry":{"type":"Point","coordinates":[7.1454867,43.7436167]},"properties":{"category":"repair","osm_id":9153910648}},{"type":"Feature","geometry":{"type":"Point","coordinates":[7.1068635,43.7230543]},"properties":{"category":"repair","osm_id":11491144773}},{"type":"Feature","geometry":{"type":"Point","coordinates":[7.1068682,43.7231618]},"properties":{"category":"repair","osm_id":11503085826}},{"type":"Feature","geometry":{"type":"Point","coordinates":[7.1926466,43.7089997]},"properties":{"category":"shop","name":"Giant","opening_hours":"Mo 14:00-19:00; Tu-Sa 09:00-19:00","phone":"+33 4 23 32 01 23","website":"https://www.giant-nice-riviera.fr/","osm_id":12638474690}},{"type":"Feature","geometry":{"type":"Point","coordinates":[7.1112681,43.7222901]},"properties":{"category":"repair","osm_id":12833180402}},{"type":"Feature","geometry":{"type":"Point","coordinates":[7.1532093,43.7460978]},"properties":{"category":"repair","osm_id":13020414674}}]}