{"type":"FeatureCollection","features":[{"type":"Feature","geometry":{"type":"Point","coordinates":[4.7844968,43.7189264]},"properties":{"category":"bakery","name":"O'Petrin du Paradou","opening_hours":"Tu-Su 07:00-12:30, Tu-Sa 16:00-19:00","osm_id":2151751430}},{"type":"Feature","geometry":{"type":"Point","coordinates":[4.7125398,43.7273132]},"properties":{"category":"bakery","name":"Festival des Pains","osm_id":2151763002}},{"type":"Feature","geometry":{"type":"Point","coordinates":[4.7074198,43.7262862]},"properties":{"category":"bakery","name":"Festival","osm_id":5514547118}},{"type":"Feature","geometry":{"type":"Point","coordinates":[4.7067758,43.7262031]},"properties":{"category":"bakery","name":"Florentin","osm_id":5514548378}},{"type":"Feature","geometry":{"type":"Point","coordinates":[4.7961201,43.7452877]},"properties":{"category":"bakery","name":"Maison Bronte","osm_id":8651730034}},{"type":"Feature","geometry":{"type":"Point","coordinates":[4.7118087,43.7929034]},"properties":{"category":"shop","name":"Technis Cycle","osm_id":8756081713}},{"type":"Feature","geometry":{"type":"Point","coordinates":[4.7244371,43.7809846]},"properties":{"category":"bakery","osm_id":9865044101}},{"type":"Feature","geometry":{"type":"Point","coordinates":[4.72321,43.7805324]},"properties":{"category":"bakery","name":"L'Ami Louis","opening_hours":"Tu-Su 06:00-13:00, 15:00-19:00","phone":"+33 490 490872","osm_id":11942001850}},{"type":"Feature","geometry":{"type":"Point","coordinates":[4.7842881,43.7185495]},"properties":{"category":"shop","name":"bike in alpilles","phone":"+33 4 90 96 62 67","osm_id":13738530086}}]}