{"type":"FeatureCollection","features":[{"type":"Feature","geometry":{"type":"Point","coordinates":[-1.432777,43.7073492]},"properties":{"category":"shop","name":"Location de Vélos- L'Agréou Surf Shop","phone":"+33 5 58 43 14 45","website":"http://www.lagreou.com/shop/location-velo-seignosse","osm_id":4965684360}},{"type":"Feature","geometry":{"type":"Point","coordinates":[-1.4025852,43.7863748]},"properties":{"category":"shop","name":"Location vélos d'Albret","osm_id":8337647498}},{"type":"Feature","geometry":{"type":"Point","coordinates":[-1.4078846,43.7749826]},"properties":{"category":"shop","name":"L'atelier vélo freelandes","osm_id":9820212756}}]}