{"type":"FeatureCollection","features":[{"type":"Feature","geometry":{"type":"Point","coordinates":[-0.7059263,43.7870943]},"properties":{"category":"bakery","name":"Boulangerie Villet","osm_id":8440954272}},{"type":"Feature","geometry":{"type":"Point","coordinates":[-0.7526022,43.7499952]},"properties":{"category":"bakery","name":"Boulangerie Eric Garcia","opening_hours":"Mo-Su 06:30-12:30","phone":"+33 5 24 62 98 39","osm_id":10186217032}},{"type":"Feature","geometry":{"type":"Point","coordinates":[-0.7094484,43.7882612]},"properties":{"category":"bakery","name":"Au bon Pastis Landais","opening_hours":"Mo-Sa 07:30-19:00","phone":"+33 5 58 44 23 95","osm_id":10246894744}},{"type":"Feature","geometry":{"type":"Point","coordinates":[-0.750502,43.7503177]},"properties":{"category":"bakery","name":"Martine-Blanchard","phone":"+335 58 41 82 23","osm_id":11977653948}}]}