{"type":"FeatureCollection","features":[{"type":"Feature","geometry":{"type":"Point","coordinates":[5.564885,43.8953546]},"properties":{"category":"bakery","name":"Le Fournil de Viens","osm_id":2894440277}},{"type":"Feature","geometry":{"type":"Point","coordinates":[5.5916408,43.8563625]},"properties":{"category":"bakery","name":"Le Fournil de l'Encreme","opening_hours":"Mo,Tu,Th-Sa 07:00-12:30,16:00-19:00; Su,PH 07:00-13:00","phone":"+33 7 66 05 03 19","osm_id":6333767292}},{"type":"Feature","geometry":{"type":"Point","coordinates":[5.597337,43.8581765]},"properties":{"category":"compressed_air","osm_id":7419540226}},{"type":"Feature","geometry":{"type":"Point","coordinates":[5.5979505,43.857999]},"properties":{"category":"repair","osm_id":12297319510}}]}