{"type":"FeatureCollection","features":[{"type":"Feature","geometry":{"type":"Point","coordinates":[-1.3020935,43.8782179]},"properties":{"category":"shop","name":"Vélos d'Albret","opening_hours":"Mo-Sa 09:30-12:30","phone":"+33 5 58 41 65 10","website":"https://www.velos-albret.fr/","osm_id":3699923264}},{"type":"Feature","geometry":{"type":"Point","coordinates":[-1.3853374,43.8509254]},"properties":{"category":"shop","name":"Joe Bike Moliets","phone":"+33 5 58 48 85 48","website":"https://www.joebike.fr/landes/location-velos-moliets/?utm_source=Fiche-magasin&utm_id=Landes-Atlantique-Sud","osm_id":4964165728}},{"type":"Feature","geometry":{"type":"Point","coordinates":[-1.3782021,43.8156122]},"properties":{"category":"shop","name":"Vélos d'Albret","opening_hours":"10:00-12:00,14:00-18:00; Jul-Aug: 09:00-19:00","phone":"+33 5 58 48 38 42","website":"https://www.locacycles.fr/accueil/","osm_id":4965584586}},{"type":"Feature","geometry":{"type":"Point","coordinates":[-1.3023764,43.874981]},"properties":{"category":"shop","name":"La Cyclerie","phone":"+33 6 70 46 90 00","website":"https://lacyclerie-leon.fr/","osm_id":8776003838}}]}