{"type":"FeatureCollection","features":[{"type":"Feature","geometry":{"type":"Point","coordinates":[1.7234412,43.8236437]},"properties":{"category":"bakery","osm_id":443603952}},{"type":"Feature","geometry":{"type":"Point","coordinates":[1.7241877,43.8217888]},"properties":{"category":"bakery","name":"La Panetière","opening_hours":"PH,Mo-Su 06:30-19:30","osm_id":790043959}},{"type":"Feature","geometry":{"type":"Point","coordinates":[1.7233442,43.8210679]},"properties":{"category":"bakery","name":"Bronson fait du pain","opening_hours":"Tu-Fr 11:00-14:00,16:30-19:00; Sa 09:00-13:00","osm_id":790043964}},{"type":"Feature","geometry":{"type":"Point","coordinates":[1.7306751,43.8180509]},"properties":{"category":"bakery","name":"Les Délices De Couffouleux","osm_id":1920047335}},{"type":"Feature","geometry":{"type":"Point","coordinates":[1.7288205,43.8187721]},"properties":{"category":"bakery","name":"Le Week End","website":"https://brasserie-pain-cave-rabastens-81.fr/","osm_id":12572313118}},{"type":"Feature","geometry":{"type":"Point","coordinates":[1.7341849,43.814627]},"properties":{"category":"bakery","name":"Aux Gourmandes Traditions","osm_id":12814750336}}]}