{"type":"FeatureCollection","features":[{"type":"Feature","geometry":{"type":"Point","coordinates":[0.6637553,43.8492166]},"properties":{"category":"bakery","osm_id":3640974981}},{"type":"Feature","geometry":{"type":"Point","coordinates":[0.6653005,43.8466491]},"properties":{"category":"bakery","name":"Au Vieux Four","opening_hours":"Mo,Tu,Th-Sa 06:00-19:00; Su 06:00-12:30","osm_id":3642085026}},{"type":"Feature","geometry":{"type":"Point","coordinates":[0.6631497,43.8500914]},"properties":{"category":"bakery","osm_id":3658973665}},{"type":"Feature","geometry":{"type":"Point","coordinates":[0.6608702,43.8502154]},"properties":{"category":"bakery","osm_id":7467685685}}]}