{"type":"FeatureCollection","features":[{"type":"Feature","geometry":{"type":"Point","coordinates":[1.3898945,43.836959]},"properties":{"category":"bakery","name":"Boulangerie Pesquet","osm_id":7444320331}},{"type":"Feature","geometry":{"type":"Point","coordinates":[1.3926977,43.8315766]},"properties":{"category":"bakery","name":"La mie de pain","osm_id":7444320332}},{"type":"Feature","geometry":{"type":"Point","coordinates":[1.3882108,43.8403461]},"properties":{"category":"bakery","name":"Au palais des douceurs","osm_id":7444325857}},{"type":"Feature","geometry":{"type":"Point","coordinates":[1.3510219,43.8589888]},"properties":{"category":"bakery","name":"distributeur à pain","opening_hours":"24/7","osm_id":9645248547}},{"type":"Feature","geometry":{"type":"Point","coordinates":[1.3021636,43.8287247]},"properties":{"category":"bakery","name":"Secrets de pains","opening_hours":"Mo-Su 07:00-19:30","osm_id":10601403887}},{"type":"Feature","geometry":{"type":"Point","coordinates":[1.308371,43.8190373]},"properties":{"category":"compressed_air","osm_id":12993648972}},{"type":"Feature","geometry":{"type":"Point","coordinates":[1.3099842,43.8991334]},"properties":{"category":"repair","osm_id":13351315378}}]}