{"type":"FeatureCollection","features":[{"type":"Feature","geometry":{"type":"Point","coordinates":[7.48554,43.805783]},"properties":{"category":"bakery","name":"Eric Kayser","osm_id":5570765039}},{"type":"Feature","geometry":{"type":"Point","coordinates":[7.4486928,43.8777061]},"properties":{"category":"bakery","name":"Boulangerie Manguerra","opening_hours":"Mo, Tu, Th-Su 06:30-19:00","osm_id":11075146721}},{"type":"Feature","geometry":{"type":"Point","coordinates":[7.4483333,43.8777334]},"properties":{"category":"bakery","name":"Artisan boulanger pâtissier","opening_hours":"Tu, Th, Fr, Su 06:30-19:00; We, Sa 06:30-19:30","osm_id":11075146724}}]}