{"type":"FeatureCollection","features":[{"type":"Feature","geometry":{"type":"Point","coordinates":[1.4379294,43.8907786]},"properties":{"category":"bakery","name":"Boulangerie - Epicerie Soldadie","opening_hours":"Tu-Sa 07:00-12:30, 15:30-19:30; Su 07:00-12:30","phone":"+33 5 63 64 98 96","website":"https://www.franceboulangerie.fr/boulangeries/boulangerie-soldadie-nohic/","osm_id":9534648617}},{"type":"Feature","geometry":{"type":"Point","coordinates":[1.4948192,43.8469758]},"properties":{"category":"bakery","name":"Bake & Break","opening_hours":"Mo-Su 06:00-19:30","phone":"+33 7 66 90 33 88","osm_id":10219601372}},{"type":"Feature","geometry":{"type":"Point","coordinates":[1.4988759,43.8432507]},"properties":{"category":"bakery","name":"Le Pétrin Villemur","osm_id":10777582164}}]}