{"type":"FeatureCollection","features":[{"type":"Feature","geometry":{"type":"Point","coordinates":[6.5134179,43.845798]},"properties":{"category":"bakery","name":"Le fournil du Verdon","osm_id":1389728001}},{"type":"Feature","geometry":{"type":"Point","coordinates":[6.5127051,43.8466207]},"properties":{"category":"bakery","name":"Le Comptoir à Baguettes","opening_hours":"Tu-Su 07:00-19:00","osm_id":1692221688}},{"type":"Feature","geometry":{"type":"Point","coordinates":[6.5141607,43.846635]},"properties":{"category":"bakery","name":"Boulangerie Collomp","opening_hours":"Mo-Sa 07:00-19:00","osm_id":2293879476}},{"type":"Feature","geometry":{"type":"Point","coordinates":[6.5794825,43.8694638]},"properties":{"category":"repair","osm_id":12853415539}}]}