{"type":"FeatureCollection","features":[{"type":"Feature","geometry":{"type":"Point","coordinates":[4.5635442,43.8275326]},"properties":{"category":"bakery","name":"Les Délices de Jonquières","opening_hours":"Tu-Sa 06:30-12:30; Su 07:00-12:30; PH off","osm_id":1722720194}},{"type":"Feature","geometry":{"type":"Point","coordinates":[4.5581958,43.8308196]},"properties":{"category":"bakery","osm_id":7464222828}},{"type":"Feature","geometry":{"type":"Point","coordinates":[4.5624583,43.8827364]},"properties":{"category":"bakery","opening_hours":"Tu-Su 06:00-12:45; PH unknown","osm_id":8679130600}},{"type":"Feature","geometry":{"type":"Point","coordinates":[4.5618635,43.8819118]},"properties":{"category":"bakery","osm_id":8679130601}},{"type":"Feature","geometry":{"type":"Point","coordinates":[4.5919206,43.8762828]},"properties":{"category":"bakery","name":"Le Four à Délices","osm_id":11534554852}}]}