{"type":"FeatureCollection","features":[{"type":"Feature","geometry":{"type":"Point","coordinates":[5.3868347,43.8785542]},"properties":{"category":"shop","name":"Stations Bee's","phone":"+33 6 83 41 03 13","website":"https://www.stationsbees.com/","osm_id":2806620385}},{"type":"Feature","geometry":{"type":"Point","coordinates":[5.3851822,43.8797257]},"properties":{"category":"shop","name":"La Pédalerie","opening_hours":"Tu-Fr 09:00-12:00,14:00-19:00; Sa 09:00-12:00,14:00-18:00","phone":"+33490755307","osm_id":7778316157}},{"type":"Feature","geometry":{"type":"Point","coordinates":[5.3877483,43.8784615]},"properties":{"category":"shop","name":"Xtrem-bike shop","opening_hours":"Mo 14:00-19:00; Tu-Fr 09:30-19:00; Sa 10:00-19:00","phone":"+33490746166","osm_id":8018206890}},{"type":"Feature","geometry":{"type":"Point","coordinates":[5.3916524,43.878798]},"properties":{"category":"repair","osm_id":8951711359}},{"type":"Feature","geometry":{"type":"Point","coordinates":[5.3059825,43.8222669]},"properties":{"category":"shop","name":"Sun e-bike","opening_hours":"Apr-Sep 09:00-13:00,14:00-18:00; Oct Tu-Sa 09:00-13:00,14:00-18:00","phone":"+33 4 32 62 08 39","website":"https://www.sun-e-bike.com/","osm_id":13790023187}}]}