{"type":"FeatureCollection","features":[{"type":"Feature","geometry":{"type":"Point","coordinates":[5.8052184,43.8298436]},"properties":{"category":"bakery","osm_id":1780450286}},{"type":"Feature","geometry":{"type":"Point","coordinates":[5.8049151,43.8374899]},"properties":{"category":"bakery","name":"Boulangerie Ange","website":"https://www.boulangerie-ange.fr/boulangerie/?id=184","osm_id":1819070286}},{"type":"Feature","geometry":{"type":"Point","coordinates":[5.8412946,43.8777989]},"properties":{"category":"bakery","name":"Au fournil de marie","osm_id":1866619146}},{"type":"Feature","geometry":{"type":"Point","coordinates":[5.8054286,43.8382099]},"properties":{"category":"compressed_air","osm_id":3327602793}},{"type":"Feature","geometry":{"type":"Point","coordinates":[5.8225352,43.8500231]},"properties":{"category":"compressed_air","osm_id":3327603615}},{"type":"Feature","geometry":{"type":"Point","coordinates":[5.8272872,43.8542876]},"properties":{"category":"bakery","name":"Le Petrin de Fanny","osm_id":9411511517}},{"type":"Feature","geometry":{"type":"Point","coordinates":[5.8505112,43.8415667]},"properties":{"category":"compressed_air","osm_id":11181692117}},{"type":"Feature","geometry":{"type":"Point","coordinates":[5.804861,43.8296639]},"properties":{"category":"repair","opening_hours":"24/7","osm_id":11896863090}},{"type":"Feature","geometry":{"type":"Point","coordinates":[5.8411527,43.8325072]},"properties":{"category":"repair","opening_hours":"24/7","osm_id":11896863091}},{"type":"Feature","geometry":{"type":"Point","coordinates":[5.8500403,43.841895]},"properties":{"category":"compressed_air","osm_id":12314124576}},{"type":"Feature","geometry":{"type":"Point","coordinates":[5.8505038,43.8415536]},"properties":{"category":"compressed_air","osm_id":12314151194}},{"type":"Feature","geometry":{"type":"Point","coordinates":[5.8488877,43.8442475]},"properties":{"category":"compressed_air","osm_id":13340863877}}]}