{"type":"FeatureCollection","features":[{"type":"Feature","geometry":{"type":"Point","coordinates":[4.351812,43.8345994]},"properties":{"category":"shop","name":"Cycles Rebour","opening_hours":"Mo-Sa 09:00-12:00,14:00-19:00","phone":"+33 4 66 21 20 20","website":"https://www.cyclesrebour.com/","osm_id":436884775}},{"type":"Feature","geometry":{"type":"Point","coordinates":[4.3591784,43.8382151]},"properties":{"category":"repair","osm_id":483858313}},{"type":"Feature","geometry":{"type":"Point","coordinates":[4.3561465,43.8395454]},"properties":{"category":"shop","name":"Morgan Cycles & Cargos","opening_hours":"Tu-Sa 09:00-13:00,14:30-18:00","phone":"+33 4 66 21 09 45","website":"https://morgancycles.fr/","osm_id":919907889}},{"type":"Feature","geometry":{"type":"Point","coordinates":[4.3346689,43.8147471]},"properties":{"category":"shop","name":"Cycles Passieu","phone":"+33 466210916","osm_id":2346493835}},{"type":"Feature","geometry":{"type":"Point","coordinates":[4.3644762,43.8086668]},"properties":{"category":"shop","name":"Culture Vélo","phone":"+33466289289","osm_id":3268103546}},{"type":"Feature","geometry":{"type":"Point","coordinates":[4.3478817,43.8363803]},"properties":{"category":"shop","name":"Cycles Grousset","opening_hours":"Tu-Fr 09:00-12:00,14:00-18:30; Sa 09:00-12:00,14:00-18:00","phone":"+33 4 66 23 38 84","website":"www.groussetcycles.com","osm_id":6768743076}},{"type":"Feature","geometry":{"type":"Point","coordinates":[4.3487826,43.8139664]},"properties":{"category":"shop","name":"VPV Nîmes","osm_id":6768773710}},{"type":"Feature","geometry":{"type":"Point","coordinates":[4.3483874,43.832478]},"properties":{"category":"shop","name":"Bike Vélo Test","osm_id":7450462208}},{"type":"Feature","geometry":{"type":"Point","coordinates":[4.3309255,43.8112716]},"properties":{"category":"shop","name":"Rondos Cycles Shop","osm_id":7512829415}},{"type":"Feature","geometry":{"type":"Point","coordinates":[4.3620785,43.8405122]},"properties":{"category":"shop","name":"Cycles MAILLARD Répar'Vélo Nîmes","osm_id":13619845715}}]}