{"type":"FeatureCollection","features":[{"type":"Feature","geometry":{"type":"Point","coordinates":[0.1013546,43.8618243]},"properties":{"category":"bakery","name":"La Mi Do Ré","opening_hours":"Tu-Fr 06:30-13:00,16:00-19:00; Sa 06:30-13:00,16:00-18:30; Su 06:30-12:30; Mo off","osm_id":6423649277}},{"type":"Feature","geometry":{"type":"Point","coordinates":[0.105096,43.8611092]},"properties":{"category":"bakery","name":"Boulangerie des Mousquetaires","osm_id":11982830410}},{"type":"Feature","geometry":{"type":"Point","coordinates":[0.1006117,43.8593155]},"properties":{"category":"bakery","osm_id":13081626011}},{"type":"Feature","geometry":{"type":"Point","coordinates":[0.1020275,43.8608494]},"properties":{"category":"bakery","name":"Boulangerie Tonnerre","opening_hours":"We-Sa 06:30-13:00,16:00-19:00; Su,Mo 06:30-13:00","osm_id":13083994813}}]}