{"type":"FeatureCollection","features":[{"type":"Feature","geometry":{"type":"Point","coordinates":[4.9492054,43.804906]},"properties":{"category":"bakery","name":"Les Gourmandises du Lauron","phone":"+33 4 90 95 16 64","osm_id":454601623}},{"type":"Feature","geometry":{"type":"Point","coordinates":[4.9497646,43.805852]},"properties":{"category":"bakery","name":"Les Délices de Lucas Et Margaux","osm_id":454601626}},{"type":"Feature","geometry":{"type":"Point","coordinates":[4.9485764,43.8609479]},"properties":{"category":"bakery","name":"Le festival des pains","opening_hours":"Tu-Su 06:00-13:00, 09:00-18:00; Tu-Sa 15:30-20:00","osm_id":2303453394}},{"type":"Feature","geometry":{"type":"Point","coordinates":[4.9504888,43.8602305]},"properties":{"category":"bakery","osm_id":2303462638}},{"type":"Feature","geometry":{"type":"Point","coordinates":[4.9517414,43.8606327]},"properties":{"category":"bakery","osm_id":2303462646}},{"type":"Feature","geometry":{"type":"Point","coordinates":[4.9491784,43.8611556]},"properties":{"category":"bakery","osm_id":6538757627}},{"type":"Feature","geometry":{"type":"Point","coordinates":[4.944641,43.8365302]},"properties":{"category":"bakery","name":"Boulangerie Vidal Alain","phone":"+33 4 90 95 00 21","osm_id":6547837607}},{"type":"Feature","geometry":{"type":"Point","coordinates":[4.949114,43.8320494]},"properties":{"category":"bakery","name":"Le Comptoir des Pains","osm_id":6553308971}},{"type":"Feature","geometry":{"type":"Point","coordinates":[4.9980073,43.8163799]},"properties":{"category":"bakery","name":"Pause Patisserie","phone":"+33 6 14 31 67 19","osm_id":6559489921}},{"type":"Feature","geometry":{"type":"Point","coordinates":[4.9017827,43.8764101]},"properties":{"category":"bakery","osm_id":6723217029}},{"type":"Feature","geometry":{"type":"Point","coordinates":[4.91396,43.8896978]},"properties":{"category":"bakery","name":"Meinado","opening_hours":"Mo-Sa 06:00-20:00","osm_id":6785786105}},{"type":"Feature","geometry":{"type":"Point","coordinates":[4.9484045,43.8935836]},"properties":{"category":"bakery","name":"Maison Valentina","opening_hours":"Mo-Sa 06:00-19:30; Su off","osm_id":11311241295}},{"type":"Feature","geometry":{"type":"Point","coordinates":[4.9098313,43.8725118]},"properties":{"category":"shop","name":"Speed Cycles","osm_id":13020530838}},{"type":"Feature","geometry":{"type":"Point","coordinates":[4.9061078,43.8789713]},"properties":{"category":"shop","name":"Noves Bikes","phone":"+33 4 65 87 17 07","website":"https://www.noves-bikes.com/","osm_id":13020557383}}]}