{"type":"FeatureCollection","features":[{"type":"Feature","geometry":{"type":"Point","coordinates":[5.7857148,43.8326717]},"properties":{"category":"shop","name":"MBK Bachelas","osm_id":2917314302}},{"type":"Feature","geometry":{"type":"Point","coordinates":[5.7870828,43.8222187]},"properties":{"category":"compressed_air","osm_id":3327586441}},{"type":"Feature","geometry":{"type":"Point","coordinates":[5.799065,43.8202913]},"properties":{"category":"compressed_air","osm_id":3327602056}},{"type":"Feature","geometry":{"type":"Point","coordinates":[5.7873753,43.8233399]},"properties":{"category":"compressed_air","osm_id":3327606468}},{"type":"Feature","geometry":{"type":"Point","coordinates":[5.7935462,43.8234537]},"properties":{"category":"repair","osm_id":10054041448}},{"type":"Feature","geometry":{"type":"Point","coordinates":[5.7944559,43.8184998]},"properties":{"category":"shop","name":"New Cycles","opening_hours":"Mo-Fr 09:15-12:00,14:00-18:45; Sa 09:30-12:15,14:00-18:30","osm_id":11085361059}},{"type":"Feature","geometry":{"type":"Point","coordinates":[5.7879278,43.8297619]},"properties":{"category":"repair","osm_id":13358419613}}]}