{"type":"FeatureCollection","features":[{"type":"Feature","geometry":{"type":"Point","coordinates":[5.0519114,43.9191417]},"properties":{"category":"bakery","name":"Banette","osm_id":1325547519}},{"type":"Feature","geometry":{"type":"Point","coordinates":[5.0615178,43.9976137]},"properties":{"category":"bakery","name":"Martin Père et Fils","osm_id":1410031163}},{"type":"Feature","geometry":{"type":"Point","coordinates":[5.0577748,43.9961358]},"properties":{"category":"shop","name":"L'Officina Bici da Corsa","osm_id":1410974058}},{"type":"Feature","geometry":{"type":"Point","coordinates":[5.0594685,43.9969951]},"properties":{"category":"bakery","name":"L'épi curieux","opening_hours":"06:30-19:00","osm_id":1410984784}},{"type":"Feature","geometry":{"type":"Point","coordinates":[5.0185102,43.9210582]},"properties":{"category":"shop","osm_id":1987293822}},{"type":"Feature","geometry":{"type":"Point","coordinates":[5.053603,43.918108]},"properties":{"category":"bakery","name":"Fromenterie","osm_id":2032109899}},{"type":"Feature","geometry":{"type":"Point","coordinates":[5.055641,43.9179587]},"properties":{"category":"bakery","osm_id":2466644565}},{"type":"Feature","geometry":{"type":"Point","coordinates":[5.0635769,43.9269712]},"properties":{"category":"bakery","name":"Boulangerie d'ici","osm_id":2473609449}},{"type":"Feature","geometry":{"type":"Point","coordinates":[5.0636487,43.9269476]},"properties":{"category":"bakery","name":"Boulangerie d'ici","osm_id":2476553191}},{"type":"Feature","geometry":{"type":"Point","coordinates":[5.0514497,43.9195909]},"properties":{"category":"bakery","name":"Boulangerie Cattoën","osm_id":2493696041}},{"type":"Feature","geometry":{"type":"Point","coordinates":[5.0532602,43.9179853]},"properties":{"category":"bakery","name":"Artisan boulanger pâtissier","osm_id":2493769338}},{"type":"Feature","geometry":{"type":"Point","coordinates":[5.0517981,43.9205007]},"properties":{"category":"shop","name":"Velo Services","osm_id":3739928740}},{"type":"Feature","geometry":{"type":"Point","coordinates":[5.0519311,43.9192682]},"properties":{"category":"shop","name":"K. Velo","osm_id":3739930194}},{"type":"Feature","geometry":{"type":"Point","coordinates":[5.0477525,43.9219259]},"properties":{"category":"bakery","name":"L'art des pains","osm_id":6786668785}},{"type":"Feature","geometry":{"type":"Point","coordinates":[5.0298958,43.9572667]},"properties":{"category":"bakery","name":"Au bonheur des pains","opening_hours":"Mo,Tu,Th,Fr 06:30-13:00,16:00-19:00; Sa-Su 07:00-13:00","phone":"+33 4 90 32 49 38","osm_id":7600048456}},{"type":"Feature","geometry":{"type":"Point","coordinates":[5.0496545,43.993147]},"properties":{"category":"bakery","osm_id":7600057235}},{"type":"Feature","geometry":{"type":"Point","coordinates":[5.0621784,43.9305913]},"properties":{"category":"shop","name":"Mondovélo Sport 2000","osm_id":8879683770}},{"type":"Feature","geometry":{"type":"Point","coordinates":[5.0026926,43.9269201]},"properties":{"category":"bakery","name":"Valéry Couston","phone":"+33 4 90 33 86 15","osm_id":9135653396}},{"type":"Feature","geometry":{"type":"Point","coordinates":[5.0473057,43.9174141]},"properties":{"category":"repair","osm_id":12786137320}},{"type":"Feature","geometry":{"type":"Point","coordinates":[5.0448828,43.9185918]},"properties":{"category":"bakery","osm_id":12865030630}},{"type":"Feature","geometry":{"type":"Point","coordinates":[5.0569582,43.9981313]},"properties":{"category":"bakery","name":"Boulangerie Au feu de bois","opening_hours":"Mo off; Tu-Sa 06:30-12:30; Su off","phone":"+33 4 90 60 00 74","osm_id":13243135803}},{"type":"Feature","geometry":{"type":"Point","coordinates":[5.0486504,43.9120973]},"properties":{"category":"repair","osm_id":13810392323}}]}