{"type":"FeatureCollection","features":[{"type":"Feature","geometry":{"type":"Point","coordinates":[3.9523904,43.9404147]},"properties":{"category":"bakery","name":"Au Moulin de Bertou","opening_hours":"Tu-Fr 06:30-13:00,16:30-19:00; Sa 06:30-13:00; Su 06:30-12:30","osm_id":673549533}},{"type":"Feature","geometry":{"type":"Point","coordinates":[3.949361,43.9422699]},"properties":{"category":"bakery","name":"Pain artisanal - pâtisserie Dugas","osm_id":7814016727}},{"type":"Feature","geometry":{"type":"Point","coordinates":[3.9974973,43.9119553]},"properties":{"category":"shop","name":"Run cycle","phone":"+33466884973","osm_id":11763059530}}]}