{"type":"FeatureCollection","features":[{"type":"Feature","geometry":{"type":"Point","coordinates":[-0.0594112,43.9362902]},"properties":{"category":"bakery","name":"Garens","osm_id":4736423684}},{"type":"Feature","geometry":{"type":"Point","coordinates":[-0.0702104,43.9343151]},"properties":{"category":"bakery","name":"Garens","osm_id":4736934433}},{"type":"Feature","geometry":{"type":"Point","coordinates":[-0.0705873,43.9345324]},"properties":{"category":"bakery","osm_id":4736934434}},{"type":"Feature","geometry":{"type":"Point","coordinates":[-0.0443548,43.9505403]},"properties":{"category":"bakery","name":"P.Lartigue","opening_hours":"Mo-Sa 07:00-13:00,15:30-19:00","osm_id":6049531698}},{"type":"Feature","geometry":{"type":"Point","coordinates":[-0.0432213,43.9499054]},"properties":{"category":"repair","osm_id":11164796829}}]}