{"type":"FeatureCollection","features":[{"type":"Feature","geometry":{"type":"Point","coordinates":[3.6272898,43.9913861]},"properties":{"category":"bakery","name":"Boulangerie Pena","opening_hours":"Tu-Sa 06:00-13:30,16:00-19:00; Su 06:00-12:30","phone":"+33 4 67 99 08 30","website":"https://www.les-douceurs-de-lhorloge.fr","osm_id":2363134395}},{"type":"Feature","geometry":{"type":"Point","coordinates":[3.6030587,43.9878505]},"properties":{"category":"bakery","osm_id":5671835540}},{"type":"Feature","geometry":{"type":"Point","coordinates":[3.6072047,43.9915844]},"properties":{"category":"bakery","name":"Laurent Voisin","opening_hours":"Th-Tu 07:00-10:45, Mo,Tu,Th,Fr 16:00-20:00","osm_id":5671835543}},{"type":"Feature","geometry":{"type":"Point","coordinates":[3.6065791,43.9915515]},"properties":{"category":"bakery","name":"Boulangerie Segondy","opening_hours":"Tu-Sa 06:30-12:30,15:30-19:00; Su 06:30-12:30","phone":"+33 4 67 81 14 49","osm_id":5671835544}},{"type":"Feature","geometry":{"type":"Point","coordinates":[3.6767426,43.997292]},"properties":{"category":"bakery","name":"Lou Signal","opening_hours":"07:00-12:30; We off","phone":"+33 4 67 81 31 90","osm_id":9228360134}},{"type":"Feature","geometry":{"type":"Point","coordinates":[3.6028533,43.986468]},"properties":{"category":"shop","name":"La Bicyclette Viganaise","phone":"+33 4 67 81 11 88","osm_id":11986923945}},{"type":"Feature","geometry":{"type":"Point","coordinates":[3.6031606,43.9831008]},"properties":{"category":"repair","osm_id":13068286779}}]}