{"type":"FeatureCollection","features":[{"type":"Feature","geometry":{"type":"Point","coordinates":[2.1523557,43.9301363]},"properties":{"category":"shop","name":"Albi Cycles","phone":"+33 5 63 38 95 77","website":"https://www.albi-cycles.fr/","osm_id":2336138596}},{"type":"Feature","geometry":{"type":"Point","coordinates":[2.1113037,43.9165914]},"properties":{"category":"shop","name":"Le temp du vélo","opening_hours":"Mo-Fr 09:30-12:30,14:30-18:30; Sa 10:00-17:30","phone":"+33 563541617","website":"https://www.facebook.com/letempsduveloalbi","osm_id":2411187362}},{"type":"Feature","geometry":{"type":"Point","coordinates":[2.1296289,43.9110849]},"properties":{"category":"compressed_air","osm_id":9268893897}},{"type":"Feature","geometry":{"type":"Point","coordinates":[2.1460492,43.9302394]},"properties":{"category":"shop","name":"Docteur vélo & Mister bike","phone":"+33 9 83 73 46 26","website":"https://docteur-velo-mister-bike.business.site/","osm_id":9574700106}},{"type":"Feature","geometry":{"type":"Point","coordinates":[2.1455113,43.9288173]},"properties":{"category":"shop","name":"L'Occ Bike","phone":"+33 563765520","website":"https://locc-bike.com/","osm_id":10694330591}},{"type":"Feature","geometry":{"type":"Point","coordinates":[2.1597126,43.9304081]},"properties":{"category":"shop","name":"GPcycles","phone":"+33 5 63 54 13 49","website":"https://www.gpcycles.fr/","osm_id":10698090433}},{"type":"Feature","geometry":{"type":"Point","coordinates":[2.1570034,43.9425458]},"properties":{"category":"shop","name":"Atelier réparation de vélos","phone":"+33 5 63 49 10 95","osm_id":10698090434}},{"type":"Feature","geometry":{"type":"Point","coordinates":[2.1429389,43.9233887]},"properties":{"category":"repair","osm_id":11801739583}},{"type":"Feature","geometry":{"type":"Point","coordinates":[2.1482928,43.9269135]},"properties":{"category":"repair","osm_id":11833391484}},{"type":"Feature","geometry":{"type":"Point","coordinates":[2.1388458,43.9197076]},"properties":{"category":"repair","osm_id":11850316904}},{"type":"Feature","geometry":{"type":"Point","coordinates":[2.1702326,43.9537282]},"properties":{"category":"repair","name":"Stand velo","osm_id":11876213280}},{"type":"Feature","geometry":{"type":"Point","coordinates":[2.1473416,43.924593]},"properties":{"category":"repair","osm_id":14132888703}}]}