{"type":"FeatureCollection","features":[{"type":"Feature","geometry":{"type":"Point","coordinates":[7.3114751,43.974602]},"properties":{"category":"bakery","name":"Chez Manette","osm_id":930415483}},{"type":"Feature","geometry":{"type":"Point","coordinates":[7.3120924,43.9745306]},"properties":{"category":"bakery","osm_id":10801761112}},{"type":"Feature","geometry":{"type":"Point","coordinates":[7.3105288,43.9745187]},"properties":{"category":"repair","osm_id":12107958940}},{"type":"Feature","geometry":{"type":"Point","coordinates":[7.3918066,43.9768339]},"properties":{"category":"repair","osm_id":13820579931}},{"type":"Feature","geometry":{"type":"Point","coordinates":[7.3319256,43.9909524]},"properties":{"category":"repair","osm_id":13820579932}}]}