{"type":"FeatureCollection","features":[{"type":"Feature","geometry":{"type":"Point","coordinates":[2.2094371,43.9529547]},"properties":{"category":"bakery","name":"L'Arthésienne","phone":"+33 5 63 55 68 97","website":"http://www.xn--larthsienne-fbb.fr/","osm_id":7521558047}},{"type":"Feature","geometry":{"type":"Point","coordinates":[2.2104754,43.9475718]},"properties":{"category":"repair","osm_id":11801722490}},{"type":"Feature","geometry":{"type":"Point","coordinates":[2.2135764,43.9129576]},"properties":{"category":"bakery","osm_id":12794268339}},{"type":"Feature","geometry":{"type":"Point","coordinates":[2.2072733,43.9475946]},"properties":{"category":"shop","name":"JLC Bike Shop","phone":"+33 5 63 78 11 63","website":"http://www.cycleandouard.com/","osm_id":13364127644}}]}