{"type":"FeatureCollection","features":[{"type":"Feature","geometry":{"type":"Point","coordinates":[3.1790637,43.9008284]},"properties":{"category":"bakery","name":"L&M Micheli Boulangerie Epicerie","opening_hours":"Mo,Tu,Th-Sa 08:00-12:30,16:30-19:00; We 08:00-12:30","osm_id":11818175978}},{"type":"Feature","geometry":{"type":"Point","coordinates":[3.1936055,43.9731257]},"properties":{"category":"repair","osm_id":12141414033}},{"type":"Feature","geometry":{"type":"Point","coordinates":[3.1995741,43.9706535]},"properties":{"category":"shop","name":"ABCycles","opening_hours":"Mo-Sa 09:00-19:00","phone":"+33 6 15 37 79 42","website":"https://www.abcycleslarzac12.fr/","osm_id":12826842620}}]}