{"type":"FeatureCollection","features":[{"type":"Feature","geometry":{"type":"Point","coordinates":[4.195163,43.907774]},"properties":{"category":"bakery","name":"Boulangerie-Patisserie La Fonsoise","osm_id":2024699089}},{"type":"Feature","geometry":{"type":"Point","coordinates":[4.1069535,43.9883663]},"properties":{"category":"bakery","name":"Douceurs et Pains","osm_id":7621658707}},{"type":"Feature","geometry":{"type":"Point","coordinates":[4.1260193,43.929575]},"properties":{"category":"bakery","osm_id":9177749871}},{"type":"Feature","geometry":{"type":"Point","coordinates":[4.1647498,43.9712353]},"properties":{"category":"shop","name":"Bycycle suspension","opening_hours":"Mo-Fr 09:30-18:30","website":"https://www.bycyclesuspension.com/","osm_id":12106101310}}]}