{"type":"FeatureCollection","features":[{"type":"Feature","geometry":{"type":"Point","coordinates":[5.2939379,43.9015129]},"properties":{"category":"bakery","name":"Au Vieux Temps","osm_id":1026852258}},{"type":"Feature","geometry":{"type":"Point","coordinates":[5.2000946,43.9106613]},"properties":{"category":"bakery","name":"Maison Chazarin","opening_hours":"Tu-Su 06:30-18:30","osm_id":3415948753}},{"type":"Feature","geometry":{"type":"Point","coordinates":[5.2006786,43.9110619]},"properties":{"category":"bakery","name":"Boulangerie de Mamie Jean","opening_hours":"07:00-19:00; We off","osm_id":3415948754}},{"type":"Feature","geometry":{"type":"Point","coordinates":[5.294009,43.9015251]},"properties":{"category":"bakery","name":"Au temps passé","osm_id":7677237620}},{"type":"Feature","geometry":{"type":"Point","coordinates":[5.200594,43.9109797]},"properties":{"category":"bakery","name":"Le fournil de mamie Jeanne","opening_hours":"Mo,Tu,Th-Su 07:00-18:30; We 07:00-12:30","phone":"+33 4 90 72 09 34","osm_id":8594352606}}]}