{"type":"FeatureCollection","features":[{"type":"Feature","geometry":{"type":"Point","coordinates":[2.0295393,43.9181691]},"properties":{"category":"bakery","name":"Les pains marssacois","osm_id":10244241992}},{"type":"Feature","geometry":{"type":"Point","coordinates":[2.0308439,43.9173007]},"properties":{"category":"bakery","name":"Michel Belin","opening_hours":"Mo-Fr 07:30-13:00, 15:30-19:00; Sa 07:30-12:30, 15:30-19:00; Su 07:30-12:30","phone":"+33 5 63 53 23 57","website":"https://www.michelbelin.com/","osm_id":10889036049}},{"type":"Feature","geometry":{"type":"Point","coordinates":[2.0301614,43.9176956]},"properties":{"category":"bakery","name":"L'Ostal des pains","osm_id":10925831315}},{"type":"Feature","geometry":{"type":"Point","coordinates":[2.0293778,43.9184388]},"properties":{"category":"shop","name":"FloVélo","phone":"+33 5 31 23 67 80","website":"https://flovelo.fr/","osm_id":13515604196}}]}