{"type":"FeatureCollection","features":[{"type":"Feature","geometry":{"type":"Point","coordinates":[-0.9229948,43.9345695]},"properties":{"category":"bakery","name":"Boulangerie Jérôme Darricau","opening_hours":"Tu-Sa 06:00-13:00,15:30-19:30; Su 07:00-12:45","phone":"+33 5 40 77 47 75","website":"https://maison-darricau.business.site/","osm_id":1910150723}},{"type":"Feature","geometry":{"type":"Point","coordinates":[-0.9228231,43.9348863]},"properties":{"category":"bakery","name":"Boulangerie Mauricomme Jean-Bernard","opening_hours":"Mo-Fr 05:30-13:00,15:30-19:00; Sa 05:30-13:00","phone":"+33 5 58 57 10 33","osm_id":1910150873}}]}