{"type":"FeatureCollection","features":[{"type":"Feature","geometry":{"type":"Point","coordinates":[1.9143995,43.9829934]},"properties":{"category":"bakery","osm_id":1313820972}},{"type":"Feature","geometry":{"type":"Point","coordinates":[1.9105244,43.9825528]},"properties":{"category":"bakery","osm_id":4986758216}},{"type":"Feature","geometry":{"type":"Point","coordinates":[1.9468289,43.9444477]},"properties":{"category":"bakery","name":"La boulangerie de Loona","opening_hours":"Th-Tu 07:00-13:00, Mo,Tu,Th,Fr 16:00-19:00","osm_id":8270810830}},{"type":"Feature","geometry":{"type":"Point","coordinates":[1.9164264,43.9462971]},"properties":{"category":"shop","name":"En roue libre","opening_hours":"Mo-Su 09:00-19:00","phone":"+33 6 50 62 54 58","website":"https://www.locationvelogaillac.fr","osm_id":8980701791}},{"type":"Feature","geometry":{"type":"Point","coordinates":[1.9026625,43.90166]},"properties":{"category":"bakery","name":"La Panetière","opening_hours":"Mo-Su 07:00-20:00","phone":"+33 5 63 58 71 32","osm_id":9028627535}}]}