{"type":"FeatureCollection","features":[{"type":"Feature","geometry":{"type":"Point","coordinates":[3.5177625,43.9669892]},"properties":{"category":"bakery","opening_hours":"Mo-Su 05:00-13:00,17:00-20:00","osm_id":871994283}},{"type":"Feature","geometry":{"type":"Point","coordinates":[3.5914219,43.9742986]},"properties":{"category":"bakery","name":"Boulangerie, Patisserie","osm_id":2435123637}},{"type":"Feature","geometry":{"type":"Point","coordinates":[3.5725975,43.9887386]},"properties":{"category":"bakery","name":"Au Pain Cévenol","osm_id":11035322558}}]}