{"type":"FeatureCollection","features":[{"type":"Feature","geometry":{"type":"Point","coordinates":[0.3701844,43.9518963]},"properties":{"category":"bakery","osm_id":1872954555}},{"type":"Feature","geometry":{"type":"Point","coordinates":[0.373768,43.9575075]},"properties":{"category":"bakery","name":"Banette","opening_hours":"Tu-Sa 07:00-13:00,15:00-19:30; Su 07:00-12:30","osm_id":5624348009}},{"type":"Feature","geometry":{"type":"Point","coordinates":[0.3768138,43.9569447]},"properties":{"category":"bakery","name":"La Panetiere Aux Saveurs D'Antan","phone":"+33 5 62 29 17 78","osm_id":5624348543}},{"type":"Feature","geometry":{"type":"Point","coordinates":[0.3714654,43.9578455]},"properties":{"category":"bakery","osm_id":5624348546}},{"type":"Feature","geometry":{"type":"Point","coordinates":[0.3661142,43.9578814]},"properties":{"category":"bakery","name":"Le Fournil de Condom","osm_id":6331403350}}]}