{"type":"FeatureCollection","features":[{"type":"Feature","geometry":{"type":"Point","coordinates":[5.7806038,43.9589531]},"properties":{"category":"bakery","name":"Maison Le Toulouzan","opening_hours":"We-Mo,PH 06:00-13:00,15:00-19:00","osm_id":2400595429}},{"type":"Feature","geometry":{"type":"Point","coordinates":[5.7787149,43.9577175]},"properties":{"category":"shop","name":"Bachelas Bike","opening_hours":"Tu-Sa 09:00-12:30,14:00-19:00","phone":"+33 4 92 75 12 47","osm_id":2401725893}},{"type":"Feature","geometry":{"type":"Point","coordinates":[5.78031,43.958785]},"properties":{"category":"bakery","name":"Le soleil de Provence","opening_hours":"Fr-We 06:00-13:00, Mo-We,Fr,Sa 15:00-19:00","osm_id":2403617354}},{"type":"Feature","geometry":{"type":"Point","coordinates":[5.7794659,43.9606524]},"properties":{"category":"bakery","name":"Baguépi","opening_hours":"Mo-Fr 06:00-13:00,15:30-19:00","osm_id":2405850792}},{"type":"Feature","geometry":{"type":"Point","coordinates":[5.7778405,43.9582734]},"properties":{"category":"bakery","name":"Boulangerie - Pâtisserie","opening_hours":"Mo,Tu,Th-Fr 06:00-14:00,15:00-19:00; Sa 06:00-13:00,15:00-19:00; Su 06:00-12:30","osm_id":3111045574}},{"type":"Feature","geometry":{"type":"Point","coordinates":[5.7899965,43.9026687]},"properties":{"category":"bakery","name":"Boulangerie Pâtisserie de St. Maime","osm_id":5996076814}},{"type":"Feature","geometry":{"type":"Point","coordinates":[5.716334,43.9091403]},"properties":{"category":"bakery","name":"Fabris","osm_id":9043820822}},{"type":"Feature","geometry":{"type":"Point","coordinates":[5.7799286,43.9589023]},"properties":{"category":"bakery","name":"La Source","opening_hours":"Mo 08:00-19:00, We-Sa 08:00-19:00","phone":"+33 6 03 01 65 86","website":"https://boulangerie-lasource.fr/","osm_id":9835945617}}]}