{"type":"FeatureCollection","features":[{"type":"Feature","geometry":{"type":"Point","coordinates":[6.2280792,44.0900177]},"properties":{"category":"bakery","name":"Le Pétrin Ribeïrou","opening_hours":"Mo-Su 07:00-20:00; Th off","osm_id":1499117115}},{"type":"Feature","geometry":{"type":"Point","coordinates":[6.2340737,44.0916076]},"properties":{"category":"bakery","name":"Ô Royaume des Ficelles","opening_hours":"Mo-Fr 06:00-19:00; Sa 06:00-13:00","osm_id":1782326974}},{"type":"Feature","geometry":{"type":"Point","coordinates":[6.2337886,44.0922539]},"properties":{"category":"bakery","name":"Patisserie Armand","opening_hours":"Tu-Sa 07:00-19:30; Su 07:00-12:30","osm_id":2505754660}},{"type":"Feature","geometry":{"type":"Point","coordinates":[6.232153,44.0915064]},"properties":{"category":"bakery","name":"Boulangerie Farge","opening_hours":"Tu-Su 06:30-13:00,15:00-19:00","osm_id":2963347568}},{"type":"Feature","geometry":{"type":"Point","coordinates":[6.2325891,44.0920094]},"properties":{"category":"bakery","name":"Digne d'un pain","opening_hours":"Mo-Sa 06:30-13:00,15:30-19:00; Th 06:30-13:00","osm_id":3040510833}},{"type":"Feature","geometry":{"type":"Point","coordinates":[6.2368235,44.0923919]},"properties":{"category":"bakery","name":"Les Gourmands Disent","osm_id":3364599512}},{"type":"Feature","geometry":{"type":"Point","coordinates":[6.2129348,44.0861364]},"properties":{"category":"bakery","name":"Stéphanie Torrent","osm_id":3391055562}},{"type":"Feature","geometry":{"type":"Point","coordinates":[6.2306482,44.0915345]},"properties":{"category":"repair","osm_id":4413400734}},{"type":"Feature","geometry":{"type":"Point","coordinates":[6.2504856,44.0997891]},"properties":{"category":"repair","osm_id":6549729479}},{"type":"Feature","geometry":{"type":"Point","coordinates":[6.2150846,44.0870841]},"properties":{"category":"bakery","name":"Les Miches à Lulu","opening_hours":"Tu-Sa 07:30-13:00,15:00-19:00","osm_id":7227514963}},{"type":"Feature","geometry":{"type":"Point","coordinates":[6.2057005,44.0841411]},"properties":{"category":"bakery","name":"Maison Rodrigues","osm_id":8383688724}},{"type":"Feature","geometry":{"type":"Point","coordinates":[6.2359214,44.0942893]},"properties":{"category":"bakery","name":"Stéphanie Torrent","osm_id":12311483697}},{"type":"Feature","geometry":{"type":"Point","coordinates":[6.2306563,44.0915347]},"properties":{"category":"wash","osm_id":13020388762}}]}