{"type":"FeatureCollection","features":[{"type":"Feature","geometry":{"type":"Point","coordinates":[3.3595954,44.0228721]},"properties":{"category":"bakery","osm_id":4711461127}},{"type":"Feature","geometry":{"type":"Point","coordinates":[3.3004174,44.0223281]},"properties":{"category":"bakery","name":"L'Enfariné du Roc","opening_hours":"Mo-Tu 08:30-12:30,16:00-19:00; We off; Tu-Fr 08:30-12:30,16:00-19:00; Su 08:00-13:00;Jul-Aug: Mo-Su 07:30-19:00","phone":"+33 5 65 62 21 81","website":"https://www.lenfarineduroc.fr/","osm_id":8368166664}}]}