{"type":"FeatureCollection","features":[{"type":"Feature","geometry":{"type":"Point","coordinates":[-0.3254354,44.0353126]},"properties":{"category":"bakery","name":"Boulangerie Yves Fresquet","opening_hours":"Tu-Sa 05:00-14:00,16:00-20:00; Su 06:00-13:00","phone":"+33 5 58 45 52 05","osm_id":1564463975}},{"type":"Feature","geometry":{"type":"Point","coordinates":[-0.322632,44.0329774]},"properties":{"category":"bakery","name":"Boulangerie Belmonte","opening_hours":"Mo-Sa 06:00-13:00,15:30-19:30; We off; Su 06:00-13:00","phone":"+33 5 58 45 50 35","website":"https://www.boulangerie-patisserie-roquefort.fr/","osm_id":5322802077}}]}