{"type":"FeatureCollection","features":[{"type":"Feature","geometry":{"type":"Point","coordinates":[4.5786362,44.0074713]},"properties":{"category":"bakery","name":"Le Comptoir du Lion","opening_hours":"Mo-Su 06:00-13:00, Mo-Sa 16:00-19:00","phone":"+33 4 66 37 25 16","osm_id":3572908493}},{"type":"Feature","geometry":{"type":"Point","coordinates":[4.594016,44.091979]},"properties":{"category":"bakery","name":"Caractères de Pain","osm_id":6657836373}},{"type":"Feature","geometry":{"type":"Point","coordinates":[4.5937599,44.091766]},"properties":{"category":"bakery","name":"Hermet","osm_id":6657836377}},{"type":"Feature","geometry":{"type":"Point","coordinates":[4.5035834,44.0200852]},"properties":{"category":"bakery","name":"Epis Flute","opening_hours":"Mo-We,Fr,Sa 07:30-12:30,16:30-18:30; Su 07:30-13:00","phone":"+33 4 11 71 95 45","osm_id":8989496542}}]}