{"type":"FeatureCollection","features":[{"type":"Feature","geometry":{"type":"Point","coordinates":[4.7934999,44.0232481]},"properties":{"category":"bakery","osm_id":2024949693}},{"type":"Feature","geometry":{"type":"Point","coordinates":[4.755469,44.0742822]},"properties":{"category":"bakery","name":"Boulangerie patisserie","osm_id":3076847378}},{"type":"Feature","geometry":{"type":"Point","coordinates":[4.7745989,44.0047101]},"properties":{"category":"bakery","name":"Union Agricole Pujaut","opening_hours":"Mo-Sa 07:00-12:30","phone":"+33490263025","osm_id":5893250515}},{"type":"Feature","geometry":{"type":"Point","coordinates":[4.7758482,44.0033017]},"properties":{"category":"bakery","name":"Petit Pâton","opening_hours":"We-Fr 07:00-12:30, 16:00-19:00; Sa-Su 07:30-12:30","phone":"+33 7 85 75 26 28","osm_id":5893250523}},{"type":"Feature","geometry":{"type":"Point","coordinates":[4.7734657,44.0466506]},"properties":{"category":"bakery","name":"Le Fournil de Roquemaure","opening_hours":"Mo-Fr 06:00-19:00","phone":"+33 4 66 82 84 95","osm_id":10115820791}},{"type":"Feature","geometry":{"type":"Point","coordinates":[4.7282351,44.0631109]},"properties":{"category":"bakery","osm_id":10304420060}},{"type":"Feature","geometry":{"type":"Point","coordinates":[4.7790564,44.0523999]},"properties":{"category":"bakery","name":"Au palais gourmand","osm_id":12116445290}},{"type":"Feature","geometry":{"type":"Point","coordinates":[4.7787549,44.0524317]},"properties":{"category":"shop","name":"VELIO - Atelier mobile","opening_hours":"Tu 09:00-13:00","phone":"+33 6 22 62 81 97","osm_id":13055929857}}]}