{"type":"FeatureCollection","features":[{"type":"Feature","geometry":{"type":"Point","coordinates":[3.6429996,44.0801475]},"properties":{"category":"bakery","name":"Pains & Compagnie","osm_id":759780967}},{"type":"Feature","geometry":{"type":"Point","coordinates":[3.678267,44.0323459]},"properties":{"category":"bakery","name":"La Maison du Pain","opening_hours":"Tu-Su 07:30-12:30","osm_id":6658829325}},{"type":"Feature","geometry":{"type":"Point","coordinates":[3.642635,44.0802539]},"properties":{"category":"bakery","name":"Le Fournil Cénévol","osm_id":6660459810}}]}