{"type":"FeatureCollection","features":[{"type":"Feature","geometry":{"type":"Point","coordinates":[7.5938404,44.0874057]},"properties":{"category":"bakery","name":"Boulangerie des Merveilles","opening_hours":"Mo, Tu, Fr-Su 07:00-19:00","osm_id":769232477}},{"type":"Feature","geometry":{"type":"Point","coordinates":[7.5860438,44.0570547]},"properties":{"category":"bakery","name":"Les délices de la Vallée","opening_hours":"Tu-Sa 07:00-13:00, Tu-Sa 16:00-18:30, Su 07:00-12:00","osm_id":1753034678}}]}