{"type":"FeatureCollection","features":[{"type":"Feature","geometry":{"type":"Point","coordinates":[6.0304942,44.0466368]},"properties":{"category":"bakery","name":"Le Baguette Magique","osm_id":1395370929}},{"type":"Feature","geometry":{"type":"Point","coordinates":[6.0029961,44.0814336]},"properties":{"category":"bakery","name":"Au pain de Jade","osm_id":4012400801}},{"type":"Feature","geometry":{"type":"Point","coordinates":[6.0091688,44.0986454]},"properties":{"category":"repair","osm_id":6959750981}},{"type":"Feature","geometry":{"type":"Point","coordinates":[6.0215056,44.0851517]},"properties":{"category":"bakery","name":"Chez Pomponette","osm_id":11280953595}},{"type":"Feature","geometry":{"type":"Point","coordinates":[6.0096005,44.0982925]},"properties":{"category":"wash","name":"Nettoyeur basse pression vélos","osm_id":13532400772}}]}