{"type":"FeatureCollection","features":[{"type":"Feature","geometry":{"type":"Point","coordinates":[-0.909736,44.0322276]},"properties":{"category":"bakery","name":"Boulangerie Tachon","phone":"+33 5 58 07 83 14","osm_id":1894653703}},{"type":"Feature","geometry":{"type":"Point","coordinates":[-0.9096609,44.0310629]},"properties":{"category":"bakery","name":"Au péché mignon","opening_hours":"Mo-Fr 06:15-13:00,16:00-19:30; We off; Sa 06:15-13:00","phone":"+33 5 58 07 80 04","osm_id":1894654673}},{"type":"Feature","geometry":{"type":"Point","coordinates":[-0.9101972,44.0330688]},"properties":{"category":"bakery","name":"Le Fournil de Morcenx","phone":"+33 5 58 07 83 14","osm_id":1894655152}}]}