{"type":"FeatureCollection","features":[{"type":"Feature","geometry":{"type":"Point","coordinates":[3.8555716,44.0439324]},"properties":{"category":"bakery","name":"Le Gourmet","osm_id":1796260794}},{"type":"Feature","geometry":{"type":"Point","coordinates":[3.8863135,44.0005964]},"properties":{"category":"bakery","website":"https://m.facebook.com/people/Boulangerie-Mone-Au-Bl%C3%A9/100083325535041/?locale=es_ES","osm_id":11890921003}},{"type":"Feature","geometry":{"type":"Point","coordinates":[3.8530533,44.0457525]},"properties":{"category":"bakery","name":"Les Douceurs d’Emy","opening_hours":"Mo-Tu,Th-Sa 06:30-13:00,15:00-19:00; Su 06:30-12:30","osm_id":13786539058}},{"type":"Feature","geometry":{"type":"Point","coordinates":[3.853815,44.0451033]},"properties":{"category":"bakery","name":"Le Bar à Pain","opening_hours":"Mo-Fr 07:00-13:00,16:00-19:30; Sa 07:00-13:00","osm_id":13786539060}}]}