{"type":"FeatureCollection","features":[{"type":"Feature","geometry":{"type":"Point","coordinates":[7.2567526,44.0699869]},"properties":{"category":"bakery","name":"La petite Suisse","osm_id":534391119}},{"type":"Feature","geometry":{"type":"Point","coordinates":[7.2542985,44.0706428]},"properties":{"category":"shop","name":"Sport addict","osm_id":1472881715}},{"type":"Feature","geometry":{"type":"Point","coordinates":[7.2220848,44.0712845]},"properties":{"category":"shop","name":"Ferrata sport","osm_id":1474865259}},{"type":"Feature","geometry":{"type":"Point","coordinates":[7.2567059,44.0704189]},"properties":{"category":"bakery","name":"Le fournil des cousins","phone":"+33 4 93 03 33 33","osm_id":2942100304}},{"type":"Feature","geometry":{"type":"Point","coordinates":[7.2031218,44.0669247]},"properties":{"category":"bakery","name":"Boulangerie du Terroir","osm_id":7660870572}},{"type":"Feature","geometry":{"type":"Point","coordinates":[7.2234552,44.0710545]},"properties":{"category":"bakery","osm_id":9991571193}},{"type":"Feature","geometry":{"type":"Point","coordinates":[7.2568388,44.070102]},"properties":{"category":"repair","osm_id":12105846815}}]}