{"type":"FeatureCollection","features":[{"type":"Feature","geometry":{"type":"Point","coordinates":[3.0205087,44.0812338]},"properties":{"category":"shop","name":"Wish One","website":"https://wishonecycles.com/","osm_id":271913865}},{"type":"Feature","geometry":{"type":"Point","coordinates":[3.0766498,44.0987754]},"properties":{"category":"shop","name":"La Place du Vélo","osm_id":11872581838}},{"type":"Feature","geometry":{"type":"Point","coordinates":[3.0781537,44.098592]},"properties":{"category":"shop","name":"Sprocket","osm_id":12221997885}},{"type":"Feature","geometry":{"type":"Point","coordinates":[3.0820793,44.09756]},"properties":{"category":"shop","name":"Orcel Cycles","opening_hours":"\"Show-room privé\"","website":"https://www.giant-city-millau.fr","osm_id":12240957110}},{"type":"Feature","geometry":{"type":"Point","coordinates":[3.0816546,44.0970725]},"properties":{"category":"shop","name":"Orcel Cycles","opening_hours":"Tu-Sa 09:00-12:00,14:00-19:00","phone":"+33 5 65 60 08 10","website":"https://www.giant-city-millau.fr","osm_id":12785555154}},{"type":"Feature","geometry":{"type":"Point","coordinates":[3.0814914,44.0998809]},"properties":{"category":"repair","opening_hours":"24/7","osm_id":13369246600}},{"type":"Feature","geometry":{"type":"Point","coordinates":[3.0237137,44.0977497]},"properties":{"category":"repair","osm_id":14032113614}}]}