{"type":"FeatureCollection","features":[{"type":"Feature","geometry":{"type":"Point","coordinates":[4.0829206,44.0678102]},"properties":{"category":"bakery","osm_id":280114577}},{"type":"Feature","geometry":{"type":"Point","coordinates":[4.0771161,44.0836544]},"properties":{"category":"bakery","name":"Schincariol","osm_id":280114578}},{"type":"Feature","geometry":{"type":"Point","coordinates":[4.0763529,44.0839727]},"properties":{"category":"bakery","name":"Fromenterie","osm_id":280114582}},{"type":"Feature","geometry":{"type":"Point","coordinates":[4.0775724,44.0856846]},"properties":{"category":"bakery","osm_id":280114585}},{"type":"Feature","geometry":{"type":"Point","coordinates":[4.0777201,44.0868443]},"properties":{"category":"bakery","osm_id":794326911}},{"type":"Feature","geometry":{"type":"Point","coordinates":[4.0519556,44.0169407]},"properties":{"category":"bakery","name":"La panière gourmande","osm_id":5698717705}},{"type":"Feature","geometry":{"type":"Point","coordinates":[4.0509805,44.0713861]},"properties":{"category":"bakery","osm_id":9308568611}},{"type":"Feature","geometry":{"type":"Point","coordinates":[4.0805303,44.0725995]},"properties":{"category":"bakery","name":"Marie-Blachère","osm_id":11982640919}},{"type":"Feature","geometry":{"type":"Point","coordinates":[4.0977374,44.0539643]},"properties":{"category":"bakery","name":"Suzanne Desmarest","osm_id":13533975302}}]}