{"type":"FeatureCollection","features":[{"type":"Feature","geometry":{"type":"Point","coordinates":[4.6179988,44.1544925]},"properties":{"category":"shop","name":"Mondovélo","opening_hours":"Tu-Sa 09:00-12:00,14:00-19:00; Mo 14:00-19:00","phone":"+33466330335","website":"https://www.sport2000.fr/magasins/fiche/300299-mondovelo-bagnols-sur-ceze","osm_id":1726229539}},{"type":"Feature","geometry":{"type":"Point","coordinates":[4.6211854,44.161449]},"properties":{"category":"shop","name":"Atelier réparation vélo participatif et solidaire et vente de vélos","opening_hours":"Fr-Sa 09:00-17:00","phone":"+33 6 77 70 98 48","website":"https://gard-o-climat.fr","osm_id":12632615591}}]}