{"type":"FeatureCollection","features":[{"type":"Feature","geometry":{"type":"Point","coordinates":[0.2969393,44.1791859]},"properties":{"category":"bakery","name":"Boulangerie des Alliés","phone":"+33 5 53 65 15 62","osm_id":4879842829}},{"type":"Feature","geometry":{"type":"Point","coordinates":[0.2976079,44.1794841]},"properties":{"category":"bakery","name":"Boulangerie Blanchard","phone":"+33 5 53 65 49 79","osm_id":4879842830}},{"type":"Feature","geometry":{"type":"Point","coordinates":[0.2859946,44.1692075]},"properties":{"category":"bakery","phone":"+33 5 53 65 97 93","osm_id":9713880424}}]}