{"type":"FeatureCollection","features":[{"type":"Feature","geometry":{"type":"Point","coordinates":[6.0144046,44.1109486]},"properties":{"category":"bakery","osm_id":5155369914}},{"type":"Feature","geometry":{"type":"Point","coordinates":[6.01388,44.110864]},"properties":{"category":"bakery","name":"Du Grain au Pain","opening_hours":"Tu-Su 06:30-13:00","osm_id":11795623969}},{"type":"Feature","geometry":{"type":"Point","coordinates":[6.0102073,44.1005111]},"properties":{"category":"bakery","name":"MP & Clo - La Panetière","opening_hours":"We-Fr 07:00-13:00, 16:00-19:00","phone":"+33 7 86 86 49 30","website":"https://www.mpetclo-lapanetiere.fr/","osm_id":11834985978}},{"type":"Feature","geometry":{"type":"Point","coordinates":[6.0102451,44.100467]},"properties":{"category":"shop","name":"enDurance Cycles","opening_hours":"Tu-Sa 09:00-12:00,14:00-18:30","phone":"+33 749899091","osm_id":13512332696}}]}