{"type":"FeatureCollection","features":[{"type":"Feature","geometry":{"type":"Point","coordinates":[0.8916973,44.1070359]},"properties":{"category":"bakery","name":"La Valencienne","opening_hours":"Tu-Sa 06:00-18:00; Su 06:00-12:30","osm_id":635869933}},{"type":"Feature","geometry":{"type":"Point","coordinates":[0.8861981,44.1085803]},"properties":{"category":"bakery","name":"Fernandez","osm_id":635879181}},{"type":"Feature","geometry":{"type":"Point","coordinates":[0.8893964,44.1089623]},"properties":{"category":"bakery","osm_id":653224741}},{"type":"Feature","geometry":{"type":"Point","coordinates":[0.8524449,44.1131932]},"properties":{"category":"bakery","name":"La Golfechoise","osm_id":8836449805}},{"type":"Feature","geometry":{"type":"Point","coordinates":[0.8898266,44.1086678]},"properties":{"category":"bakery","name":"Secrets de pains","opening_hours":"Mo-Su 06:00-20:00","osm_id":11181953830}},{"type":"Feature","geometry":{"type":"Point","coordinates":[0.8570052,44.1164394]},"properties":{"category":"repair","osm_id":12022607323}},{"type":"Feature","geometry":{"type":"Point","coordinates":[0.8636838,44.1131854]},"properties":{"category":"shop","name":"GO Cycles","phone":"+33 5 63 95 82 07","osm_id":12433256394}}]}