{"type":"FeatureCollection","features":[{"type":"Feature","geometry":{"type":"Point","coordinates":[5.2232513,44.1204846]},"properties":{"category":"bakery","name":"La Fraternelle","opening_hours":"07:00-12:00","osm_id":790837108}},{"type":"Feature","geometry":{"type":"Point","coordinates":[5.2054204,44.1207844]},"properties":{"category":"shop","name":"Camp de base Ventoux","phone":"+33 6 67 26 60 87","osm_id":10914824638}},{"type":"Feature","geometry":{"type":"Point","coordinates":[5.2238338,44.1200669]},"properties":{"category":"bakery","name":"Colombes","osm_id":14018509601}}]}