{"type":"FeatureCollection","features":[{"type":"Feature","geometry":{"type":"Point","coordinates":[5.1319986,44.1749581]},"properties":{"category":"shop","name":"Provence Cycles","phone":"+33490419517","website":"https://provence-cycles.fr","osm_id":5843764359}},{"type":"Feature","geometry":{"type":"Point","coordinates":[5.1808147,44.1260326]},"properties":{"category":"shop","name":"Pista","phone":"+33 4 13 07 58 69","osm_id":10024931127}},{"type":"Feature","geometry":{"type":"Point","coordinates":[5.1338641,44.1733298]},"properties":{"category":"shop","name":"Ventoux Vélo Vintage","opening_hours":"Mo-We,Fr,Sa 09:00-12:00,14:00-18:00","osm_id":10166886237}},{"type":"Feature","geometry":{"type":"Point","coordinates":[5.1335337,44.1731811]},"properties":{"category":"shop","name":"Ventoux Finisher","opening_hours":"Mo-Fr 10:00-13:00,14:00-18:30; Sa,Su 10:00-13:00,14:00-19:00","osm_id":10166899237}},{"type":"Feature","geometry":{"type":"Point","coordinates":[5.1002992,44.1354275]},"properties":{"category":"repair","osm_id":13020555405}},{"type":"Feature","geometry":{"type":"Point","coordinates":[5.1061398,44.1109237]},"properties":{"category":"repair","osm_id":13020558002}}]}