{"type":"FeatureCollection","features":[{"type":"Feature","geometry":{"type":"Point","coordinates":[4.9002552,44.1158543]},"properties":{"category":"bakery","name":"Festival des Pains","osm_id":1881703579}},{"type":"Feature","geometry":{"type":"Point","coordinates":[4.9516391,44.1621708]},"properties":{"category":"bakery","name":"Boulangerie Pâtisserie La Ronde des Pins","osm_id":2272451746}},{"type":"Feature","geometry":{"type":"Point","coordinates":[4.952417,44.1622855]},"properties":{"category":"bakery","osm_id":2272455591}}]}