{"type":"FeatureCollection","features":[{"type":"Feature","geometry":{"type":"Point","coordinates":[4.837939,44.1283316]},"properties":{"category":"shop","name":"Cycles Trousse","phone":"+33 4 90 51 71 61","osm_id":1271871690}},{"type":"Feature","geometry":{"type":"Point","coordinates":[4.8407649,44.1206708]},"properties":{"category":"bakery","name":"Marie Blachère","opening_hours":"Mo-Sa 06:30-19:30","phone":"+33 4 90 70 28 28","website":"https://boulangeries.marieblachere.com/fr/france-FR/5418/marie-blachere-orange-coudoulet/details","osm_id":1272257119}},{"type":"Feature","geometry":{"type":"Point","coordinates":[4.8091983,44.1364499]},"properties":{"category":"bakery","name":"La cantine par MIENZO","osm_id":1272411493}},{"type":"Feature","geometry":{"type":"Point","coordinates":[4.8242828,44.1257086]},"properties":{"category":"bakery","name":"Marie Blachère","opening_hours":"Mo-Sa 06:30-19:30","phone":"+33 4 90 61 07 82","website":"https://boulangeries.marieblachere.com/fr/france-FR/5032/marie-blachere-orange/details","osm_id":1292964499}},{"type":"Feature","geometry":{"type":"Point","coordinates":[4.8054013,44.1364081]},"properties":{"category":"bakery","name":"Graine de Provence","opening_hours":"Th-Tu 06:00-19:30","phone":"+33 4 90 51 61 07","osm_id":1300433782}},{"type":"Feature","geometry":{"type":"Point","coordinates":[4.8099873,44.1356737]},"properties":{"category":"bakery","name":"La pétrie","opening_hours":"Tu-Su 07:00-19:00","phone":"+33490343018","osm_id":1303862857}},{"type":"Feature","geometry":{"type":"Point","coordinates":[4.8165413,44.1314459]},"properties":{"category":"bakery","name":"Joudel","osm_id":1319732800}},{"type":"Feature","geometry":{"type":"Point","coordinates":[4.820153,44.128611]},"properties":{"category":"shop","name":"CycloPro","osm_id":1319734371}},{"type":"Feature","geometry":{"type":"Point","coordinates":[4.820867,44.127997]},"properties":{"category":"bakery","name":"L'artisane","osm_id":1319740485}},{"type":"Feature","geometry":{"type":"Point","coordinates":[4.848656,44.111516]},"properties":{"category":"bakery","name":"Sophie Lebreuilly","opening_hours":"Mo-Sa 06:30-19:30","osm_id":1362763151}},{"type":"Feature","geometry":{"type":"Point","coordinates":[4.873776,44.16517]},"properties":{"category":"bakery","name":"Le Cours’ mandiz","osm_id":1794047164}},{"type":"Feature","geometry":{"type":"Point","coordinates":[4.8049119,44.1482712]},"properties":{"category":"bakery","name":"Boulangerie royale","osm_id":1808907154}},{"type":"Feature","geometry":{"type":"Point","coordinates":[4.8043112,44.1430425]},"properties":{"category":"bakery","name":"La Mie Câline","opening_hours":"Mo-Sa 06:30-20:00; Su 07:00-19:30","osm_id":1862270813}},{"type":"Feature","geometry":{"type":"Point","coordinates":[4.8009957,44.1373289]},"properties":{"category":"bakery","opening_hours":"24/7","osm_id":1865516559}},{"type":"Feature","geometry":{"type":"Point","coordinates":[4.8995803,44.1152694]},"properties":{"category":"bakery","name":"La Mie d'Auré","opening_hours":"Mo,Tu,Fr,Sa 06:00-12:30,15:30-19:00; Su 06:00-12:30","phone":"+33 6 15 18 16 68","osm_id":1881703595}},{"type":"Feature","geometry":{"type":"Point","coordinates":[4.8991905,44.1151919]},"properties":{"category":"bakery","name":"Boulangerie Mandras","opening_hours":"We-Su 06:30-13:00, We-Sa 16:00-19:30","osm_id":1881703601}},{"type":"Feature","geometry":{"type":"Point","coordinates":[4.8035745,44.1524591]},"properties":{"category":"bakery","name":"Le fournil de l'arc","osm_id":2177304343}},{"type":"Feature","geometry":{"type":"Point","coordinates":[4.8735459,44.1649612]},"properties":{"category":"bakery","name":"F. Michel","osm_id":2818477262}},{"type":"Feature","geometry":{"type":"Point","coordinates":[4.8440488,44.1887646]},"properties":{"category":"bakery","name":"Caractères","osm_id":3734116768}},{"type":"Feature","geometry":{"type":"Point","coordinates":[4.8444782,44.1890673]},"properties":{"category":"bakery","osm_id":3734189264}},{"type":"Feature","geometry":{"type":"Point","coordinates":[4.8956586,44.1229304]},"properties":{"category":"shop","name":"Cycl-able","phone":"+33 6 98 52 83 04","website":"https://stephhotrod84.wixsite.com/cycl-able","osm_id":7959241317}},{"type":"Feature","geometry":{"type":"Point","coordinates":[4.8005363,44.1365097]},"properties":{"category":"compressed_air","osm_id":8255297803}},{"type":"Feature","geometry":{"type":"Point","coordinates":[4.8044824,44.1521174]},"properties":{"category":"compressed_air","osm_id":12178473487}},{"type":"Feature","geometry":{"type":"Point","coordinates":[4.8191757,44.1374456]},"properties":{"category":"repair","osm_id":12553532156}},{"type":"Feature","geometry":{"type":"Point","coordinates":[4.833729,44.1362148]},"properties":{"category":"shop","name":"Orange Bike","phone":"+33 6 84 98 47 14","website":"https://www.orangebike.fr","osm_id":12833167705}},{"type":"Feature","geometry":{"type":"Point","coordinates":[4.8078715,44.1371058]},"properties":{"category":"shop","name":"VELIO - Atelier mobile","phone":"+33 6 22 62 81 97","osm_id":13055929858}},{"type":"Feature","geometry":{"type":"Point","coordinates":[4.8170765,44.1341692]},"properties":{"category":"compressed_air","osm_id":13110104506}}]}