{"type":"FeatureCollection","features":[{"type":"Feature","geometry":{"type":"Point","coordinates":[4.0837199,44.1272696]},"properties":{"category":"bakery","name":"Au bon pain Cévenol","osm_id":429411083}},{"type":"Feature","geometry":{"type":"Point","coordinates":[4.0731569,44.131807]},"properties":{"category":"shop","name":"Culture Vélo","osm_id":933159778}},{"type":"Feature","geometry":{"type":"Point","coordinates":[4.0794763,44.1238911]},"properties":{"category":"bakery","name":"La Mie Câline","opening_hours":"Mo-Su,PH 06:00-19:15","osm_id":2129438949}},{"type":"Feature","geometry":{"type":"Point","coordinates":[4.0531608,44.155359]},"properties":{"category":"bakery","name":"Au Bon Pain","osm_id":2981329515}},{"type":"Feature","geometry":{"type":"Point","coordinates":[4.0766151,44.1341359]},"properties":{"category":"bakery","name":"À la boulange","osm_id":7669766626}},{"type":"Feature","geometry":{"type":"Point","coordinates":[4.0960831,44.1157933]},"properties":{"category":"shop","name":"Mondovélo","opening_hours":"Mo 13:30-19:00; Tu-Sa 10:00-12:30, 13:30-19:00","phone":"+33 4 66 52 10 35","website":"https://romanet-ales.mondovelo.fr/","osm_id":7963285965}},{"type":"Feature","geometry":{"type":"Point","coordinates":[4.0897932,44.1057411]},"properties":{"category":"bakery","name":"La Grange de Nathalie","opening_hours":"Mo-Sa 05:45-20:00; Su 06:30-19:30","phone":"+33 4 66 56 92 68","website":"https://www.facebook.com/LaGrangeDeNathalie","osm_id":8264125253}},{"type":"Feature","geometry":{"type":"Point","coordinates":[4.0968772,44.1113375]},"properties":{"category":"compressed_air","osm_id":8264152097}},{"type":"Feature","geometry":{"type":"Point","coordinates":[4.0897988,44.1066952]},"properties":{"category":"compressed_air","osm_id":8267876019}},{"type":"Feature","geometry":{"type":"Point","coordinates":[4.0801224,44.1237437]},"properties":{"category":"bakery","name":"Mamie M","phone":"+33 466439902","website":"https://mamie-m.eatbu.com/","osm_id":8600099666}},{"type":"Feature","geometry":{"type":"Point","coordinates":[4.0813234,44.1384871]},"properties":{"category":"bakery","name":"Sanya","osm_id":8733249960}},{"type":"Feature","geometry":{"type":"Point","coordinates":[4.0761916,44.1199348]},"properties":{"category":"bakery","osm_id":8733298517}},{"type":"Feature","geometry":{"type":"Point","coordinates":[4.0975148,44.1312693]},"properties":{"category":"bakery","name":"Gueule de Pain","website":"https://gueuledepain.fr/","osm_id":8882860706}},{"type":"Feature","geometry":{"type":"Point","coordinates":[4.0906173,44.12161]},"properties":{"category":"bakery","name":"La cabane à pains","opening_hours":"Tu-Fr 16:00-20:00; Sa 09:00-13:00","phone":"+33 7 66 67 99 91","osm_id":9193968530}},{"type":"Feature","geometry":{"type":"Point","coordinates":[4.0783169,44.1238074]},"properties":{"category":"bakery","name":"Au fournil alesien","osm_id":10111411547}},{"type":"Feature","geometry":{"type":"Point","coordinates":[4.0775754,44.1226966]},"properties":{"category":"bakery","name":"Le petit atelier","opening_hours":"Mo-Fr 07:00 - 13:00","osm_id":10111411549}},{"type":"Feature","geometry":{"type":"Point","coordinates":[4.0912396,44.1395866]},"properties":{"category":"bakery","osm_id":10816201638}},{"type":"Feature","geometry":{"type":"Point","coordinates":[4.0842762,44.1214234]},"properties":{"category":"bakery","name":"La Boulangerie du Pont","osm_id":10875804327}},{"type":"Feature","geometry":{"type":"Point","coordinates":[4.0757758,44.1240531]},"properties":{"category":"bakery","name":"Chez Louis by Thierry Avignon","osm_id":11742753142}},{"type":"Feature","geometry":{"type":"Point","coordinates":[4.091169,44.125336]},"properties":{"category":"bakery","name":"Boulangerie Plan d’Alès","osm_id":12070294969}},{"type":"Feature","geometry":{"type":"Point","coordinates":[4.0984699,44.1147562]},"properties":{"category":"bakery","name":"Friandine","opening_hours":"Mo-Sa 06:00-19:30; Su 06:00-12:30, 15:00-19:15; PH off","website":"https://www.myboulange.fr/30/ales/friandine-12781","osm_id":12071446970}},{"type":"Feature","geometry":{"type":"Point","coordinates":[4.0312857,44.1576317]},"properties":{"category":"bakery","name":"Le Fournil de Malataverne","opening_hours":"Mo 10:30-19:00, Fr 10:30-19:00","website":"https://sites.google.com/view/lepainsurlaplanche/accueil","osm_id":12092624004}},{"type":"Feature","geometry":{"type":"Point","coordinates":[4.0822145,44.1235085]},"properties":{"category":"bakery","name":"Martel","opening_hours":"Mo-Fr 06:00-19:00; Sa 06:00-13:00,15:00-19:00","osm_id":12092987476}},{"type":"Feature","geometry":{"type":"Point","coordinates":[4.0734896,44.1271156]},"properties":{"category":"bakery","name":"Boulangerie Pâtisserie Aujoulat","osm_id":12954172421}},{"type":"Feature","geometry":{"type":"Point","coordinates":[4.0801911,44.1182187]},"properties":{"category":"bakery","osm_id":12964387415}},{"type":"Feature","geometry":{"type":"Point","coordinates":[4.078418,44.1218081]},"properties":{"category":"bakery","osm_id":13997813867}}]}