{"type":"FeatureCollection","features":[{"type":"Feature","geometry":{"type":"Point","coordinates":[1.9810147,44.2204067]},"properties":{"category":"bakery","name":"Maison Delmur","opening_hours":"Mo-Su 08:30-20:00","osm_id":5713217882}},{"type":"Feature","geometry":{"type":"Point","coordinates":[1.9665232,44.2193521]},"properties":{"category":"shop","name":"AAGAC - Base de pleine nature","phone":"+33 5 65 29 73 94","website":"https://www.activites-loisirs-aveyron.com/fr-fr/nos-activites/eid/172/3-vtt","osm_id":8975059116}}]}