{"type":"FeatureCollection","features":[{"type":"Feature","geometry":{"type":"Point","coordinates":[5.0814448,44.2426565]},"properties":{"category":"compressed_air","osm_id":12443833060}},{"type":"Feature","geometry":{"type":"Point","coordinates":[5.076315,44.2380625]},"properties":{"category":"repair","opening_hours":"24/7","osm_id":12879702689}},{"type":"Feature","geometry":{"type":"Point","coordinates":[5.0826011,44.2416418]},"properties":{"category":"shop","name":"Auragnier Cycles","opening_hours":"Tu-Sa 09:00-12:30,14:00-19:00","phone":"+33788647825","website":"https://auragniercycles.com","osm_id":13012306699}},{"type":"Feature","geometry":{"type":"Point","coordinates":[5.0909931,44.2462251]},"properties":{"category":"shop","name":"Vaison Bike","opening_hours":"Mo-Sa 09:00-18:00","phone":"+33 4 90 37 71 62","osm_id":13479680924}}]}