{"type":"FeatureCollection","features":[{"type":"Feature","geometry":{"type":"Point","coordinates":[4.1988417,44.2661415]},"properties":{"category":"bakery","name":"Franck Lacombes","osm_id":1389285834}},{"type":"Feature","geometry":{"type":"Point","coordinates":[4.1964925,44.2118146]},"properties":{"category":"bakery","osm_id":3718586196}},{"type":"Feature","geometry":{"type":"Point","coordinates":[4.1978079,44.2602686]},"properties":{"category":"bakery","name":"Boulangerie pâtisserie","opening_hours":"Tu-Su 06:00-19:00","osm_id":5528315251}},{"type":"Feature","geometry":{"type":"Point","coordinates":[4.1044707,44.2894007]},"properties":{"category":"bakery","name":"Boulangerie","osm_id":6466877169}},{"type":"Feature","geometry":{"type":"Point","coordinates":[4.1133504,44.2384211]},"properties":{"category":"bakery","osm_id":7916937013}},{"type":"Feature","geometry":{"type":"Point","coordinates":[4.1394783,44.2043525]},"properties":{"category":"bakery","name":"Aux Délices d’Alizée","osm_id":8215174787}},{"type":"Feature","geometry":{"type":"Point","coordinates":[4.1923712,44.2583799]},"properties":{"category":"bakery","name":"Franck Lascombes","osm_id":8232400687}},{"type":"Feature","geometry":{"type":"Point","coordinates":[4.1394639,44.2043257]},"properties":{"category":"bakery","osm_id":8814817217}}]}