{"type":"FeatureCollection","features":[{"type":"Feature","geometry":{"type":"Point","coordinates":[2.4328685,44.2765414]},"properties":{"category":"bakery","name":"Boulangerie pâtisserie Palous Michel","osm_id":1585474974}},{"type":"Feature","geometry":{"type":"Point","coordinates":[2.448879,44.2770895]},"properties":{"category":"bakery","name":"Victoire","osm_id":6188362703}},{"type":"Feature","geometry":{"type":"Point","coordinates":[2.4313842,44.2772861]},"properties":{"category":"bakery","name":"Le pain du Sérayet","osm_id":6298088937}},{"type":"Feature","geometry":{"type":"Point","coordinates":[2.4289122,44.2784836]},"properties":{"category":"bakery","name":"L'Épi du Rouergue","website":"https://epidurouergue.fr","osm_id":7811214598}},{"type":"Feature","geometry":{"type":"Point","coordinates":[2.4316887,44.2757728]},"properties":{"category":"shop","name":"Passion vélo 12","opening_hours":"Tu 15:00-19:30; We-Fr 08:30-12:00,15:00-19:30; Sa 09:00-18:00","osm_id":7811214610}},{"type":"Feature","geometry":{"type":"Point","coordinates":[2.4489152,44.2763569]},"properties":{"category":"bakery","osm_id":7947425973}}]}