{"type":"FeatureCollection","features":[{"type":"Feature","geometry":{"type":"Point","coordinates":[5.1910458,44.2365948]},"properties":{"category":"bakery","name":"Boulangerie Modena","osm_id":1832925154}},{"type":"Feature","geometry":{"type":"Point","coordinates":[5.1387975,44.2178097]},"properties":{"category":"bakery","osm_id":1951239998}},{"type":"Feature","geometry":{"type":"Point","coordinates":[5.1900865,44.2358149]},"properties":{"category":"bakery","name":"Aux Délices du Dauphin","osm_id":2004200149}},{"type":"Feature","geometry":{"type":"Point","coordinates":[5.1458421,44.2592562]},"properties":{"category":"bakery","name":"Boulangerie des Tilleuls","opening_hours":"Mo-Su 07:30-23:00","osm_id":7670901046}},{"type":"Feature","geometry":{"type":"Point","coordinates":[5.1271961,44.2698299]},"properties":{"category":"bakery","name":"Boulangerie des Lys","opening_hours":"Tu-Sa 06:30-13:00, 16:00-19:00; Su 06:30-13:00","phone":"+33 4 90 67 03 87","osm_id":9022817185}}]}