{"type":"FeatureCollection","features":[{"type":"Feature","geometry":{"type":"Point","coordinates":[0.297966,44.2582021]},"properties":{"category":"shop","name":"Cycle South West France","phone":"+33 7 85 14 56 17; +33 6 73 98 88 69","website":"https://www.cyclesouthwestfrance.com/","osm_id":5158845899}},{"type":"Feature","geometry":{"type":"Point","coordinates":[0.2696401,44.2866012]},"properties":{"category":"bakery","name":"Boulangerie de la Confluence","opening_hours":"Mo-Fr 06:00-20:00; Sa 06:00-13:30,16:00-20:00; Su off","osm_id":7046061249}},{"type":"Feature","geometry":{"type":"Point","coordinates":[0.2994874,44.2581956]},"properties":{"category":"bakery","osm_id":9806031872}}]}