{"type":"FeatureCollection","features":[{"type":"Feature","geometry":{"type":"Point","coordinates":[-0.9183445,44.2120384]},"properties":{"category":"bakery","name":"Maison des Champs","opening_hours":"Mo-Sa 06:30-13:00; Su 07:00-13:00","phone":"+33 5 58 07 42 87","website":"https://lesmaisonsdeschamps.com/","osm_id":2318325131}},{"type":"Feature","geometry":{"type":"Point","coordinates":[-0.9197637,44.2121639]},"properties":{"category":"bakery","name":"Maison Des Champs","phone":"+33 5 58 07 42 87","website":"https://lesmaisonsdeschamps.com/","osm_id":12064768737}}]}