{"type":"FeatureCollection","features":[{"type":"Feature","geometry":{"type":"Point","coordinates":[1.1838179,44.2727163]},"properties":{"category":"bakery","name":"GAEC du Lendou","opening_hours":"Tu 17:00-19:00; Fr 17:00-19:00","osm_id":7884301981}},{"type":"Feature","geometry":{"type":"Point","coordinates":[1.145461,44.2606546]},"properties":{"category":"bakery","name":"Les douceurs de Lili","opening_hours":"Mo-Fr 07:30-13:00,15:30-19:00; We off; Sa 07:30-13:00,15:00-18:00; Su 07:30-12:30","osm_id":7884418211}}]}