{"type":"FeatureCollection","features":[{"type":"Feature","geometry":{"type":"Point","coordinates":[-0.9610621,44.3280834]},"properties":{"category":"bakery","name":"J. Leroy Artisan Boulanger Pâtissier","opening_hours":"Mo-Sa 06:30-13:00,15:00-18:00; Su 06:30-13:00","phone":"+33558047739","website":"https://leroy-commande.fr/","osm_id":8437456114}},{"type":"Feature","geometry":{"type":"Point","coordinates":[-0.9533037,44.3276696]},"properties":{"category":"bakery","name":"Le Fournil d’Ychoux","opening_hours":"Mo-Sa 06:30-19:30; Su 07:00-13:00","phone":"+33 5 58 78 85 52","website":"https://www.facebook.com/Le-Fournil-dYchoux-111394350545354/","osm_id":8437852773}}]}