{"type":"FeatureCollection","features":[{"type":"Feature","geometry":{"type":"Point","coordinates":[-1.1492697,44.3289054]},"properties":{"category":"compressed_air","osm_id":6504641146}},{"type":"Feature","geometry":{"type":"Point","coordinates":[-1.1674327,44.395422]},"properties":{"category":"repair","osm_id":7635675885}},{"type":"Feature","geometry":{"type":"Point","coordinates":[-1.1662816,44.3966677]},"properties":{"category":"shop","name":"Cycles Brogniez","opening_hours":"Tu-Sa 09:00-12:30,15:00-19:00","phone":"+33 5 58 78 13 76","website":"https://cyclesbrogniez.wixsite.com/cyclesbrogniez","osm_id":8454523365}}]}