{"type":"FeatureCollection","features":[{"type":"Feature","geometry":{"type":"Point","coordinates":[4.3493466,44.3073342]},"properties":{"category":"bakery","name":"Le Pain de Ma Dame","osm_id":2908343216}},{"type":"Feature","geometry":{"type":"Point","coordinates":[4.3473212,44.3083667]},"properties":{"category":"bakery","name":"Le Petit Mitron","osm_id":2910127506}},{"type":"Feature","geometry":{"type":"Point","coordinates":[4.3471929,44.3063446]},"properties":{"category":"bakery","name":"Les Délices de Marie et Julio","opening_hours":"Mo-Su 06:00-20:00","osm_id":9034251264}},{"type":"Feature","geometry":{"type":"Point","coordinates":[4.3871836,44.3997098]},"properties":{"category":"bakery","name":"L' Atelier du Pain","osm_id":13059510801}},{"type":"Feature","geometry":{"type":"Point","coordinates":[4.3796289,44.3954198]},"properties":{"category":"bakery","name":"Tchô Pain","osm_id":14040871789}}]}