{"type":"FeatureCollection","features":[{"type":"Feature","geometry":{"type":"Point","coordinates":[5.099486,44.3105033]},"properties":{"category":"bakery","osm_id":1376881262}},{"type":"Feature","geometry":{"type":"Point","coordinates":[5.0987882,44.3105825]},"properties":{"category":"bakery","osm_id":1376881267}},{"type":"Feature","geometry":{"type":"Point","coordinates":[5.0080449,44.3856746]},"properties":{"category":"bakery","osm_id":1700920418}},{"type":"Feature","geometry":{"type":"Point","coordinates":[5.0988404,44.3905729]},"properties":{"category":"bakery","name":"La boule'Ange et Stéph","osm_id":12734262438}}]}