{"type":"FeatureCollection","features":[{"type":"Feature","geometry":{"type":"Point","coordinates":[5.8224205,44.3138826]},"properties":{"category":"bakery","name":"Manfredi & Filles","osm_id":6723012885}},{"type":"Feature","geometry":{"type":"Point","coordinates":[5.8222215,44.3140382]},"properties":{"category":"shop","name":"RHL Cycles","osm_id":9834037275}},{"type":"Feature","geometry":{"type":"Point","coordinates":[5.8268401,44.3138612]},"properties":{"category":"bakery","name":"La Gourmandise","opening_hours":"Tu-Su 06:00-19:00","osm_id":9877435658}},{"type":"Feature","geometry":{"type":"Point","coordinates":[5.8276627,44.3127031]},"properties":{"category":"bakery","name":"Marie Blachère","opening_hours":"Mo-Sa 06:30-19:30","phone":"+33 4 92 55 16 21","website":"https://boulangeries.marieblachere.com/fr/france-FR/5073/marie-blachere-laragne/details","osm_id":12336976922}}]}