{"type":"FeatureCollection","features":[{"type":"Feature","geometry":{"type":"Point","coordinates":[2.5832857,44.3605935]},"properties":{"category":"shop","name":"Unikbike - Tout pour le vélo","opening_hours":"Tu-Sa 09:00-12:00,14:00-19:00","phone":"+33 5 65 42 94 81","osm_id":886247601}},{"type":"Feature","geometry":{"type":"Point","coordinates":[2.5691974,44.3714138]},"properties":{"category":"shop","name":"Rodez Bike","phone":"+33565680169","osm_id":891111924}},{"type":"Feature","geometry":{"type":"Point","coordinates":[2.5558956,44.3610461]},"properties":{"category":"shop","name":"Point Vélo","osm_id":892374446}},{"type":"Feature","geometry":{"type":"Point","coordinates":[2.5887753,44.3627753]},"properties":{"category":"shop","name":"Boutonnet Cycles","phone":"+33565673429","osm_id":1911787150}},{"type":"Feature","geometry":{"type":"Point","coordinates":[2.5878564,44.3637529]},"properties":{"category":"compressed_air","osm_id":2074233129}},{"type":"Feature","geometry":{"type":"Point","coordinates":[2.5665614,44.3619852]},"properties":{"category":"compressed_air","osm_id":3103979299}},{"type":"Feature","geometry":{"type":"Point","coordinates":[2.5881439,44.3615953]},"properties":{"category":"compressed_air","osm_id":5035500918}},{"type":"Feature","geometry":{"type":"Point","coordinates":[2.5903986,44.3693564]},"properties":{"category":"compressed_air","osm_id":7307117599}},{"type":"Feature","geometry":{"type":"Point","coordinates":[2.5626601,44.3525941]},"properties":{"category":"repair","osm_id":8644692833}},{"type":"Feature","geometry":{"type":"Point","coordinates":[2.5740129,44.3648818]},"properties":{"category":"compressed_air","osm_id":9084044490}},{"type":"Feature","geometry":{"type":"Point","coordinates":[2.5808664,44.3619965]},"properties":{"category":"shop","name":"Roue libre","osm_id":10754504254}},{"type":"Feature","geometry":{"type":"Point","coordinates":[2.5629776,44.3525128]},"properties":{"category":"shop","name":"Maison du vélo de Rodez","phone":"+33 6 99 74 02 39","website":"https://velociterodezaveyron.fr/la-maison-du-velo-de-rodez/","osm_id":13169313921}}]}