{"type":"FeatureCollection","features":[{"type":"Feature","geometry":{"type":"Point","coordinates":[4.7665774,44.3475708]},"properties":{"category":"bakery","name":"La boulangerie par Aracil","opening_hours":"Tu-Sa 06:00-13:00,15:00-19:00; Su 06:00-13:00","osm_id":1376026668}},{"type":"Feature","geometry":{"type":"Point","coordinates":[4.7905443,44.3314044]},"properties":{"category":"bakery","name":"Boulangerie","osm_id":1380750862}},{"type":"Feature","geometry":{"type":"Point","coordinates":[4.7421709,44.3242434]},"properties":{"category":"bakery","name":"Marie Blachère","osm_id":1455725298}},{"type":"Feature","geometry":{"type":"Point","coordinates":[4.7442219,44.3146548]},"properties":{"category":"shop","name":"veloland","osm_id":1466700289}},{"type":"Feature","geometry":{"type":"Point","coordinates":[4.707664,44.3676807]},"properties":{"category":"bakery","name":"Boulangerie Chovet","opening_hours":"Mo-Fr 05:00-19:00","osm_id":2928697535}},{"type":"Feature","geometry":{"type":"Point","coordinates":[4.742946,44.3221311]},"properties":{"category":"repair","osm_id":4418239285}},{"type":"Feature","geometry":{"type":"Point","coordinates":[4.7409281,44.3262976]},"properties":{"category":"repair","osm_id":4418239604}},{"type":"Feature","geometry":{"type":"Point","coordinates":[4.7686817,44.3483127]},"properties":{"category":"bakery","name":"Greg et Sophie","opening_hours":"Tu-Fr 07:00-12:45,15:30-19:00; Sa,Su 07:00-12:30","osm_id":4433618669}},{"type":"Feature","geometry":{"type":"Point","coordinates":[4.7010704,44.3793479]},"properties":{"category":"bakery","name":"Giannette & Fils","osm_id":4857906571}},{"type":"Feature","geometry":{"type":"Point","coordinates":[4.7582889,44.346142]},"properties":{"category":"bakery","name":"Boulangerie Ulysse","opening_hours":"Tu-Fr 06:00-13:00,15:30-19:00; Mo 06:00-13:00,15:15-19:15; Sa 07:00-12:30","osm_id":5948969434}},{"type":"Feature","geometry":{"type":"Point","coordinates":[4.7709112,44.34844]},"properties":{"category":"bakery","osm_id":10178439027}},{"type":"Feature","geometry":{"type":"Point","coordinates":[4.741561,44.3625741]},"properties":{"category":"bakery","name":"Augusta","osm_id":12637995010}},{"type":"Feature","geometry":{"type":"Point","coordinates":[4.7805898,44.3772669]},"properties":{"category":"bakery","name":"Les Echaravelles","opening_hours":"Mo,Th 15:00-19:00; Sa 09:00-13:00,15:00-18:00","phone":"+33 6 18 89 00 23","osm_id":13016161517}}]}