{"type":"FeatureCollection","features":[{"type":"Feature","geometry":{"type":"Point","coordinates":[-1.0739103,44.349852]},"properties":{"category":"bakery","name":"Au Fournil Landais","opening_hours":"Mo-Sa 06:30-19:00; We off; Su 06:30-13:00","phone":"+33 5 58 78 42 69","osm_id":2017878432}},{"type":"Feature","geometry":{"type":"Point","coordinates":[-1.0749543,44.3484743]},"properties":{"category":"bakery","name":"Chez Guillaume","phone":"+33 5 58 78 41 17","osm_id":2017878558}},{"type":"Feature","geometry":{"type":"Point","coordinates":[-1.0679715,44.3490414]},"properties":{"category":"bakery","name":"Maison des Champs","opening_hours":"Mo-Sa 06:45-13:00,15:30-19:15; Tu off; Su 06:30-13:00,15:30-19:15","phone":"+33 5 58 78 47 46","osm_id":2017879890}},{"type":"Feature","geometry":{"type":"Point","coordinates":[-1.0746272,44.3506204]},"properties":{"category":"shop","name":"Le Shop Bike's Garage","phone":"+33 6 62 11 19 78","website":"https://wheeling-shop.com/","osm_id":8446122658}},{"type":"Feature","geometry":{"type":"Point","coordinates":[-1.0711365,44.3512473]},"properties":{"category":"repair","osm_id":9798435550}}]}