{"type":"FeatureCollection","features":[{"type":"Feature","geometry":{"type":"Point","coordinates":[4.6957925,44.3623322]},"properties":{"category":"shop","name":"Giant","opening_hours":"Tu-Sa 09:30-12:00,14:30-19:00","osm_id":4756664919}},{"type":"Feature","geometry":{"type":"Point","coordinates":[4.6473342,44.3689386]},"properties":{"category":"repair","osm_id":7252051866}},{"type":"Feature","geometry":{"type":"Point","coordinates":[4.6474272,44.3732715]},"properties":{"category":"shop","name":"Bike Sud Ardeche","website":"https://bikesudardeche.fr/","osm_id":12197430478}},{"type":"Feature","geometry":{"type":"Point","coordinates":[4.6882712,44.3043903]},"properties":{"category":"compressed_air","osm_id":13056238907}}]}