{"type":"FeatureCollection","features":[{"type":"Feature","geometry":{"type":"Point","coordinates":[5.7711616,44.3459611]},"properties":{"category":"bakery","name":"Boulangerie L et S Francou","opening_hours":"Mo-Su 06:30-12:30, Mo-Sa 15:30-19:00; We off","osm_id":9195742173}},{"type":"Feature","geometry":{"type":"Point","coordinates":[5.7678571,44.3434476]},"properties":{"category":"bakery","name":"Le Pitchou Pan","opening_hours":"Tu-Su 06:15-12:30","phone":"+33492662014","osm_id":10174245560}}]}