{"type":"FeatureCollection","features":[{"type":"Feature","geometry":{"type":"Point","coordinates":[2.2904436,44.4096333]},"properties":{"category":"bakery","name":"Sylvie & Sebastien Segonds","opening_hours":"Tu-Su 08:00-12:30","osm_id":6396177257}},{"type":"Feature","geometry":{"type":"Point","coordinates":[2.2295532,44.478526]},"properties":{"category":"bakery","osm_id":6574318069}},{"type":"Feature","geometry":{"type":"Point","coordinates":[2.2888583,44.4102243]},"properties":{"category":"bakery","name":"Le Fournil au Chat noir","osm_id":6685010754}},{"type":"Feature","geometry":{"type":"Point","coordinates":[2.289651,44.4101522]},"properties":{"category":"bakery","name":"Au Fournil de Rignac","phone":"+33565432876","website":"https://boulangerie-au-fournil-de-rignac.business.site/","osm_id":10998369759}},{"type":"Feature","geometry":{"type":"Point","coordinates":[2.2287279,44.477078]},"properties":{"category":"bakery","name":"Sarl Recoules Antony","osm_id":14076749272}},{"type":"Feature","geometry":{"type":"Point","coordinates":[2.2287279,44.4771101]},"properties":{"category":"bakery","name":"Antony Recoules (Artisan Boulanger-Pâtissier-Chocolatier)","opening_hours":"Tu-Sa 07:00-19:30; Su 07:00-12:30","phone":"+33 5 65 80 61 54","website":"https://recoulesantonysarl.site-solocal.com/","osm_id":14094522001}}]}