{"type":"FeatureCollection","features":[{"type":"Feature","geometry":{"type":"Point","coordinates":[4.3937184,44.4055698]},"properties":{"category":"bakery","name":"Saud Quentin","opening_hours":"Mo-Tu,Th-Su 06:45-19:30; We 06:45-13:30,15:30-19:30","osm_id":1756473163}},{"type":"Feature","geometry":{"type":"Point","coordinates":[4.3939381,44.4063885]},"properties":{"category":"bakery","name":"Festival Patisserie","opening_hours":"Th 08:00-13:30; Sa, Su 08:00-17:30","osm_id":1756473165}},{"type":"Feature","geometry":{"type":"Point","coordinates":[4.3948712,44.4067821]},"properties":{"category":"bakery","name":"La Duchesse d'Arc","osm_id":1756473169}},{"type":"Feature","geometry":{"type":"Point","coordinates":[4.3457854,44.4534812]},"properties":{"category":"bakery","osm_id":1853362524}},{"type":"Feature","geometry":{"type":"Point","coordinates":[4.3425004,44.4520873]},"properties":{"category":"bakery","name":"Constant","opening_hours":"Mo-Fr 08:00-19:00; Sa 08:00-18:00","osm_id":2466629833}},{"type":"Feature","geometry":{"type":"Point","coordinates":[4.3481679,44.4429182]},"properties":{"category":"bakery","osm_id":4161759838}},{"type":"Feature","geometry":{"type":"Point","coordinates":[4.3611668,44.4182633]},"properties":{"category":"bakery","name":"Au Pain Chaud","opening_hours":"Mo-Su,PH 07:00-13:00","osm_id":4349809571}},{"type":"Feature","geometry":{"type":"Point","coordinates":[4.3418033,44.4533418]},"properties":{"category":"bakery","name":"Défilé des pains","osm_id":4799096959}},{"type":"Feature","geometry":{"type":"Point","coordinates":[4.3423645,44.4525818]},"properties":{"category":"bakery","name":"Ti' Sandwich","osm_id":5010214422}},{"type":"Feature","geometry":{"type":"Point","coordinates":[4.3695279,44.4130387]},"properties":{"category":"shop","name":"Outdoor & Bikes - Face Sud","phone":"+33 4 75 87 27 23","osm_id":11553116523}},{"type":"Feature","geometry":{"type":"Point","coordinates":[4.3458548,44.4519949]},"properties":{"category":"repair","osm_id":14096445146}},{"type":"Feature","geometry":{"type":"Point","coordinates":[4.3009276,44.4259465]},"properties":{"category":"bakery","name":"Bouland - Gerie","osm_id":14135567869}}]}