{"type":"FeatureCollection","features":[{"type":"Feature","geometry":{"type":"Point","coordinates":[4.6876202,44.4836198]},"properties":{"category":"bakery","name":"Festival","osm_id":5627352155}},{"type":"Feature","geometry":{"type":"Point","coordinates":[4.6901684,44.4847234]},"properties":{"category":"bakery","name":"La boulangerie d'Emilien","opening_hours":"Mo-Sa 06:30-12:30,15:00-19:00","osm_id":6031549945}},{"type":"Feature","geometry":{"type":"Point","coordinates":[4.6669745,44.4377194]},"properties":{"category":"bakery","osm_id":9574866633}}]}