{"type":"FeatureCollection","features":[{"type":"Feature","geometry":{"type":"Point","coordinates":[1.5550001,44.4860573]},"properties":{"category":"bakery","osm_id":872470166}},{"type":"Feature","geometry":{"type":"Point","coordinates":[1.5807782,44.4780314]},"properties":{"category":"bakery","name":"Le Fournil de Saint-Géry","osm_id":872470226}},{"type":"Feature","geometry":{"type":"Point","coordinates":[1.5590549,44.4826255]},"properties":{"category":"shop","name":"Serv'cycles Lot","osm_id":12969267066}}]}