{"type":"FeatureCollection","features":[{"type":"Feature","geometry":{"type":"Point","coordinates":[-0.3722896,44.4588471]},"properties":{"category":"bakery","name":"Ô bon Pain","osm_id":3763075466}},{"type":"Feature","geometry":{"type":"Point","coordinates":[-0.3727216,44.4586492]},"properties":{"category":"bakery","name":"Chez Jules","opening_hours":"Mo-Su 06:30-13:00, Mo-Sa 15:30-19:30","osm_id":4353095753}},{"type":"Feature","geometry":{"type":"Point","coordinates":[-0.3232545,44.4417362]},"properties":{"category":"bakery","name":"Boulangerie coopérative d'Uzeste","opening_hours":"Tu-Sa 07:30-12:30,16:30-19:30; Th off; Mo off; Su 07:30-12:30","phone":"+33 5 56 65 21 80","osm_id":5909956769}}]}