{"type":"FeatureCollection","features":[{"type":"Feature","geometry":{"type":"Point","coordinates":[0.6223193,44.4431253]},"properties":{"category":"bakery","osm_id":1412504197}},{"type":"Feature","geometry":{"type":"Point","coordinates":[0.6221901,44.443548]},"properties":{"category":"bakery","name":"Le Saint Jean","osm_id":1412504225}},{"type":"Feature","geometry":{"type":"Point","coordinates":[0.6983358,44.4045951]},"properties":{"category":"bakery","name":"Maison Guilhem","osm_id":1672123776}},{"type":"Feature","geometry":{"type":"Point","coordinates":[0.6961245,44.4044879]},"properties":{"category":"bakery","name":"Philippe","osm_id":2096588232}},{"type":"Feature","geometry":{"type":"Point","coordinates":[0.6999384,44.4015831]},"properties":{"category":"bakery","name":"Au Grand Panetier","osm_id":4464560175}},{"type":"Feature","geometry":{"type":"Point","coordinates":[0.6910459,44.4052683]},"properties":{"category":"bakery","name":"Marie Blachère","opening_hours":"Mo-Sa 06:30-19:30","osm_id":7248726608}},{"type":"Feature","geometry":{"type":"Point","coordinates":[0.6826935,44.4044479]},"properties":{"category":"shop","name":"Giant","osm_id":12253266512}},{"type":"Feature","geometry":{"type":"Point","coordinates":[0.6828124,44.4057708]},"properties":{"category":"shop","name":"L'Univers du Cycle","osm_id":12979664264}},{"type":"Feature","geometry":{"type":"Point","coordinates":[0.6174138,44.4567099]},"properties":{"category":"bakery","name":"Ferme de Castanhal","phone":"+33 6 78 98 70 09","website":"https://www.lafermedecastanhal.fr/","osm_id":13827855499}}]}