{"type":"FeatureCollection","features":[{"type":"Feature","geometry":{"type":"Point","coordinates":[6.0553041,44.4616045]},"properties":{"category":"bakery","name":"Au bon pain Tallardien","osm_id":1933715381}},{"type":"Feature","geometry":{"type":"Point","coordinates":[6.0550734,44.4620371]},"properties":{"category":"bakery","name":"Au Fournil d'Honoré","osm_id":1933715454}},{"type":"Feature","geometry":{"type":"Point","coordinates":[6.0322151,44.4527957]},"properties":{"category":"bakery","name":"Le vieu four","osm_id":2004952555}},{"type":"Feature","geometry":{"type":"Point","coordinates":[6.0553766,44.4608291]},"properties":{"category":"shop","name":"Lulu Vélo","opening_hours":"Tu-We 09:30-12:30,15:00-18:30, Sa 09:00-12:00","phone":"+33 6 68 00 41 42","website":"https://luluvelo.fr/","osm_id":9218421372}},{"type":"Feature","geometry":{"type":"Point","coordinates":[6.0513532,44.4834565]},"properties":{"category":"shop","name":"E-pedal","website":"https://www.e-pedal.fr","osm_id":11063163255}},{"type":"Feature","geometry":{"type":"Point","coordinates":[6.007324,44.4250266]},"properties":{"category":"bakery","name":"Boulangerie Pâtisserie","osm_id":11292935676}}]}