{"type":"FeatureCollection","features":[{"type":"Feature","geometry":{"type":"Point","coordinates":[1.287268,44.4781733]},"properties":{"category":"bakery","name":"Charles","osm_id":1885948515}},{"type":"Feature","geometry":{"type":"Point","coordinates":[1.2865785,44.4779885]},"properties":{"category":"bakery","name":"Croustilot","osm_id":1885948547}},{"type":"Feature","geometry":{"type":"Point","coordinates":[1.2553707,44.4176606]},"properties":{"category":"bakery","name":"Boulangerie Patisserie","opening_hours":"Tu-Sa 07:00-13:00, 15:00-19:00; Su 07:00-13:00","phone":"+33 5 65 36 90 94","osm_id":8989972400}}]}