{"type":"FeatureCollection","features":[{"type":"Feature","geometry":{"type":"Point","coordinates":[0.5258129,44.4468902]},"properties":{"category":"bakery","osm_id":4455110558}},{"type":"Feature","geometry":{"type":"Point","coordinates":[0.5884842,44.402647]},"properties":{"category":"repair","opening_hours":"24/7","osm_id":6670707592}},{"type":"Feature","geometry":{"type":"Point","coordinates":[0.5884975,44.4026554]},"properties":{"category":"compressed_air","osm_id":6670707593}},{"type":"Feature","geometry":{"type":"Point","coordinates":[0.5568069,44.4186458]},"properties":{"category":"bakery","name":"boulangerie","osm_id":8348948975}}]}