{"type":"FeatureCollection","features":[{"type":"Feature","geometry":{"type":"Point","coordinates":[6.268696,44.5475228]},"properties":{"category":"bakery","name":"Boulangerie Navarro","opening_hours":"Mo-Su 06:00-19:30","phone":"+33 6 47 81 81 91","osm_id":3053744921}},{"type":"Feature","geometry":{"type":"Point","coordinates":[6.2771605,44.545372]},"properties":{"category":"bakery","name":"Boulangerie Navarro","osm_id":5733362686}},{"type":"Feature","geometry":{"type":"Point","coordinates":[6.2766293,44.5454885]},"properties":{"category":"bakery","name":"Boulangerie pâtisserie artisanale traditionnelle Amat-Cartasso","osm_id":6579682619}}]}