{"type":"FeatureCollection","features":[{"type":"Feature","geometry":{"type":"Point","coordinates":[5.0654461,44.5235913]},"properties":{"category":"bakery","name":"La Source du Pain","opening_hours":"Fr-We 06:00-13:00,15:00-19:00","osm_id":278990619}},{"type":"Feature","geometry":{"type":"Point","coordinates":[5.0541578,44.5210229]},"properties":{"category":"bakery","name":"A la Boulange","osm_id":1661647728}},{"type":"Feature","geometry":{"type":"Point","coordinates":[5.0647419,44.5227398]},"properties":{"category":"bakery","name":"Chavarot","opening_hours":"Jul-Aug: Mo-Su 06:45-19:30","osm_id":1661664663}},{"type":"Feature","geometry":{"type":"Point","coordinates":[5.0661806,44.5261283]},"properties":{"category":"bakery","name":"Le Coin Gourmand","opening_hours":"Mo-Sa 07:00-13:00,15:30-19:00; Su 07:00-13:00","phone":"+33 4 75 46 41 08","website":"https://www.boulangeriepatisseriedieulefit.fr/","osm_id":3731528020}},{"type":"Feature","geometry":{"type":"Point","coordinates":[5.0545496,44.5209466]},"properties":{"category":"shop","name":"Vercors Sport Nature","phone":"+33 4 75 96 64 12","website":"https://vercors-sport-nature.jimdo.com/","osm_id":9097801988}},{"type":"Feature","geometry":{"type":"Point","coordinates":[5.0564894,44.5209434]},"properties":{"category":"compressed_air","osm_id":9810597117}},{"type":"Feature","geometry":{"type":"Point","coordinates":[5.007169,44.530209]},"properties":{"category":"bakery","name":"L'arbre à pain","phone":"+33 4 75 46 27 07","osm_id":13634336168}}]}