{"type":"FeatureCollection","features":[{"type":"Feature","geometry":{"type":"Point","coordinates":[6.0817549,44.5578044]},"properties":{"category":"shop","name":"Free Wheel Sports","opening_hours":"Mo 14:30-19:00; Tu-Fr 09:30-12:30,14:30-19:00; Sa 10:00-18:00","phone":"+33 4 92 54 56 48","osm_id":2437077569}},{"type":"Feature","geometry":{"type":"Point","coordinates":[6.0785092,44.557349]},"properties":{"category":"shop","name":"Mobil'Idées","opening_hours":"Tu, Th 15:00-19:00; We, Fr 10:00-12:00, 15:00-19:00; Sa 10:00-12:00","phone":"+33 7 81 96 04 30","website":"https://www.mobilidees.org/","osm_id":2538110495}},{"type":"Feature","geometry":{"type":"Point","coordinates":[6.0778726,44.5614081]},"properties":{"category":"shop","name":"Dynamic vélo","opening_hours":"Mo-Fr 08:30-12:00,14:30-19:00; Sa 09:30-12:00,14:30-18:00","phone":"+33 4 92 53 79 78","website":"https://www.dynamic-velo.fr","osm_id":3404492167}},{"type":"Feature","geometry":{"type":"Point","coordinates":[6.0574813,44.5410404]},"properties":{"category":"compressed_air","osm_id":3551711265}},{"type":"Feature","geometry":{"type":"Point","coordinates":[6.0729624,44.5537769]},"properties":{"category":"shop","name":"La Cyclerie des Alpes","opening_hours":"Mo 14:00-19:00; Tu-Sa 09:30-12:00,14:00-19:00","phone":"+334 92 49 37 25","website":"https://lacyclerie.fr/","osm_id":3925699421}},{"type":"Feature","geometry":{"type":"Point","coordinates":[6.0971716,44.568014]},"properties":{"category":"shop","name":"Le Grimpeur Cycle 05","osm_id":6555775736}},{"type":"Feature","geometry":{"type":"Point","coordinates":[6.0782656,44.5575921]},"properties":{"category":"shop","name":"Tracks","opening_hours":"Tu-Sa 09:00-12:00,14:00-18:30; Th 09:00-12:00,15:00-18:30","phone":"+33 4 92 46 91 28","osm_id":8137652592}},{"type":"Feature","geometry":{"type":"Point","coordinates":[6.0803689,44.5578342]},"properties":{"category":"shop","name":"Cyklist Gap / Specialized","opening_hours":"09:00-12:00,14:00-18:30","osm_id":12301463634}}]}