{"type":"FeatureCollection","features":[{"type":"Feature","geometry":{"type":"Point","coordinates":[0.1496041,44.5048243]},"properties":{"category":"bakery","name":"Marie Blachère","opening_hours":"Mo-Sa 07:00-19:30","phone":"+33 5 53 94 14 66","website":"https://boulangeries.marieblachere.com/Marmande","osm_id":5243747479}},{"type":"Feature","geometry":{"type":"Point","coordinates":[0.1684492,44.5009488]},"properties":{"category":"bakery","name":"Les Messageries","osm_id":8536164417}},{"type":"Feature","geometry":{"type":"Point","coordinates":[0.1321267,44.514613]},"properties":{"category":"shop","name":"Culture Vélo","opening_hours":"Tu-Fr 09:30-12:00,14:00-18:30; Sa 09:30-12:30,14:00-18:00","phone":"+33 5 53 20 05 53","website":"https://www.culturevelo.com/-Marmande-","osm_id":9397861717}},{"type":"Feature","geometry":{"type":"Point","coordinates":[0.1541184,44.5033628]},"properties":{"category":"bakery","name":"Le Fournil Gascon","osm_id":9406107562}},{"type":"Feature","geometry":{"type":"Point","coordinates":[0.1741122,44.5026316]},"properties":{"category":"bakery","osm_id":9423709732}},{"type":"Feature","geometry":{"type":"Point","coordinates":[0.1393126,44.5104949]},"properties":{"category":"bakery","name":"Boulangerie Ange","opening_hours":"Mo-Sa 07:00-20:00","phone":"+33 5 53 94 16 76","website":"https://www.boulangerie-ange.fr/stores/boulangerie-ange-marmande/","osm_id":9887769393}},{"type":"Feature","geometry":{"type":"Point","coordinates":[0.1574479,44.5005832]},"properties":{"category":"bakery","name":"Fournil Helios","opening_hours":"Mo-Su 06:00-19:00","phone":"+33 5 53 83 32 63","osm_id":14106992150}}]}