{"type":"FeatureCollection","features":[{"type":"Feature","geometry":{"type":"Point","coordinates":[4.2936614,44.5422967]},"properties":{"category":"bakery","name":"Monsieur et Madame Abatti","opening_hours":"Mo-Fr 07:15-12:30; Sa,Su 07:30-12:30","osm_id":1791430756}},{"type":"Feature","geometry":{"type":"Point","coordinates":[4.2926231,44.5412332]},"properties":{"category":"bakery","name":"Pâtisserie Itinérante Douceur Sauvage","opening_hours":"\"pâtisserie itinérante\"","phone":"+33 6 69 44 17 14","osm_id":11204805137}}]}