{"type":"FeatureCollection","features":[{"type":"Feature","geometry":{"type":"Point","coordinates":[4.824011,44.5159202]},"properties":{"category":"bakery","name":"Fournil du village","osm_id":1805000831}},{"type":"Feature","geometry":{"type":"Point","coordinates":[4.8678717,44.5530748]},"properties":{"category":"bakery","name":"Boulangerie Delcourt 26","opening_hours":"Mo,Tu,Th-Sa 06:30-13:00,15:30-19:00","phone":"+33 4 75 98 95 40","osm_id":7269717085}},{"type":"Feature","geometry":{"type":"Point","coordinates":[4.806377,44.5477447]},"properties":{"category":"compressed_air","osm_id":9810597317}}]}