{"type":"FeatureCollection","features":[{"type":"Feature","geometry":{"type":"Point","coordinates":[2.7583269,44.5282274]},"properties":{"category":"bakery","osm_id":3239517271}},{"type":"Feature","geometry":{"type":"Point","coordinates":[2.7625651,44.5218688]},"properties":{"category":"bakery","name":"Les Délices du Palais","osm_id":4521090826}},{"type":"Feature","geometry":{"type":"Point","coordinates":[2.7621564,44.5207794]},"properties":{"category":"bakery","name":"Boulangerie Michel Hueber","opening_hours":"Fr-Sa 07:00-13:00; Su 07:00-12:00; Tu-Th 07:00-14:00","phone":"+33 5 65 44 06 47","osm_id":4534581437}},{"type":"Feature","geometry":{"type":"Point","coordinates":[2.7632032,44.5220312]},"properties":{"category":"bakery","name":"Maison Garnier","opening_hours":"Tu-Su 07:00-12:30,15:00-19:00; Mo off","osm_id":4534581677}},{"type":"Feature","geometry":{"type":"Point","coordinates":[2.7626442,44.5216047]},"properties":{"category":"bakery","name":"Fanguin Calsat","osm_id":7029312513}},{"type":"Feature","geometry":{"type":"Point","coordinates":[2.7625568,44.5222899]},"properties":{"category":"shop","name":"Espa E-Bike","phone":"+33 6 88 32 88 41","osm_id":7390594150}},{"type":"Feature","geometry":{"type":"Point","coordinates":[2.7638427,44.5234087]},"properties":{"category":"bakery","name":"À la Gerbe d'Or","osm_id":9945203817}},{"type":"Feature","geometry":{"type":"Point","coordinates":[2.7638133,44.5215238]},"properties":{"category":"shop","name":"Espalion Cycles","opening_hours":"Tu-Fr 09:00-12:00,14:00-18:30; Sa 09:00-16:00","osm_id":13004327641}}]}