{"type":"FeatureCollection","features":[{"type":"Feature","geometry":{"type":"Point","coordinates":[-0.2939694,44.5829761]},"properties":{"category":"bakery","osm_id":404669156}},{"type":"Feature","geometry":{"type":"Point","coordinates":[-0.21247,44.5859887]},"properties":{"category":"bakery","name":"Le Pain de Pian","osm_id":2268403824}},{"type":"Feature","geometry":{"type":"Point","coordinates":[-0.288561,44.5956932]},"properties":{"category":"bakery","osm_id":2322161035}},{"type":"Feature","geometry":{"type":"Point","coordinates":[-0.225437,44.550504]},"properties":{"category":"bakery","name":"L'Écrin des douceurs","opening_hours":"Mo-Sa 06:30-13:00,15:30-19:30; Su 06:30-13:00","osm_id":4512718411}},{"type":"Feature","geometry":{"type":"Point","coordinates":[-0.2492265,44.5536575]},"properties":{"category":"bakery","name":"Kennedy","opening_hours":"Mo-Fr 06:00-19:30; Sa 06:00-19:00; Su 06:00-13:00","phone":"+33 5 56 63 29 63","osm_id":4538521767}},{"type":"Feature","geometry":{"type":"Point","coordinates":[-0.2421904,44.5391766]},"properties":{"category":"bakery","name":"Le Fournil de Langon","opening_hours":"Mo-Sa 06:00-20:00; PH,Su 06:00-19:00","osm_id":4622453692}},{"type":"Feature","geometry":{"type":"Point","coordinates":[-0.2584603,44.5437929]},"properties":{"category":"bakery","name":"La Folie des Pains","osm_id":4951618760}},{"type":"Feature","geometry":{"type":"Point","coordinates":[-0.2413998,44.5416563]},"properties":{"category":"bakery","name":"La folie des pains","opening_hours":"Mo-Su 06:00-20:00","phone":"+33524224619","osm_id":5182099221}},{"type":"Feature","geometry":{"type":"Point","coordinates":[-0.2270691,44.5655248]},"properties":{"category":"bakery","name":"Le Pain du Pian","opening_hours":"Mo-Fr 07:00-12:30, 16:30-19:00; Sa 07:30-12:30, 16:30-19:00; Su 07:30-12:30","osm_id":10580056372}},{"type":"Feature","geometry":{"type":"Point","coordinates":[-0.2571085,44.5761175]},"properties":{"category":"bakery","name":"La Pétrisane","osm_id":11414263466}}]}