{"type":"FeatureCollection","features":[{"type":"Feature","geometry":{"type":"Point","coordinates":[2.2571493,44.5551895]},"properties":{"category":"bakery","name":"La Panetière","opening_hours":"Mo-Su 07:00-20:00","phone":"+33 5 65 43 34 59","osm_id":3896173571}},{"type":"Feature","geometry":{"type":"Point","coordinates":[2.2507489,44.5598744]},"properties":{"category":"bakery","name":"Le Paradis des Saveurs","opening_hours":"Mo off; Tu-Sa 07:00-19:00; Su 07:00-12:30","osm_id":6732204244}},{"type":"Feature","geometry":{"type":"Point","coordinates":[2.2647609,44.5563245]},"properties":{"category":"bakery","name":"Pon-Pon","opening_hours":"Mo-Sa 06:00-20:00","osm_id":10129696581}},{"type":"Feature","geometry":{"type":"Point","coordinates":[2.2523233,44.5587633]},"properties":{"category":"bakery","name":"Les P’tits Blés Dorés","opening_hours":"Tu-Sa 07:00-18:30","osm_id":10129701637}},{"type":"Feature","geometry":{"type":"Point","coordinates":[2.2589694,44.5579539]},"properties":{"category":"bakery","name":"Marie Blachère","opening_hours":"Mo-Sa 06:30-19:30","phone":"+33 5 82 22 00 20","osm_id":12399932765}},{"type":"Feature","geometry":{"type":"Point","coordinates":[2.2059231,44.5902518]},"properties":{"category":"bakery","osm_id":14063744790}}]}