{"type":"FeatureCollection","features":[{"type":"Feature","geometry":{"type":"Point","coordinates":[4.4165916,44.5396266]},"properties":{"category":"bakery","name":"Le Fournil de l'Auzon","osm_id":2464253722}},{"type":"Feature","geometry":{"type":"Point","coordinates":[4.4130775,44.5401308]},"properties":{"category":"bakery","name":"L'Art des Chois","opening_hours":"Tu-Su 06:30-13:00, Tu-Sa 15:30-19:00","osm_id":2464253723}},{"type":"Feature","geometry":{"type":"Point","coordinates":[4.4570969,44.5722967]},"properties":{"category":"bakery","name":"La belle farinière","osm_id":9556436503}},{"type":"Feature","geometry":{"type":"Point","coordinates":[4.4164229,44.5395165]},"properties":{"category":"shop","name":"Bicyclart","osm_id":13772773149}},{"type":"Feature","geometry":{"type":"Point","coordinates":[4.4112231,44.5404622]},"properties":{"category":"bakery","name":"La Mie Spar","osm_id":13772773165}}]}