{"type":"FeatureCollection","features":[{"type":"Feature","geometry":{"type":"Point","coordinates":[4.7434467,44.5493954]},"properties":{"category":"bakery","name":"Boulangerie pâtisserie Nocaze","opening_hours":"Mo-Su 06:00-20:00","osm_id":2040708875}},{"type":"Feature","geometry":{"type":"Point","coordinates":[4.7443806,44.5247815]},"properties":{"category":"bakery","name":"Marie Blachère","opening_hours":"Mo-Sa 07:30-20:00","phone":"+33 4 75 51 85 99","website":"https://boulangeries.marieblachere.com/fr/france-FR/7009/marie-blachere-montelimar/details?utm_source=google&utm_medium=organic&utm_campaign=mybusiness-website","osm_id":2060759356}},{"type":"Feature","geometry":{"type":"Point","coordinates":[4.7469447,44.5618564]},"properties":{"category":"bakery","name":"La boulangerie d'Emilien","opening_hours":"Mo-Sa 06:00-19:45; Su 06:00-12:30","phone":"+33 4 75 01 40 83","osm_id":2133506745}},{"type":"Feature","geometry":{"type":"Point","coordinates":[4.7461152,44.5405841]},"properties":{"category":"bakery","name":"Sophie Lebreuilly","opening_hours":"06:30-20:00","website":"https://sophie-lebreuilly.com","osm_id":2171013229}},{"type":"Feature","geometry":{"type":"Point","coordinates":[4.7428016,44.5493178]},"properties":{"category":"shop","name":"Je pn'eu le faire","opening_hours":"We 14:00-18:00; Th 09:00-11:30","website":"https://montelovelo.fr/","osm_id":2684845844}},{"type":"Feature","geometry":{"type":"Point","coordinates":[4.7743145,44.5485195]},"properties":{"category":"bakery","name":"La source du pain","phone":"+33 4 75 50 19 76","osm_id":3822622850}},{"type":"Feature","geometry":{"type":"Point","coordinates":[4.7469692,44.5496081]},"properties":{"category":"bakery","name":"Le Faubourg","phone":"+33 4 69 03 10 23","osm_id":3827307676}},{"type":"Feature","geometry":{"type":"Point","coordinates":[4.7550548,44.5686034]},"properties":{"category":"bakery","name":"Boulangerie chez les Vincent","opening_hours":"Mo off; Tu-Sa 06:00-19:00; Su 06:00-12:30","phone":"+33 4 75 01 78 17","website":"https://facebook.com","osm_id":3829580155}},{"type":"Feature","geometry":{"type":"Point","coordinates":[4.7733797,44.5499492]},"properties":{"category":"bakery","name":"Le Pétrin Ribeïrou","osm_id":3834785060}},{"type":"Feature","geometry":{"type":"Point","coordinates":[4.7558259,44.5465915]},"properties":{"category":"bakery","name":"Boulangerie de l'Europe","opening_hours":"Mo-Sa 05:30-19:30; Su off","phone":"+33 4 75 51 82 20","osm_id":3844911426}},{"type":"Feature","geometry":{"type":"Point","coordinates":[4.7671914,44.5388847]},"properties":{"category":"bakery","name":"Tendance Gourmande","osm_id":3851104497}},{"type":"Feature","geometry":{"type":"Point","coordinates":[4.7664444,44.5523643]},"properties":{"category":"bakery","name":"Escobar","phone":"+33 4 75 00 50 67","website":"https://www.escobargourmandises.fr/","osm_id":3856671402}},{"type":"Feature","geometry":{"type":"Point","coordinates":[4.7045849,44.5882571]},"properties":{"category":"bakery","name":"Boulangerie Le Moulin de Bruno","opening_hours":"Tu-Sa 06:00-20:00; Su 06:00-19:00","phone":"+33 4 75 52 10 62","website":"https://www.facebook.com/boulangerielemoulindebruno/","osm_id":3899885141}},{"type":"Feature","geometry":{"type":"Point","coordinates":[4.7472201,44.5314077]},"properties":{"category":"compressed_air","name":"Station de gonflage Carrefour","osm_id":3953266328}},{"type":"Feature","geometry":{"type":"Point","coordinates":[4.7418331,44.5542179]},"properties":{"category":"bakery","name":"L'atelier de Sébastien","opening_hours":"Mo-Sa 06:00-20:00; Su 06:00-19:00","phone":"+33 4 75 00 46 10","osm_id":6269355160}},{"type":"Feature","geometry":{"type":"Point","coordinates":[4.7529148,44.5805614]},"properties":{"category":"bakery","name":"Boulangerie Giannecci","opening_hours":"Mo-Sa 05:30-19:00; Su off","phone":"+33 4 75 97 50 99","osm_id":6542869208}},{"type":"Feature","geometry":{"type":"Point","coordinates":[4.7428767,44.5319925]},"properties":{"category":"bakery","name":"Marie Blachère","opening_hours":"Mo-Sa 06:30-19:30; Su off","phone":"+33 4 75 96 49 80","website":"https://boulangeries.marieblachere.com/fr/france-FR/5291/marie-blachere-montelimar-couchant/details?utm_source=google&utm_medium=organic&utm_campaign=mybusiness-website","osm_id":6604995386}},{"type":"Feature","geometry":{"type":"Point","coordinates":[4.7471701,44.5456721]},"properties":{"category":"bakery","name":"Fournil Demalice","opening_hours":"Mo-Fr 05:00-19:00; Sa 06:00-19:00; Su off","phone":"+33 4 75 01 21 99","osm_id":7200340209}},{"type":"Feature","geometry":{"type":"Point","coordinates":[4.7834937,44.5151131]},"properties":{"category":"bakery","name":"Brioche Dorée","opening_hours":"Mo-Su 07:00-22:00","phone":"+33 4 75 91 80 50","website":"https://www.briochedoree.fr/","osm_id":7565621985}},{"type":"Feature","geometry":{"type":"Point","coordinates":[4.7820956,44.5169695]},"properties":{"category":"bakery","name":"Brioche Dorée","phone":"+33 4 75 91 80 50","osm_id":7565632686}},{"type":"Feature","geometry":{"type":"Point","coordinates":[4.7496874,44.5556639]},"properties":{"category":"bakery","name":"Boulangerie \"Le Remu\"","opening_hours":"Mo-Sa 06:30-19:30","phone":"+33 4 75 01 06 57","osm_id":7897372343}},{"type":"Feature","geometry":{"type":"Point","coordinates":[4.7483188,44.559637]},"properties":{"category":"bakery","name":"La Mie Câline","opening_hours":"Mo-Su 06:30-19:30","phone":"+33 4 75 01 03 12","osm_id":8824587717}},{"type":"Feature","geometry":{"type":"Point","coordinates":[4.7454909,44.534656]},"properties":{"category":"bakery","name":"L'Atelier du Pain","opening_hours":"Mo-Fr 06:30-19:30; Sa 07:00-19:30; Su 07:00-19:00","phone":"+33 4 75 51 64 33","website":"https://www.latelierdupain26.fr/","osm_id":8825381517}},{"type":"Feature","geometry":{"type":"Point","coordinates":[4.7458548,44.5363056]},"properties":{"category":"bakery","name":"Marie Blachère","opening_hours":"Mo-Sa 07:00-19:30","phone":"+33 4 75 54 41 34","website":"https://boulangeries.marieblachere.com/fr/france-FR/5422/marie-blachere-montelimar-colonnes/details","osm_id":9253494480}},{"type":"Feature","geometry":{"type":"Point","coordinates":[4.7503619,44.5315411]},"properties":{"category":"compressed_air","osm_id":9810597217}},{"type":"Feature","geometry":{"type":"Point","coordinates":[4.7338028,44.5333635]},"properties":{"category":"bakery","name":"Boulangerie Sophie Lebreuilly","opening_hours":"Mo-Su 06:30-20:00","phone":"+33 4 75 01 15 36","website":"https://sophie-lebreuilly.com/","osm_id":10726227007}},{"type":"Feature","geometry":{"type":"Point","coordinates":[4.7048885,44.5879993]},"properties":{"category":"bakery","name":"Le fournil du chateau","opening_hours":"Mo-We, Fr-Su 06:00-19:00","osm_id":10779807679}},{"type":"Feature","geometry":{"type":"Point","coordinates":[4.7500651,44.5561369]},"properties":{"category":"bakery","name":"Boulangerie Patisserie a&c Fargeon","opening_hours":"Tu-Sa 06:30-19:15; Su 07:00-13:00","phone":"+33 4 75 01 64 04","osm_id":11271746497}},{"type":"Feature","geometry":{"type":"Point","coordinates":[4.7311736,44.5376987]},"properties":{"category":"shop","name":"Culture Vélo","opening_hours":"Tu-Fr 09:00-12:15,14:30-19:00; Sa 09:00-12:15,14:00-18:00","phone":"+33 4 75 91 70 11","website":"https://www.culturevelo.com/-Montelimar-","osm_id":13113040517}},{"type":"Feature","geometry":{"type":"Point","coordinates":[4.7356828,44.5302287]},"properties":{"category":"shop","name":"S'Bike","opening_hours":"Mo off; Tu-Fr 08:30-12:00,14:30-18:30; Sa 08:30-12:00","phone":"+33 4 75 51 54 65","website":"https://yvansbike.com/","osm_id":13127880409}},{"type":"Feature","geometry":{"type":"Point","coordinates":[4.7544053,44.5758748]},"properties":{"category":"bakery","name":"Pomme Cannelle","opening_hours":"Mo off; Tu-Fr 08:00-19:00; Sa 08:00-18:30; Su off","phone":"+33 4 75 51 03 31","website":"http://www.pomme-cannelle.net/","osm_id":13159443043}},{"type":"Feature","geometry":{"type":"Point","coordinates":[4.7447978,44.5263638]},"properties":{"category":"repair","opening_hours":"24/7","osm_id":13586344832}},{"type":"Feature","geometry":{"type":"Point","coordinates":[4.7528284,44.5482081]},"properties":{"category":"bakery","name":"André Boulangerie","opening_hours":"Mo-Fr 06:00-19:30, Sa 06:00-13:00","phone":"+33 4 75 91 18 94","osm_id":13791738833}},{"type":"Feature","geometry":{"type":"Point","coordinates":[4.7635589,44.5373617]},"properties":{"category":"bakery","name":"Paul","phone":"+33 4 82 29 92 73","website":"https://www.paul.fr/stores/montelimar_president_coty","osm_id":13857697244}},{"type":"Feature","geometry":{"type":"Point","coordinates":[4.7737355,44.549907]},"properties":{"category":"shop","name":"Fit Bike","phone":"+33 4 75 97 55 38","website":"https://fitbike26.fr","osm_id":14020090873}}]}