{"type":"FeatureCollection","features":[{"type":"Feature","geometry":{"type":"Point","coordinates":[4.3794631,44.5948813]},"properties":{"category":"bakery","name":"Marie Blachère","opening_hours":"Mo-Sa 06:30-19:30; Su 07:30-13:30","phone":"+33 4 75 89 08 78","website":"https://boulangeries.marieblachere.com/fr/france-FR/5006/marie-blachere-st-etienne-de-fontbellon/details","osm_id":2476883028}},{"type":"Feature","geometry":{"type":"Point","coordinates":[4.3991128,44.521557]},"properties":{"category":"bakery","name":"Boulangerie Michel","osm_id":2808385059}},{"type":"Feature","geometry":{"type":"Point","coordinates":[4.3931713,44.5712118]},"properties":{"category":"bakery","name":"La meule de Bruno","osm_id":8978292427}},{"type":"Feature","geometry":{"type":"Point","coordinates":[4.327937,44.520257]},"properties":{"category":"repair","opening_hours":"24/7","website":"https://www.ardeche-guide.com/commerce/plateforme-velo-repar-5666777","osm_id":12239666354}},{"type":"Feature","geometry":{"type":"Point","coordinates":[4.3420931,44.5321777]},"properties":{"category":"bakery","name":"Les petits plaisirs Ardéchois","phone":"+33 7 49 51 65 27","osm_id":13114698702}}]}