{"type":"FeatureCollection","features":[{"type":"Feature","geometry":{"type":"Point","coordinates":[3.6622903,44.5073644]},"properties":{"category":"bakery","name":"Le Fournil Bagnolais","osm_id":3395276720}},{"type":"Feature","geometry":{"type":"Point","coordinates":[3.6621369,44.5071893]},"properties":{"category":"repair","osm_id":14086222601}},{"type":"Feature","geometry":{"type":"Point","coordinates":[3.6345449,44.5193918]},"properties":{"category":"bakery","opening_hours":"Tu,Fr 09:00-09:05","osm_id":14094141517}}]}