{"type":"FeatureCollection","features":[{"type":"Feature","geometry":{"type":"Point","coordinates":[4.4129411,44.627644]},"properties":{"category":"bakery","osm_id":1567261194}},{"type":"Feature","geometry":{"type":"Point","coordinates":[4.4066089,44.6132778]},"properties":{"category":"bakery","name":"Marie Blachère","opening_hours":"Mo-Sa 06:30-19:30","phone":"+33 4 75 35 54 92","website":"https://boulangeries.marieblachere.com/fr/france-FR/5024/marie-blachere-aubenas/details","osm_id":2195755394}},{"type":"Feature","geometry":{"type":"Point","coordinates":[4.4724937,44.6116408]},"properties":{"category":"bakery","name":"La Lussassoise","osm_id":2673047396}},{"type":"Feature","geometry":{"type":"Point","coordinates":[4.4093495,44.6124297]},"properties":{"category":"bakery","name":"Moulin D'Aubenas","osm_id":4992575021}},{"type":"Feature","geometry":{"type":"Point","coordinates":[4.4438516,44.6526453]},"properties":{"category":"bakery","name":"Yves Saunier - Pains & Créations","osm_id":5244925623}},{"type":"Feature","geometry":{"type":"Point","coordinates":[4.4138511,44.6274396]},"properties":{"category":"bakery","osm_id":5244929487}},{"type":"Feature","geometry":{"type":"Point","coordinates":[4.4118684,44.6115785]},"properties":{"category":"shop","name":"Cycles Moulin","phone":"+33475948755","website":"https://www.cycles-moulin.fr/","osm_id":5635166973}},{"type":"Feature","geometry":{"type":"Point","coordinates":[4.4428912,44.6512291]},"properties":{"category":"bakery","name":"Cottret","osm_id":10033776320}}]}