{"type":"FeatureCollection","features":[{"type":"Feature","geometry":{"type":"Point","coordinates":[6.634842,44.6221088]},"properties":{"category":"bakery","osm_id":1825098542}},{"type":"Feature","geometry":{"type":"Point","coordinates":[6.6344011,44.6221012]},"properties":{"category":"bakery","osm_id":1825359311}},{"type":"Feature","geometry":{"type":"Point","coordinates":[6.6169061,44.6765127]},"properties":{"category":"bakery","name":"La Galette de Vauban","opening_hours":"Mo-Sa 06:30-19:00; Su 06:30-12:30","phone":"+33 4 92 45 30 35","osm_id":2221779826}},{"type":"Feature","geometry":{"type":"Point","coordinates":[6.6176006,44.6726806]},"properties":{"category":"bakery","osm_id":2221779947}},{"type":"Feature","geometry":{"type":"Point","coordinates":[6.6495588,44.659776]},"properties":{"category":"bakery","name":"La Guillestrine","opening_hours":"Mo,Tu,Th-Sa 06:30-13:00, Mo,Tu,Th-Sa 15:00-19:30, Su 06:30-12:30, Su 15:30-18:30; We off","osm_id":2940043108}},{"type":"Feature","geometry":{"type":"Point","coordinates":[6.6498116,44.6598757]},"properties":{"category":"bakery","name":"Boulangerie - Patisserie","osm_id":2940043110}},{"type":"Feature","geometry":{"type":"Point","coordinates":[6.6522243,44.6607451]},"properties":{"category":"bakery","name":"La boulangerie artisanal","opening_hours":"Mo-Fr 09:00-13:00, 16:00-19:30; Sa 07:00-14:00","osm_id":2940043111}},{"type":"Feature","geometry":{"type":"Point","coordinates":[6.6386338,44.6584185]},"properties":{"category":"wash","osm_id":4404273499}},{"type":"Feature","geometry":{"type":"Point","coordinates":[6.6182179,44.6665035]},"properties":{"category":"shop","name":"GUIL-EBIKE (Bike shop)","opening_hours":"Mo-Sa 08:00-18:00","phone":"+33695072961","website":"https://www.guil-ebike.com","osm_id":8540562770}},{"type":"Feature","geometry":{"type":"Point","coordinates":[6.6512343,44.6605834]},"properties":{"category":"repair","osm_id":13019168282}},{"type":"Feature","geometry":{"type":"Point","coordinates":[6.6232374,44.6689022]},"properties":{"category":"repair","osm_id":13019207309}}]}