{"type":"FeatureCollection","features":[{"type":"Feature","geometry":{"type":"Point","coordinates":[0.742429,44.6367479]},"properties":{"category":"bakery","name":"Moulin de Bidou","opening_hours":"Tu-Sa 07:00-19:00; Su 07:00-12:30","osm_id":3676864883}},{"type":"Feature","geometry":{"type":"Point","coordinates":[0.7510046,44.6941357]},"properties":{"category":"bakery","osm_id":3683006106}},{"type":"Feature","geometry":{"type":"Point","coordinates":[0.7402154,44.6360215]},"properties":{"category":"bakery","name":"Banette","osm_id":5148367146}},{"type":"Feature","geometry":{"type":"Point","coordinates":[0.7436411,44.6357107]},"properties":{"category":"bakery","osm_id":10958286112}}]}