{"type":"FeatureCollection","features":[{"type":"Feature","geometry":{"type":"Point","coordinates":[-0.5243785,44.6822294]},"properties":{"category":"bakery","name":"Le Fournil Montesquieu","opening_hours":"Mo-Sa 07:00-19:30; Su 07:00-13:00","phone":"+33557807178","osm_id":4572194489}},{"type":"Feature","geometry":{"type":"Point","coordinates":[-0.5536817,44.6062813]},"properties":{"category":"bakery","osm_id":6418456157}},{"type":"Feature","geometry":{"type":"Point","coordinates":[-0.5012106,44.6907236]},"properties":{"category":"bakery","name":"La Panetière","osm_id":10743783007}}]}