{"type":"FeatureCollection","features":[{"type":"Feature","geometry":{"type":"Point","coordinates":[-1.2403469,44.6564809]},"properties":{"category":"shop","name":"Ginette","osm_id":2584964167}},{"type":"Feature","geometry":{"type":"Point","coordinates":[-1.2028956,44.6313302]},"properties":{"category":"compressed_air","opening_hours":"24/7","osm_id":9029881582}},{"type":"Feature","geometry":{"type":"Point","coordinates":[-1.2410628,44.6546793]},"properties":{"category":"shop","name":"Gyro Cap","osm_id":9451164803}},{"type":"Feature","geometry":{"type":"Point","coordinates":[-1.2458137,44.6514619]},"properties":{"category":"repair","osm_id":13247832219}}]}