{"type":"FeatureCollection","features":[{"type":"Feature","geometry":{"type":"Point","coordinates":[5.0621174,44.6458363]},"properties":{"category":"bakery","name":"Tour de Mains","opening_hours":"Mo,Th-Sa 07:00-13:00; Su 07:00-12:30","phone":"+33481662796","osm_id":278990654}},{"type":"Feature","geometry":{"type":"Point","coordinates":[5.0117109,44.6026725]},"properties":{"category":"bakery","osm_id":9859998026}},{"type":"Feature","geometry":{"type":"Point","coordinates":[5.0641935,44.6456983]},"properties":{"category":"shop","name":"Mérinos Cycles","opening_hours":"Tu-Fr 09:30-12:00,14:00-18:00; Sa 09:00-12:00; Su 09:00-18:00","phone":"+33 6 09 26 54 87","website":"https://www.instagram.com/merinoscycles/","osm_id":11083813905}}]}