{"type":"FeatureCollection","features":[{"type":"Feature","geometry":{"type":"Point","coordinates":[1.898401,44.7878339]},"properties":{"category":"bakery","name":"Boulangerie Pâtisserie H&M Bakhouche","osm_id":3732492923}},{"type":"Feature","geometry":{"type":"Point","coordinates":[1.850854,44.7848516]},"properties":{"category":"bakery","osm_id":4383480934}},{"type":"Feature","geometry":{"type":"Point","coordinates":[1.8289323,44.7396025]},"properties":{"category":"bakery","name":"Paitisserie Pain","opening_hours":"Mo-Sa 07:00-13:00, 16:00-19:00; Su 07:00-12:30","osm_id":13826929701}},{"type":"Feature","geometry":{"type":"Point","coordinates":[1.8502415,44.786764]},"properties":{"category":"bakery","name":"Au Fournil d'Aynac","opening_hours":"Mo-Fr 06:45-19:00; Sa 06:45-14:00","osm_id":14119123501}}]}