{"type":"FeatureCollection","features":[{"type":"Feature","geometry":{"type":"Point","coordinates":[6.5588983,44.7948571]},"properties":{"category":"bakery","name":"L'Edelweiss","opening_hours":"Mo-Sa 07:00-12:30, Tu-Sa 16:00-19:00, Su 07:00-12:30","osm_id":2855652943}},{"type":"Feature","geometry":{"type":"Point","coordinates":[6.559568,44.7941028]},"properties":{"category":"bakery","name":"L’Arbre à Pain","phone":"+33 785301293","osm_id":9952699559}},{"type":"Feature","geometry":{"type":"Point","coordinates":[6.5559455,44.7771412]},"properties":{"category":"shop","name":"60-40 Le vélo Easy - Bike café - Shop","phone":"+337 54 38 48 60","website":"https://www.60-40.fr/","osm_id":11049148095}}]}