{"type":"FeatureCollection","features":[{"type":"Feature","geometry":{"type":"Point","coordinates":[1.4730188,44.7967204]},"properties":{"category":"bakery","name":"Boulangerie Patisserie Bru","osm_id":2742251667}},{"type":"Feature","geometry":{"type":"Point","coordinates":[1.4324805,44.7433367]},"properties":{"category":"bakery","name":"La panière à Pains","opening_hours":"Mo-We, Fr, Sa 07:00-19:00; Su 07:00-13:30","phone":"+33780069180","osm_id":8334438381}},{"type":"Feature","geometry":{"type":"Point","coordinates":[1.4388165,44.7413286]},"properties":{"category":"bakery","name":"Boulangerie Delchie","opening_hours":"Tu-Sa 07:00-12:30, 15:00-19:00; Su 07:00-12:00","phone":"+33 5 65 41 12 76","osm_id":8958893030}}]}