{"type":"FeatureCollection","features":[{"type":"Feature","geometry":{"type":"Point","coordinates":[3.2849841,44.7229483]},"properties":{"category":"bakery","name":"G. Jouve","opening_hours":"Tu-Sa 06:00-19:30; Su 06:00-12:30","osm_id":3766304318}},{"type":"Feature","geometry":{"type":"Point","coordinates":[3.2825284,44.7213427]},"properties":{"category":"bakery","name":"Solignac","opening_hours":"Mo-Sa 06:30-13:00, Mo-Sa 15:00-19:00, Su 06:30-12:30","osm_id":5079647758}},{"type":"Feature","geometry":{"type":"Point","coordinates":[3.2772695,44.7972541]},"properties":{"category":"bakery","name":"Secrets de pains","osm_id":14100679980}}]}