{"type":"FeatureCollection","features":[{"type":"Feature","geometry":{"type":"Point","coordinates":[3.8829051,44.7696837]},"properties":{"category":"bakery","opening_hours":"Tu-Su 08:00-12:30, 17:00-19:00","osm_id":3672590432}},{"type":"Feature","geometry":{"type":"Point","coordinates":[3.8554906,44.7263532]},"properties":{"category":"bakery","name":"Boulangerie du Porche","opening_hours":"Mo-Sa 06:00-12:30, 15:00-19:00","osm_id":6898686024}},{"type":"Feature","geometry":{"type":"Point","coordinates":[3.8558922,44.7259705]},"properties":{"category":"bakery","osm_id":6898695219}},{"type":"Feature","geometry":{"type":"Point","coordinates":[3.8548867,44.7264721]},"properties":{"category":"shop","name":"Cycles Jourdan","osm_id":9872595946}},{"type":"Feature","geometry":{"type":"Point","coordinates":[3.8544853,44.7269486]},"properties":{"category":"bakery","name":"Gerinte","opening_hours":"Mo,Tu,Th-Sa 04:30-19:00; Su 05:30-18:30","osm_id":11105519572}},{"type":"Feature","geometry":{"type":"Point","coordinates":[3.8566759,44.7282374]},"properties":{"category":"compressed_air","osm_id":13092535385}}]}