{"type":"FeatureCollection","features":[{"type":"Feature","geometry":{"type":"Point","coordinates":[4.7473089,44.7517425]},"properties":{"category":"bakery","name":"Boulangerie Vergne","osm_id":6656926119}},{"type":"Feature","geometry":{"type":"Point","coordinates":[4.7872819,44.7197424]},"properties":{"category":"bakery","name":"Brioche Dorée","opening_hours":"Mo-Su 06:00-22:00","phone":"+33 4 75 63 16 00","website":"https://www.briochedoree.fr/restaurants/1241-aire-de-saulce-sur-rhone-a7","osm_id":7591912785}},{"type":"Feature","geometry":{"type":"Point","coordinates":[4.7479933,44.7514232]},"properties":{"category":"bakery","name":"Le Fournil du Pouzin","osm_id":8043792244}},{"type":"Feature","geometry":{"type":"Point","coordinates":[4.7481556,44.7525843]},"properties":{"category":"bakery","name":"Martine et Marc Noirtin","osm_id":8108735487}},{"type":"Feature","geometry":{"type":"Point","coordinates":[4.7486239,44.7526006]},"properties":{"category":"shop","name":"Cycl’Addict","osm_id":8108735488}},{"type":"Feature","geometry":{"type":"Point","coordinates":[4.7868254,44.7204782]},"properties":{"category":"compressed_air","osm_id":12794813454}},{"type":"Feature","geometry":{"type":"Point","coordinates":[4.7868347,44.7200994]},"properties":{"category":"bakery","name":"La Mie Câline","osm_id":12987540323}},{"type":"Feature","geometry":{"type":"Point","coordinates":[4.799657,44.7040316]},"properties":{"category":"bakery","name":"Le Fournil de Saulce","opening_hours":"Tu-Sa 06:30-13:00,16:00-19:00; Su 07:00-12:30","phone":"+33 4 75 56 42 88","osm_id":13027276562}}]}