{"type":"FeatureCollection","features":[{"type":"Feature","geometry":{"type":"Point","coordinates":[4.8412813,44.7690958]},"properties":{"category":"bakery","name":"Artisan Boulanger Pâtissier Florentin","osm_id":603068349}},{"type":"Feature","geometry":{"type":"Point","coordinates":[4.8413739,44.770126]},"properties":{"category":"bakery","name":"Ducros","osm_id":2091600147}},{"type":"Feature","geometry":{"type":"Point","coordinates":[4.8317795,44.7778576]},"properties":{"category":"bakery","name":"Marie Blachère","phone":"+33 4 75 78 43 70","osm_id":3221259511}},{"type":"Feature","geometry":{"type":"Point","coordinates":[4.8419043,44.7715997]},"properties":{"category":"bakery","name":"Patisserie Sahy","osm_id":3463110887}},{"type":"Feature","geometry":{"type":"Point","coordinates":[4.8440235,44.7727322]},"properties":{"category":"bakery","osm_id":3463188273}},{"type":"Feature","geometry":{"type":"Point","coordinates":[4.8197405,44.7522641]},"properties":{"category":"bakery","name":"Aux Délice de Loriol","opening_hours":"Mo,Tu,Th,Fr 06:00-19:00; Sa 06:00-18:30; Su 06:00-12:30","osm_id":11581462457}}]}