{"type":"FeatureCollection","features":[{"type":"Feature","geometry":{"type":"Point","coordinates":[-0.4345821,44.7505587]},"properties":{"category":"bakery","osm_id":2036718432}},{"type":"Feature","geometry":{"type":"Point","coordinates":[-0.4021169,44.7096844]},"properties":{"category":"bakery","name":"Au Petit Bonheur","osm_id":3398341456}},{"type":"Feature","geometry":{"type":"Point","coordinates":[-0.4965165,44.7842536]},"properties":{"category":"bakery","name":"Les Pains de Guillaume","opening_hours":"Tu-Fr 06:45-13:00,16:00-19:00; Su 07:00-13:00; Sa 06:45-12:45","phone":"+33 5 57 12 05 33","osm_id":4219934063}},{"type":"Feature","geometry":{"type":"Point","coordinates":[-0.41196,44.7811488]},"properties":{"category":"bakery","name":"Aux Gourmandise de l'Entre-Deux-Mers","osm_id":4220016582}},{"type":"Feature","geometry":{"type":"Point","coordinates":[-0.4621817,44.7784099]},"properties":{"category":"bakery","name":"Boulangerie Duchat","opening_hours":"Mo-Sa 06:15-13:15,15:45-19:45; Su,PH 06:15-13:15","osm_id":4379443394}},{"type":"Feature","geometry":{"type":"Point","coordinates":[-0.4882954,44.7669867]},"properties":{"category":"bakery","name":"Farine et Vanille","osm_id":6391567439}},{"type":"Feature","geometry":{"type":"Point","coordinates":[-0.4549011,44.7054939]},"properties":{"category":"bakery","name":"Ma mie, Madeleine","opening_hours":"Mo-Fr 06:30-19:30, 13:00-15:30; Sa 06:30-13:00; Su 08:00-13:00","phone":"+33 9 82 42 58 38","osm_id":6782204318}},{"type":"Feature","geometry":{"type":"Point","coordinates":[-0.4633855,44.7314764]},"properties":{"category":"bakery","name":"Boulangerie Patisserie Maccari","osm_id":9050207762}},{"type":"Feature","geometry":{"type":"Point","coordinates":[-0.4958886,44.7826145]},"properties":{"category":"compressed_air","osm_id":12056932297}},{"type":"Feature","geometry":{"type":"Point","coordinates":[-0.4888156,44.7549717]},"properties":{"category":"bakery","name":"Farine et Vanille","opening_hours":"Tu-Fr 07:30-13:00,15:30-19:30; Sa,Su 07:30-13:00","osm_id":12106720168}},{"type":"Feature","geometry":{"type":"Point","coordinates":[-0.4681709,44.7930844]},"properties":{"category":"repair","osm_id":14028479057}},{"type":"Feature","geometry":{"type":"Point","coordinates":[-0.4681776,44.793072]},"properties":{"category":"repair","opening_hours":"24/7","osm_id":14028479058}}]}