{"type":"FeatureCollection","features":[{"type":"Feature","geometry":{"type":"Point","coordinates":[-1.1808226,44.7482686]},"properties":{"category":"shop","osm_id":9395436289}},{"type":"Feature","geometry":{"type":"Point","coordinates":[-1.1034494,44.7454738]},"properties":{"category":"compressed_air","osm_id":9860723442}},{"type":"Feature","geometry":{"type":"Point","coordinates":[-1.1317944,44.7681438]},"properties":{"category":"repair","osm_id":9910473567}},{"type":"Feature","geometry":{"type":"Point","coordinates":[-1.1820415,44.7492611]},"properties":{"category":"compressed_air","osm_id":10836537601}},{"type":"Feature","geometry":{"type":"Point","coordinates":[-1.1333583,44.7950688]},"properties":{"category":"repair","osm_id":11225615271}}]}