{"type":"FeatureCollection","features":[{"type":"Feature","geometry":{"type":"Point","coordinates":[-0.7008621,44.771417]},"properties":{"category":"bakery","osm_id":1866491948}},{"type":"Feature","geometry":{"type":"Point","coordinates":[-0.7365022,44.7578224]},"properties":{"category":"bakery","name":"Chauros","osm_id":2971368748}},{"type":"Feature","geometry":{"type":"Point","coordinates":[-0.7046898,44.7932925]},"properties":{"category":"bakery","osm_id":11899500279}},{"type":"Feature","geometry":{"type":"Point","coordinates":[-0.7032221,44.7935857]},"properties":{"category":"repair","osm_id":13506243789}}]}