{"type":"FeatureCollection","features":[{"type":"Feature","geometry":{"type":"Point","coordinates":[-1.0967322,44.7410221]},"properties":{"category":"shop","name":"Cycles Delort Sport","opening_hours":"Tu-Sa 10:00-12:30,14:30-19:00","website":"http://delort-sport.fr/","osm_id":3648652058}},{"type":"Feature","geometry":{"type":"Point","coordinates":[-1.0604722,44.7148674]},"properties":{"category":"repair","osm_id":9723706715}},{"type":"Feature","geometry":{"type":"Point","coordinates":[-1.0990745,44.7434415]},"properties":{"category":"compressed_air","osm_id":9864078589}},{"type":"Feature","geometry":{"type":"Point","coordinates":[-1.0984958,44.7434839]},"properties":{"category":"repair","osm_id":11291185312}},{"type":"Feature","geometry":{"type":"Point","coordinates":[-1.0985282,44.7432432]},"properties":{"category":"repair","osm_id":13247800759}},{"type":"Feature","geometry":{"type":"Point","coordinates":[-1.0990885,44.7434454]},"properties":{"category":"repair","osm_id":13247800762}}]}