{"type":"FeatureCollection","features":[{"type":"Feature","geometry":{"type":"Point","coordinates":[0.9105576,44.8467008]},"properties":{"category":"bakery","name":"Le Pain Dort","osm_id":6660729971}},{"type":"Feature","geometry":{"type":"Point","coordinates":[0.9098847,44.8453525]},"properties":{"category":"bakery","name":"Boulangerie","osm_id":10846662106}},{"type":"Feature","geometry":{"type":"Point","coordinates":[0.9878898,44.8229048]},"properties":{"category":"bakery","name":"Au fournil de Siorac","opening_hours":"Mo-Sa 07:00-19:00; Su 07:30-12:30","osm_id":11043020927}},{"type":"Feature","geometry":{"type":"Point","coordinates":[0.9110268,44.8457759]},"properties":{"category":"bakery","name":"Le Fournil d'Urval","osm_id":11145760626}}]}