{"type":"FeatureCollection","features":[{"type":"Feature","geometry":{"type":"Point","coordinates":[-0.7073717,44.8907789]},"properties":{"category":"bakery","name":"RF","osm_id":845758679}},{"type":"Feature","geometry":{"type":"Point","coordinates":[-0.7834945,44.8101776]},"properties":{"category":"bakery","osm_id":1666965288}},{"type":"Feature","geometry":{"type":"Point","coordinates":[-0.7899633,44.8074526]},"properties":{"category":"bakery","name":"Chez Morgan et Lorie","osm_id":1666965322}},{"type":"Feature","geometry":{"type":"Point","coordinates":[-0.7530941,44.8108781]},"properties":{"category":"bakery","osm_id":1667311510}},{"type":"Feature","geometry":{"type":"Point","coordinates":[-0.7755623,44.8412812]},"properties":{"category":"bakery","osm_id":1896498872}},{"type":"Feature","geometry":{"type":"Point","coordinates":[-0.7756257,44.8411184]},"properties":{"category":"bakery","osm_id":1896499130}},{"type":"Feature","geometry":{"type":"Point","coordinates":[-0.7452949,44.8978157]},"properties":{"category":"bakery","name":"Le Fournil d'Hastignan","opening_hours":"Mo-Sa 07:00-12:40, 16:00-19:40; Su 07:30-12:30","osm_id":3199762361}},{"type":"Feature","geometry":{"type":"Point","coordinates":[-0.7131609,44.8947515]},"properties":{"category":"bakery","name":"Erable et Noix","opening_hours":"Tu-Sa 08:00-14:00, 16:00-19:30","phone":"+33 5 56 67 63 95","osm_id":5272391693}},{"type":"Feature","geometry":{"type":"Point","coordinates":[-0.7281527,44.8648036]},"properties":{"category":"bakery","name":"Boul'Ange","osm_id":6942546540}},{"type":"Feature","geometry":{"type":"Point","coordinates":[-0.7015556,44.8305023]},"properties":{"category":"bakery","name":"Brioche Dorée","phone":"+33 5 56 34 67 65","website":"https://www.briochedoree.fr/restaurants/1081-aeroport-bordeaux-merignac","osm_id":7595752085}},{"type":"Feature","geometry":{"type":"Point","coordinates":[-0.7253635,44.8923778]},"properties":{"category":"repair","opening_hours":"24/7","osm_id":8656615819}},{"type":"Feature","geometry":{"type":"Point","coordinates":[-0.7757272,44.8101173]},"properties":{"category":"bakery","name":"Marie Blachère","opening_hours":"Mo-Su 06:30-19:30","phone":"+33 5 56 91 38 51","website":"https://boulangeries.marieblachere.com/fr/france-FR/5376/marie-blachere-st-jean-d-illac/details","osm_id":11786348570}},{"type":"Feature","geometry":{"type":"Point","coordinates":[-0.7100296,44.8661352]},"properties":{"category":"repair","osm_id":12475715006}}]}