{"type":"FeatureCollection","features":[{"type":"Feature","geometry":{"type":"Point","coordinates":[-1.0803666,44.8758562]},"properties":{"category":"bakery","name":"Maison Gautier","osm_id":7404975580}},{"type":"Feature","geometry":{"type":"Point","coordinates":[-1.0928577,44.8724735]},"properties":{"category":"repair","opening_hours":"24/7","osm_id":9134688104}},{"type":"Feature","geometry":{"type":"Point","coordinates":[-1.0810134,44.8765772]},"properties":{"category":"repair","opening_hours":"24/7","osm_id":11109373506}}]}