{"type":"FeatureCollection","features":[{"type":"Feature","geometry":{"type":"Point","coordinates":[-0.6453224,44.852501]},"properties":{"category":"shop","osm_id":779147661}},{"type":"Feature","geometry":{"type":"Point","coordinates":[-0.6162195,44.8250801]},"properties":{"category":"shop","name":"Ecocycle","opening_hours":"Mo-Fr 08:30-12:30, 15:00-19:00; Sa 08:30-18:00","phone":"+33 5 56 96 07 50","osm_id":4606149750}},{"type":"Feature","geometry":{"type":"Point","coordinates":[-0.664843,44.8586045]},"properties":{"category":"shop","name":"Véloland Bordeaux Ouest","opening_hours":"Tu-Fr 10:00-13:00,14:00-19:00; Sa 10:00-19:00","website":"https://www.velolandbordeaux.fr/","osm_id":4932647134}},{"type":"Feature","geometry":{"type":"Point","coordinates":[-0.6124592,44.8817025]},"properties":{"category":"compressed_air","osm_id":5005862311}},{"type":"Feature","geometry":{"type":"Point","coordinates":[-0.6154764,44.8525607]},"properties":{"category":"shop","name":"Cris'Bike","opening_hours":"Mo-Fr 07:30-19:30; Sa 09:30-19:30","phone":"+33 9 73 61 61 80","website":"https://www.cris-bike.fr/","osm_id":5839622132}},{"type":"Feature","geometry":{"type":"Point","coordinates":[-0.6157302,44.8522319]},"properties":{"category":"shop","name":"La MAMMA","opening_hours":"Mo-Fr 10:00-13:00; Tu off; Th off","phone":"+33 5 24 57 68 48","osm_id":6795054292}},{"type":"Feature","geometry":{"type":"Point","coordinates":[-0.6238352,44.8102318]},"properties":{"category":"shop","name":"Cycles Mariani","website":"https://www.cyclesmariani.fr","osm_id":6872142559}},{"type":"Feature","geometry":{"type":"Point","coordinates":[-0.6018314,44.86182]},"properties":{"category":"shop","name":"Les cycles du Bouscat","osm_id":7043793969}},{"type":"Feature","geometry":{"type":"Point","coordinates":[-0.6258356,44.8262986]},"properties":{"category":"repair","opening_hours":"24/7","osm_id":7620315958}},{"type":"Feature","geometry":{"type":"Point","coordinates":[-0.6464778,44.8416172]},"properties":{"category":"repair","opening_hours":"24/7","osm_id":7620328823}},{"type":"Feature","geometry":{"type":"Point","coordinates":[-0.653444,44.8454062]},"properties":{"category":"repair","opening_hours":"24/7","osm_id":7620328824}},{"type":"Feature","geometry":{"type":"Point","coordinates":[-0.6399828,44.8299927]},"properties":{"category":"repair","opening_hours":"24/7","osm_id":7620328825}},{"type":"Feature","geometry":{"type":"Point","coordinates":[-0.6446174,44.8512163]},"properties":{"category":"repair","opening_hours":"24/7","osm_id":7620328826}},{"type":"Feature","geometry":{"type":"Point","coordinates":[-0.6483344,44.8159327]},"properties":{"category":"repair","opening_hours":"24/7","osm_id":7632431061}},{"type":"Feature","geometry":{"type":"Point","coordinates":[-0.6803967,44.8442646]},"properties":{"category":"repair","opening_hours":"24/7","osm_id":7632431062}},{"type":"Feature","geometry":{"type":"Point","coordinates":[-0.6053301,44.8250839]},"properties":{"category":"repair","osm_id":7835844742}},{"type":"Feature","geometry":{"type":"Point","coordinates":[-0.6740851,44.8894]},"properties":{"category":"repair","opening_hours":"24/7","osm_id":8519891590}},{"type":"Feature","geometry":{"type":"Point","coordinates":[-0.6184013,44.8169053]},"properties":{"category":"shop","name":"Cycle And Go Concept","website":"https://www.cylex-locale.fr/entreprises/cycle-and-go-concept-14623087.html","osm_id":8543418482}},{"type":"Feature","geometry":{"type":"Point","coordinates":[-0.6312696,44.8054477]},"properties":{"category":"shop","name":"La Maison du Vélo","opening_hours":"We 14:00-19:00; Sa 14:00-18:00","phone":"+33 9 73 23 63 26","website":"https://eturecup.org/","osm_id":9332429359}},{"type":"Feature","geometry":{"type":"Point","coordinates":[-0.601895,44.8257305]},"properties":{"category":"repair","osm_id":10912485451}},{"type":"Feature","geometry":{"type":"Point","coordinates":[-0.6689647,44.8586659]},"properties":{"category":"repair","opening_hours":"24/7","osm_id":11191868052}},{"type":"Feature","geometry":{"type":"Point","coordinates":[-0.6358932,44.86875]},"properties":{"category":"repair","opening_hours":"24/7","osm_id":11191868053}},{"type":"Feature","geometry":{"type":"Point","coordinates":[-0.6686399,44.8585868]},"properties":{"category":"repair","opening_hours":"24/7","osm_id":11191879696}},{"type":"Feature","geometry":{"type":"Point","coordinates":[-0.6686945,44.8585926]},"properties":{"category":"repair","opening_hours":"24/7","osm_id":11191879697}},{"type":"Feature","geometry":{"type":"Point","coordinates":[-0.6740388,44.8893993]},"properties":{"category":"repair","opening_hours":"24/7","osm_id":11191882339}},{"type":"Feature","geometry":{"type":"Point","coordinates":[-0.6538692,44.8379384]},"properties":{"category":"shop","name":"Léon à vélo – Maison du Vélo Mérignac - Le Haillan","opening_hours":"We 14:00-19:45; Fr 10:00-12:00,14:00-18:45; Sa 10:00-12:00,14:00-17:45","phone":"+33 5 25 35 34 69","website":"https://www.leonavelo.org","osm_id":11194864387}},{"type":"Feature","geometry":{"type":"Point","coordinates":[-0.6671264,44.8926365]},"properties":{"category":"compressed_air","osm_id":11194971969}},{"type":"Feature","geometry":{"type":"Point","coordinates":[-0.6915175,44.8837863]},"properties":{"category":"compressed_air","osm_id":11195014694}},{"type":"Feature","geometry":{"type":"Point","coordinates":[-0.691242,44.8840004]},"properties":{"category":"compressed_air","osm_id":11195014695}},{"type":"Feature","geometry":{"type":"Point","coordinates":[-0.6036226,44.8843781]},"properties":{"category":"compressed_air","osm_id":11338876486}},{"type":"Feature","geometry":{"type":"Point","coordinates":[-0.691606,44.834634]},"properties":{"category":"repair","opening_hours":"24/7","osm_id":11373239710}},{"type":"Feature","geometry":{"type":"Point","coordinates":[-0.6862058,44.8724667]},"properties":{"category":"repair","opening_hours":"24/7","osm_id":11750042698}},{"type":"Feature","geometry":{"type":"Point","coordinates":[-0.6862149,44.8724514]},"properties":{"category":"repair","opening_hours":"24/7","osm_id":11750042699}},{"type":"Feature","geometry":{"type":"Point","coordinates":[-0.6459296,44.832356]},"properties":{"category":"repair","osm_id":11913432870}},{"type":"Feature","geometry":{"type":"Point","coordinates":[-0.6152768,44.8029731]},"properties":{"category":"repair","osm_id":11928734426}},{"type":"Feature","geometry":{"type":"Point","coordinates":[-0.6945931,44.8913419]},"properties":{"category":"repair","osm_id":12107685496}},{"type":"Feature","geometry":{"type":"Point","coordinates":[-0.6800184,44.8290955]},"properties":{"category":"shop","name":"Alltricks","opening_hours":"Mo-Sa 10:00-19:00","phone":"+33 1 30 48 90 07","website":"https://www.alltricks.fr/","osm_id":12148204792}},{"type":"Feature","geometry":{"type":"Point","coordinates":[-0.6414798,44.8324615]},"properties":{"category":"shop","name":"Bike center","opening_hours":"Tu-Sa 10:00-13:00,14:30-19:00","osm_id":12163043621}},{"type":"Feature","geometry":{"type":"Point","coordinates":[-0.6027216,44.8481993]},"properties":{"category":"repair","osm_id":12710030330}},{"type":"Feature","geometry":{"type":"Point","coordinates":[-0.6560487,44.831832]},"properties":{"category":"shop","name":"Amsterdam Air","phone":"+33 6 09 92 85 51","website":"https://www.amsterdamair.fr/","osm_id":12729536024}},{"type":"Feature","geometry":{"type":"Point","coordinates":[-0.6043439,44.8645056]},"properties":{"category":"repair","osm_id":12738221977}},{"type":"Feature","geometry":{"type":"Point","coordinates":[-0.6944633,44.8862285]},"properties":{"category":"shop","name":" Citibike","opening_hours":"Tu-Sa 10:00-19:00","phone":"+33 9 85 02 06 87","website":"http://www.citibike.fr/","osm_id":12794213101}},{"type":"Feature","geometry":{"type":"Point","coordinates":[-0.6253647,44.8793866]},"properties":{"category":"shop","name":"Edenmobilité Bordeaux - Magasin de vélos et scooters","opening_hours":"Tu-Fr 10:00-12:30, 14:30-19:00; Sa 09:00-13:00, 14:00-19:00","phone":"+33 5 24 72 18 40","website":"https://www.edenmobilite.com/","osm_id":12851214501}},{"type":"Feature","geometry":{"type":"Point","coordinates":[-0.6554279,44.8630033]},"properties":{"category":"compressed_air","osm_id":13021679515,"has_compressed_air":true}},{"type":"Feature","geometry":{"type":"Point","coordinates":[-0.64691,44.8906408]},"properties":{"category":"repair","opening_hours":"24/7","osm_id":13518362302}},{"type":"Feature","geometry":{"type":"Point","coordinates":[-0.6798426,44.8296142]},"properties":{"category":"repair","osm_id":13520158143}},{"type":"Feature","geometry":{"type":"Point","coordinates":[-0.6103648,44.8063767]},"properties":{"category":"repair","osm_id":13931525692}},{"type":"Feature","geometry":{"type":"Point","coordinates":[-0.6317683,44.8038795]},"properties":{"category":"compressed_air","osm_id":13968554646}}]}