{"type":"FeatureCollection","features":[{"type":"Feature","geometry":{"type":"Point","coordinates":[2.6558798,44.8999357]},"properties":{"category":"bakery","osm_id":4979885291}},{"type":"Feature","geometry":{"type":"Point","coordinates":[2.6597046,44.8446078]},"properties":{"category":"bakery","name":"Boulangerie Serge Veyre","osm_id":9984330730}},{"type":"Feature","geometry":{"type":"Point","coordinates":[2.660404,44.8436407]},"properties":{"category":"bakery","name":"La maison des délices","opening_hours":"Mo off; Tu,Th-Sa 07:00-12:30,15:00-18:30; We,Su 07:00-12:30","osm_id":9984330732}}]}