{"type":"FeatureCollection","features":[{"type":"Feature","geometry":{"type":"Point","coordinates":[2.3043831,44.8570447]},"properties":{"category":"bakery","name":"Le Coin Gourmand","osm_id":3672554629}},{"type":"Feature","geometry":{"type":"Point","coordinates":[2.3056556,44.8573056]},"properties":{"category":"bakery","name":"Le Croissant Doré","opening_hours":"Tu-Sa 06:30-13:00, 15:30-18:30, 09:00-18:00; Su 07:00-12:30","osm_id":5139896223}},{"type":"Feature","geometry":{"type":"Point","coordinates":[2.3463871,44.8836573]},"properties":{"category":"bakery","osm_id":5926770128}},{"type":"Feature","geometry":{"type":"Point","coordinates":[2.3895834,44.8566623]},"properties":{"category":"bakery","name":"Boulanger-pâtissierChabrier & Deau","website":"https://www.roannes-saint-mary.fr","osm_id":9002212886}}]}