{"type":"FeatureCollection","features":[{"type":"Feature","geometry":{"type":"Point","coordinates":[4.8171993,44.802106]},"properties":{"category":"bakery","name":"commerce à reprendre","osm_id":1304717374}},{"type":"Feature","geometry":{"type":"Point","coordinates":[4.8756972,44.8708091]},"properties":{"category":"bakery","name":"Le fournil portois","osm_id":2639143283}},{"type":"Feature","geometry":{"type":"Point","coordinates":[4.878798,44.8756457]},"properties":{"category":"bakery","name":"Le Fournil","osm_id":4523333063}},{"type":"Feature","geometry":{"type":"Point","coordinates":[4.8292974,44.8557056]},"properties":{"category":"bakery","name":"Boulangerie Patisserie Pontet","phone":"+33 4 75 85 38 44","osm_id":5837866883}},{"type":"Feature","geometry":{"type":"Point","coordinates":[4.8877836,44.8996398]},"properties":{"category":"bakery","name":"La Fournaise","osm_id":5851747197}},{"type":"Feature","geometry":{"type":"Point","coordinates":[4.8328675,44.8616192]},"properties":{"category":"bakery","name":"boissy","opening_hours":"Tu-Fr 07:00-19:00, Sa 07:00-15:00, Su 07:00-12:30","osm_id":5977964045}},{"type":"Feature","geometry":{"type":"Point","coordinates":[4.8802458,44.8847992]},"properties":{"category":"shop","name":"Giant","opening_hours":"Tu-Sa 10:30-13:00; 14:00-19:00","phone":"+33 9 86 15 41 15","osm_id":6372604480}},{"type":"Feature","geometry":{"type":"Point","coordinates":[4.8908573,44.839682]},"properties":{"category":"bakery","name":"Caserne O 'pains","opening_hours":"Mo,Tu,Th-Sa 07:00-19:00; We 07:00-12:30; Su 07:00-12:30; PH off","osm_id":7865532175}},{"type":"Feature","geometry":{"type":"Point","coordinates":[4.8797007,44.8848024]},"properties":{"category":"bakery","name":"Marie Blachère","opening_hours":"Mo-Sa 06:30-19:30","phone":"+33 4 75 25 26 43","osm_id":8146547092}},{"type":"Feature","geometry":{"type":"Point","coordinates":[4.8798576,44.8853792]},"properties":{"category":"bakery","name":"L'originale","opening_hours":"Mo-We, Fr-Su 06:30-19:30","osm_id":8146547094}},{"type":"Feature","geometry":{"type":"Point","coordinates":[4.895757,44.8369594]},"properties":{"category":"bakery","name":"Au P'tit Régal","opening_hours":"Tu-Su 06:30-13:00; Mo,PH off, Tu-Sa 15:30-19:00","osm_id":10701983780}},{"type":"Feature","geometry":{"type":"Point","coordinates":[4.8799438,44.8913962]},"properties":{"category":"bakery","name":"Aux Pains Gourmands","osm_id":11187842395}},{"type":"Feature","geometry":{"type":"Point","coordinates":[4.8506972,44.8921148]},"properties":{"category":"bakery","name":"Cotte et fils","opening_hours":"Tu-Sa 06:00-19:00; Su 06:00-18:00","phone":"+33 4 75 61 08 55","osm_id":12245938282}},{"type":"Feature","geometry":{"type":"Point","coordinates":[4.8802495,44.8862269]},"properties":{"category":"bakery","name":"Marie Blachère","opening_hours":"Mo-Sa 07:30-19:30","phone":"+33 4 27 24 04 46","osm_id":12373918221}},{"type":"Feature","geometry":{"type":"Point","coordinates":[4.8008361,44.8253835]},"properties":{"category":"bakery","name":"Jocteur","osm_id":13050951407}}]}