{"type":"FeatureCollection","features":[{"type":"Feature","geometry":{"type":"Point","coordinates":[0.0714822,44.8058828]},"properties":{"category":"bakery","osm_id":7858419055}},{"type":"Feature","geometry":{"type":"Point","coordinates":[0.0166511,44.8045081]},"properties":{"category":"bakery","name":"Le Comptoir du Boulanger","phone":"+33 5 47 11 34 52","osm_id":8133389760}},{"type":"Feature","geometry":{"type":"Point","coordinates":[0.0637444,44.8530264]},"properties":{"category":"bakery","osm_id":11134408606}}]}