{"type":"FeatureCollection","features":[{"type":"Feature","geometry":{"type":"Point","coordinates":[1.0637832,44.8989293]},"properties":{"category":"bakery","osm_id":3918302302}},{"type":"Feature","geometry":{"type":"Point","coordinates":[1.0447191,44.8688033]},"properties":{"category":"bakery","name":"Le Fournil","osm_id":5808516316}},{"type":"Feature","geometry":{"type":"Point","coordinates":[1.0432787,44.8691161]},"properties":{"category":"bakery","name":"Délices de Lucco","osm_id":5808539296}},{"type":"Feature","geometry":{"type":"Point","coordinates":[1.0430884,44.8690559]},"properties":{"category":"bakery","name":"Les délices de Lucco","opening_hours":"Mo-Sa 07:00-19:00; Su 07:00-15:00","phone":"+33 5 53 29 26 63","osm_id":5893060985}}]}