{"type":"FeatureCollection","features":[{"type":"Feature","geometry":{"type":"Point","coordinates":[5.9476415,44.8192185]},"properties":{"category":"bakery","name":"Au fournil de François et Valérie","opening_hours":"Mo, Tu, Th-Sa 06:30-12:45, 16:00-18:30; We 06:30-12:45, 06:30-12:15","osm_id":6632027787}},{"type":"Feature","geometry":{"type":"Point","coordinates":[5.9700143,44.8850707]},"properties":{"category":"bakery","name":"Le Fournil du Gragnolet","opening_hours":"Sep-Jun Tu,Fr,Su 18:00-19:00; Jul-Aug Tu,Fr,Su 10:00-18:00","phone":"+33 4 76 30 17 05","osm_id":7713880682}},{"type":"Feature","geometry":{"type":"Point","coordinates":[5.9471703,44.8167704]},"properties":{"category":"bakery","name":"Café Jeanne","osm_id":10969026105}}]}