{"type":"FeatureCollection","features":[{"type":"Feature","geometry":{"type":"Point","coordinates":[0.7911096,44.8429519]},"properties":{"category":"bakery","osm_id":1714490222}},{"type":"Feature","geometry":{"type":"Point","coordinates":[0.7384702,44.8364522]},"properties":{"category":"bakery","name":"L'Épi Lindois","opening_hours":"Mo-Sa 06:00-13:30, 15:30-19:30; Su 06:00-13:00","osm_id":3697142002}},{"type":"Feature","geometry":{"type":"Point","coordinates":[0.7397784,44.8360829]},"properties":{"category":"bakery","name":"Ulrich","osm_id":10593798720}},{"type":"Feature","geometry":{"type":"Point","coordinates":[0.705963,44.8338554]},"properties":{"category":"shop","name":"Biking Dordogne","phone":"+33 6 82 94 91 92","website":"https://bikingdordogne.com/","osm_id":10994575065}},{"type":"Feature","geometry":{"type":"Point","coordinates":[0.7042019,44.8326479]},"properties":{"category":"bakery","name":"Au pain d'ici","osm_id":13023048926}},{"type":"Feature","geometry":{"type":"Point","coordinates":[0.7310399,44.8357033]},"properties":{"category":"bakery","name":"Les Mille Saveurs","osm_id":13388999531}}]}