{"type":"FeatureCollection","features":[{"type":"Feature","geometry":{"type":"Point","coordinates":[-0.1853424,44.8294382]},"properties":{"category":"bakery","name":"420","osm_id":904386966}},{"type":"Feature","geometry":{"type":"Point","coordinates":[-0.1873533,44.8291144]},"properties":{"category":"bakery","name":"Boulangerie Valette","phone":"+33 5 57 84 50 95","osm_id":1842820671}},{"type":"Feature","geometry":{"type":"Point","coordinates":[-0.1546046,44.89064]},"properties":{"category":"bakery","name":"Mie And Merlot","osm_id":3450971890}},{"type":"Feature","geometry":{"type":"Point","coordinates":[-0.1357797,44.8184632]},"properties":{"category":"bakery","osm_id":6171045119}},{"type":"Feature","geometry":{"type":"Point","coordinates":[-0.1142435,44.8557542]},"properties":{"category":"bakery","osm_id":8566696117}},{"type":"Feature","geometry":{"type":"Point","coordinates":[-0.1641042,44.8899666]},"properties":{"category":"shop","name":"UNIBIKE - Bike Rental Saint-Emilion","opening_hours":"Mo-Su 08:30-22:30","phone":"+33695310746","website":"https://unibikerental.simplybook.it/","osm_id":11262192037}},{"type":"Feature","geometry":{"type":"Point","coordinates":[-0.1555835,44.8908325]},"properties":{"category":"shop","name":"Véloce","phone":"+33765224993","website":"https://www.veloce-location.fr","osm_id":12451685077}},{"type":"Feature","geometry":{"type":"Point","coordinates":[-0.1558337,44.89128]},"properties":{"category":"shop","name":"Rustic Vines Tours","phone":"+33 9 86 41 88 83","website":"https://rusticvinestours.fr/","osm_id":12452291074}}]}