{"type":"FeatureCollection","features":[{"type":"Feature","geometry":{"type":"Point","coordinates":[1.6100315,44.9365183]},"properties":{"category":"bakery","osm_id":3043818659}},{"type":"Feature","geometry":{"type":"Point","coordinates":[1.6087906,44.9374585]},"properties":{"category":"bakery","name":"La Boutique à Pain - Maison Bottero","osm_id":3043885753}},{"type":"Feature","geometry":{"type":"Point","coordinates":[1.6024294,44.93631]},"properties":{"category":"compressed_air","osm_id":5254702100}},{"type":"Feature","geometry":{"type":"Point","coordinates":[1.640394,44.9996721]},"properties":{"category":"compressed_air","osm_id":10811702300}},{"type":"Feature","geometry":{"type":"Point","coordinates":[1.6465444,44.9970338]},"properties":{"category":"bakery","name":"Au pain quercynois","opening_hours":"Mo-We 07:30-19:00; Fr-Sa 07:30-19:00; Su 07:30-12:30","phone":"+33 5 65 32 14 43","osm_id":11596364161}}]}