{"type":"FeatureCollection","features":[{"type":"Feature","geometry":{"type":"Point","coordinates":[1.838078,44.9790868]},"properties":{"category":"bakery","name":"Boulangerie Ravel","opening_hours":"Tu-Su 09:00-19:00","osm_id":4375390793}},{"type":"Feature","geometry":{"type":"Point","coordinates":[1.8401942,44.9142424]},"properties":{"category":"bakery","name":"Boulangerie Banette","osm_id":4377048991}},{"type":"Feature","geometry":{"type":"Point","coordinates":[1.8378907,44.9149881]},"properties":{"category":"bakery","name":"Au Saint-Honoré","osm_id":4377054389}},{"type":"Feature","geometry":{"type":"Point","coordinates":[1.8355895,44.9185932]},"properties":{"category":"shop","name":"Boy Cycles 46","opening_hours":"Mo,Sa 09:00-12:00,14:00-18:00; Tu-Fr 08:30-12:00,14:00-19:00","phone":"+33 5 65 38 41 56","website":"https://www.boycycles46.fr/","osm_id":5542951726}},{"type":"Feature","geometry":{"type":"Point","coordinates":[1.8380586,44.9785869]},"properties":{"category":"bakery","name":"Mamy","osm_id":6598568103}},{"type":"Feature","geometry":{"type":"Point","coordinates":[1.8394921,44.9778977]},"properties":{"category":"bakery","opening_hours":"Mo-We,Fr-Su 09:00-19:00","osm_id":7352763486}},{"type":"Feature","geometry":{"type":"Point","coordinates":[1.8400673,44.9181664]},"properties":{"category":"bakery","name":"Boulangerie Bouzou","osm_id":10093442832}}]}