{"type":"FeatureCollection","features":[{"type":"Feature","geometry":{"type":"Point","coordinates":[-0.7239816,44.9124499]},"properties":{"category":"bakery","name":"La Boulangerie de Saint-Aubin","osm_id":2012714363}},{"type":"Feature","geometry":{"type":"Point","coordinates":[-0.7444994,44.9073506]},"properties":{"category":"bakery","name":"Les 2 cabanes","osm_id":8176659187}},{"type":"Feature","geometry":{"type":"Point","coordinates":[-0.7246665,44.9119994]},"properties":{"category":"compressed_air","osm_id":9504988122}},{"type":"Feature","geometry":{"type":"Point","coordinates":[-0.7249198,44.9117487]},"properties":{"category":"bakery","name":"Le Fournil de Val","osm_id":12113482525}}]}