{"type":"FeatureCollection","features":[{"type":"Feature","geometry":{"type":"Point","coordinates":[5.6358415,44.9187784]},"properties":{"category":"bakery","name":"Le fournil de Pierre Éric","phone":"+33 4 76 34 99 75","osm_id":5065107302}},{"type":"Feature","geometry":{"type":"Point","coordinates":[5.6313353,44.9112842]},"properties":{"category":"shop","name":"Two Wheels","opening_hours":"Tu-Fr 15:00-18:00, Sa 09:30-12:00","phone":"+33 4 76 34 44 78","osm_id":6594883523}},{"type":"Feature","geometry":{"type":"Point","coordinates":[5.6547465,44.9492813]},"properties":{"category":"bakery","name":"La Boulang'","phone":"+33 6 70 40 45 93","osm_id":8639491245}},{"type":"Feature","geometry":{"type":"Point","coordinates":[5.6343603,44.9168503]},"properties":{"category":"bakery","name":"Pain sauvage","opening_hours":"Mo 12:00-19:00; Tu, Fr 10:00-19:00","phone":"+3675175461","osm_id":13415613601}},{"type":"Feature","geometry":{"type":"Point","coordinates":[5.6344323,44.9169264]},"properties":{"category":"shop","name":"L'atelier vélo","opening_hours":"Mo-Tu, Th-Fr 08:45-16:15","phone":"+33659014658","osm_id":14070564601}}]}