{"type":"FeatureCollection","features":[{"type":"Feature","geometry":{"type":"Point","coordinates":[5.0182421,44.9001661]},"properties":{"category":"bakery","name":"AURA - boulangerie Ecole","osm_id":1332169353}},{"type":"Feature","geometry":{"type":"Point","coordinates":[5.0917327,44.9381654]},"properties":{"category":"bakery","name":"Le Four Du Père Jules","opening_hours":"Mo,Tu,Th,Fr,Sa 06:30-12:30,15:30-19:30; Su 07:00-12:30","osm_id":2375880084}},{"type":"Feature","geometry":{"type":"Point","coordinates":[5.0267901,44.973206]},"properties":{"category":"bakery","name":"Le Relais de la Pogne","opening_hours":"Tu-Fr 06:00-13:00, 15:00-19:30; Su 06:00-13:00","phone":"+33 4 75 47 08 67","website":"https://relaisdelapogne.fr/","osm_id":2917176110}},{"type":"Feature","geometry":{"type":"Point","coordinates":[5.0225839,44.9297116]},"properties":{"category":"bakery","name":"Artisan Boulanger Eric Grandjean","osm_id":8265020859}},{"type":"Feature","geometry":{"type":"Point","coordinates":[5.0090951,44.9021705]},"properties":{"category":"bakery","name":"Boulangerie Sophie Lebreuilly","opening_hours":"Mo-Su,PH 06:30-20:00","osm_id":8266470371}},{"type":"Feature","geometry":{"type":"Point","coordinates":[5.0078123,44.9022911]},"properties":{"category":"bakery","name":"La Boulangerie de la Fusée","osm_id":9371665646}}]}