{"type":"FeatureCollection","features":[{"type":"Feature","geometry":{"type":"Point","coordinates":[4.3658012,44.9371708]},"properties":{"category":"bakery","osm_id":1268129973}},{"type":"Feature","geometry":{"type":"Point","coordinates":[4.3499384,44.9736149]},"properties":{"category":"shop","name":"Par Monts et par Vaux","phone":"+33 6 08 21 51 24","website":"http://pmpv-bikeshop.com","osm_id":3073703836}},{"type":"Feature","geometry":{"type":"Point","coordinates":[4.3692642,44.9375057]},"properties":{"category":"bakery","name":"La Mi Do Ré","osm_id":4215095615}},{"type":"Feature","geometry":{"type":"Point","coordinates":[4.3731095,44.9364654]},"properties":{"category":"shop","name":"Par Monts et Par Vaux","phone":"+33 6 08 21 51 24;+33 4 75 30 26 70","website":"http://www.pmpv-bikeshop.com/","osm_id":9935234259}},{"type":"Feature","geometry":{"type":"Point","coordinates":[4.3720973,44.9882828]},"properties":{"category":"repair","osm_id":13273729810}}]}