{"type":"FeatureCollection","features":[{"type":"Feature","geometry":{"type":"Point","coordinates":[1.251091,44.994535]},"properties":{"category":"bakery","name":"Margot","osm_id":4329811468}},{"type":"Feature","geometry":{"type":"Point","coordinates":[1.2555675,44.9316219]},"properties":{"category":"bakery","name":"Le Pain de Proissans","phone":"+33 5 53 28 14 58","osm_id":4739278182}},{"type":"Feature","geometry":{"type":"Point","coordinates":[1.2735001,44.9625791]},"properties":{"category":"bakery","name":"Ô Sacré Pain fournil biologique","opening_hours":"Mo,Th 08:30-12:30,16:30-19:00; Fr 08:30-13:00","phone":"+33 7 67 19 36 20","website":"https://www.osacrepain.fr/","osm_id":13113021533}},{"type":"Feature","geometry":{"type":"Point","coordinates":[1.2539126,44.9942856]},"properties":{"category":"repair","opening_hours":"24/7","osm_id":13127710756}}]}