{"type":"FeatureCollection","features":[{"type":"Feature","geometry":{"type":"Point","coordinates":[-0.6385444,45.021752]},"properties":{"category":"repair","opening_hours":"24/7","osm_id":9134624168}},{"type":"Feature","geometry":{"type":"Point","coordinates":[-0.6545803,45.0289153]},"properties":{"category":"repair","opening_hours":"24/7","osm_id":9134641757}},{"type":"Feature","geometry":{"type":"Point","coordinates":[-0.696248,45.0992068]},"properties":{"category":"repair","osm_id":12542066609}},{"type":"Feature","geometry":{"type":"Point","coordinates":[-0.6780525,45.0444005]},"properties":{"category":"repair","osm_id":12542066612}},{"type":"Feature","geometry":{"type":"Point","coordinates":[-0.615178,45.0080938]},"properties":{"category":"repair","osm_id":12542066613}}]}