{"type":"FeatureCollection","features":[{"type":"Feature","geometry":{"type":"Point","coordinates":[4.6281233,45.0863292]},"properties":{"category":"bakery","name":"Le Pain de Sucre","osm_id":1109136955}},{"type":"Feature","geometry":{"type":"Point","coordinates":[4.6267407,45.0873406]},"properties":{"category":"bakery","osm_id":1109136989}},{"type":"Feature","geometry":{"type":"Point","coordinates":[4.6282091,45.0867969]},"properties":{"category":"bakery","name":"Aux délices Ardéhois","osm_id":1109136995}},{"type":"Feature","geometry":{"type":"Point","coordinates":[4.6953272,45.0663735]},"properties":{"category":"bakery","name":"Boulangerie","opening_hours":"Mo off; Tu,Th-Sa 06:30-12:45,16:00-19:30; We,Su,PH 06:30-12:45","osm_id":2117551265}}]}