{"type":"FeatureCollection","features":[{"type":"Feature","geometry":{"type":"Point","coordinates":[6.021772,45.0666381]},"properties":{"category":"bakery","name":"Josserand","opening_hours":"06:00-18:30","osm_id":2912913587}},{"type":"Feature","geometry":{"type":"Point","coordinates":[6.0323274,45.0547821]},"properties":{"category":"shop","name":"Bike Store 21","opening_hours":"Mo-Su 09:00-18:00","osm_id":3755601080}},{"type":"Feature","geometry":{"type":"Point","coordinates":[6.0312429,45.0546175]},"properties":{"category":"shop","name":"Cycles et Sports","opening_hours":"Mo-Su 09:00-19:00","phone":"+33 4 76 79 16 79","osm_id":4489386589}},{"type":"Feature","geometry":{"type":"Point","coordinates":[6.0681034,45.092654]},"properties":{"category":"bakery","name":"Salazard","opening_hours":"Tu-Su 07:00-13:00","osm_id":4783630964}},{"type":"Feature","geometry":{"type":"Point","coordinates":[6.0301012,45.0539157]},"properties":{"category":"shop","name":"LaBicicletta.fr","opening_hours":"Mo-Fr 08:00-12:00,14:00-19:00; Sa 08:00-13:00","phone":"+33476795268","website":"https://www.labicicletta.fr/","osm_id":5908247970}},{"type":"Feature","geometry":{"type":"Point","coordinates":[6.029797,45.0545448]},"properties":{"category":"bakery","name":"Pain Bologne","osm_id":8309331484}},{"type":"Feature","geometry":{"type":"Point","coordinates":[6.0277183,45.0597208]},"properties":{"category":"shop","name":"Bike Store 21","opening_hours":"Mo-Su 09:00-18:00","phone":"+33 7 81 26 42 34","osm_id":8847600959}},{"type":"Feature","geometry":{"type":"Point","coordinates":[6.0309322,45.054373]},"properties":{"category":"shop","name":"Alpha Bike","opening_hours":"We,Fr,Sa 14:00-18:00","phone":"+33 6 95 04 43 57","osm_id":8847600960}},{"type":"Feature","geometry":{"type":"Point","coordinates":[6.0643231,45.0904534]},"properties":{"category":"shop","name":"Cycles Huez","phone":"+33 9 51 43 89 86","osm_id":8848209577}},{"type":"Feature","geometry":{"type":"Point","coordinates":[6.0701877,45.0971058]},"properties":{"category":"shop","name":"Altitude Sports Pied des Pistes","phone":"+33 4 76 80 38 23","osm_id":8848256365}},{"type":"Feature","geometry":{"type":"Point","coordinates":[6.0702655,45.0967451]},"properties":{"category":"shop","name":"Alpe Sports","phone":"+33 4 76 80 64 60","osm_id":8848256366}},{"type":"Feature","geometry":{"type":"Point","coordinates":[6.0647173,45.0906196]},"properties":{"category":"shop","name":"Trek Bicycle Store, L'Alpe d'Huez","phone":"+33 4 76 11 37 88","osm_id":8848272517}},{"type":"Feature","geometry":{"type":"Point","coordinates":[6.0303038,45.0542146]},"properties":{"category":"bakery","name":"Boulangerie pâtisserie Salazard","osm_id":9374447333}},{"type":"Feature","geometry":{"type":"Point","coordinates":[6.0306905,45.0550401]},"properties":{"category":"bakery","name":"le pain perdu","osm_id":9877435440}},{"type":"Feature","geometry":{"type":"Point","coordinates":[6.031185,45.0941818]},"properties":{"category":"shop","name":"Sport 2000","osm_id":12076970481}},{"type":"Feature","geometry":{"type":"Point","coordinates":[6.0530893,45.0769396]},"properties":{"category":"repair","osm_id":12174258914}},{"type":"Feature","geometry":{"type":"Point","coordinates":[6.0649008,45.0901601]},"properties":{"category":"bakery","name":"Boulanger de l'Alpe","osm_id":12402967128}},{"type":"Feature","geometry":{"type":"Point","coordinates":[6.0294332,45.0540356]},"properties":{"category":"bakery","name":"Aux Pains Les Branleurs","opening_hours":"We-Fr 08:00-12:30, 16:00-19:30; Sa-Su 08:00-12:30","phone":"+33 6 60 49 08 51","osm_id":13131467722}}]}