{"type":"FeatureCollection","features":[{"type":"Feature","geometry":{"type":"Point","coordinates":[3.8808884,45.044629]},"properties":{"category":"bakery","osm_id":2245050455}},{"type":"Feature","geometry":{"type":"Point","coordinates":[3.8824056,45.0454506]},"properties":{"category":"bakery","name":"Flør","opening_hours":"Mo-Sa 07:00-14:00,15:00-19:00","osm_id":2245451410}},{"type":"Feature","geometry":{"type":"Point","coordinates":[3.8819815,45.0405467]},"properties":{"category":"bakery","name":"La Flûte enchantée","osm_id":3046204591}},{"type":"Feature","geometry":{"type":"Point","coordinates":[3.8797326,45.0453449]},"properties":{"category":"bakery","name":"La tentation","osm_id":3092272483}},{"type":"Feature","geometry":{"type":"Point","coordinates":[3.8786748,45.047264]},"properties":{"category":"bakery","name":"Chez Mathieu et Nathalie","osm_id":3092275841}},{"type":"Feature","geometry":{"type":"Point","coordinates":[3.8818203,45.043694]},"properties":{"category":"bakery","name":"La Cabosse","opening_hours":"Tu-Fr 08:30-12:15,14:15-19:00; Sa 07:00-19:00; Su 07:30-12:30","osm_id":3092280298}},{"type":"Feature","geometry":{"type":"Point","coordinates":[3.8963469,45.0513263]},"properties":{"category":"bakery","name":"Au feu de bois","osm_id":4231603069}},{"type":"Feature","geometry":{"type":"Point","coordinates":[3.8811442,45.0257568]},"properties":{"category":"bakery","name":"Marie Blachère","opening_hours":"Mo-Sa 07:00-19:00","phone":"+33 4 71 02 70 97","website":"https://boulangeries.marieblachere.com/fr/france-FR/4504/marie-blachere-vals-mercialys/details","osm_id":5300997367}},{"type":"Feature","geometry":{"type":"Point","coordinates":[3.8662825,45.0461687]},"properties":{"category":"bakery","name":"Boulangerie Mallet","phone":"+33 4 71 09 71 37","osm_id":7380319690}},{"type":"Feature","geometry":{"type":"Point","coordinates":[3.8894883,45.0218187]},"properties":{"category":"bakery","osm_id":8696503757}},{"type":"Feature","geometry":{"type":"Point","coordinates":[3.8854545,45.0421872]},"properties":{"category":"bakery","name":"Maison M","osm_id":12335036430}},{"type":"Feature","geometry":{"type":"Point","coordinates":[3.8847016,45.0421326]},"properties":{"category":"bakery","name":"La Mie Câline","opening_hours":"06:30-19:45","phone":"+33 4 71 09 68 20","osm_id":12335036433}},{"type":"Feature","geometry":{"type":"Point","coordinates":[3.8827625,45.0438309]},"properties":{"category":"bakery","name":"Le Pain de la Vieille Ville","opening_hours":"Mo-Sa 07:00-19:00","osm_id":12535939748}},{"type":"Feature","geometry":{"type":"Point","coordinates":[3.8880653,45.042794]},"properties":{"category":"bakery","name":"Philippe Marion","osm_id":12559088666}},{"type":"Feature","geometry":{"type":"Point","coordinates":[3.8889269,45.0436659]},"properties":{"category":"bakery","name":"La Folie Douce","osm_id":12870752614}},{"type":"Feature","geometry":{"type":"Point","coordinates":[3.8856746,45.0325871]},"properties":{"category":"compressed_air","osm_id":13132868892}},{"type":"Feature","geometry":{"type":"Point","coordinates":[3.8883265,45.039832]},"properties":{"category":"bakery","name":"La tradi aux délices","osm_id":13136277293}},{"type":"Feature","geometry":{"type":"Point","coordinates":[3.8824064,45.0432554]},"properties":{"category":"bakery","name":"Artisan Boulanger Patisser","opening_hours":"We-Mo 07:00-19:30","osm_id":13782012803}}]}