{"type":"FeatureCollection","features":[{"type":"Feature","geometry":{"type":"Point","coordinates":[-1.0357313,45.0788585]},"properties":{"category":"compressed_air","osm_id":9014299085}},{"type":"Feature","geometry":{"type":"Point","coordinates":[-1.0901627,45.071894]},"properties":{"category":"repair","osm_id":12542066604}},{"type":"Feature","geometry":{"type":"Point","coordinates":[-1.040875,45.0788953]},"properties":{"category":"bakery","name":"Les Saveur du Médoc - La Pétrisane","opening_hours":"Mo-Sa 06:30-13:30,15:30-19:30; Su 06:30-13:00","osm_id":13061285788}}]}