{"type":"FeatureCollection","features":[{"type":"Feature","geometry":{"type":"Point","coordinates":[-0.1279771,45.0154036]},"properties":{"category":"bakery","name":"Boulangerie Patisserie Vigouroux","opening_hours":"Tu-Fr 06:00-12:30, 15:30-19:30; Sa 07:00-12:30, 15:30-19:00; Su 07:00-12:30","phone":"+33 5 57 49 07 23","osm_id":4217379605}},{"type":"Feature","geometry":{"type":"Point","coordinates":[-0.1846969,45.0432295]},"properties":{"category":"bakery","osm_id":6925627125}},{"type":"Feature","geometry":{"type":"Point","coordinates":[-0.1287244,45.040954]},"properties":{"category":"bakery","name":"Boulangerie Dutour","osm_id":7635805824}},{"type":"Feature","geometry":{"type":"Point","coordinates":[-0.1046209,45.0308448]},"properties":{"category":"bakery","name":"Le Fournil d'Eygreteau","osm_id":10793709269}}]}