{"type":"FeatureCollection","features":[{"type":"Feature","geometry":{"type":"Point","coordinates":[4.9274403,45.0541682]},"properties":{"category":"bakery","name":"Autant de pains","opening_hours":"Tu-Su 06:00-20:00","osm_id":2241565134}},{"type":"Feature","geometry":{"type":"Point","coordinates":[4.9389155,45.0152402]},"properties":{"category":"bakery","osm_id":3214484685}},{"type":"Feature","geometry":{"type":"Point","coordinates":[4.958522,45.0762353]},"properties":{"category":"bakery","osm_id":3811381907}},{"type":"Feature","geometry":{"type":"Point","coordinates":[4.9384131,45.0150797]},"properties":{"category":"bakery","name":"Le Fournil de Bruno","osm_id":14041148513}}]}