{"type":"FeatureCollection","features":[{"type":"Feature","geometry":{"type":"Point","coordinates":[1.6737976,45.0555103]},"properties":{"category":"bakery","name":"Boulangerie Pâtisserie La fontaine aux gourmandises","opening_hours":"Tu-Sa 07:00-13:00,15:00-19:00; Su 07:00-13:00","phone":"+33 5 55 25 40 78","osm_id":1785705480}},{"type":"Feature","geometry":{"type":"Point","coordinates":[1.6735203,45.0538717]},"properties":{"category":"bakery","name":"Au Blé d'Or","osm_id":1785705482}},{"type":"Feature","geometry":{"type":"Point","coordinates":[1.6745382,45.0553439]},"properties":{"category":"bakery","name":"Boulangerie Pâtisserie Lecuyer","opening_hours":"Tu-We 06:00-16:00; Th 06:00-13:00; Fr 06:00-16:00; Sa-Su 06:00-13:00","phone":"+33 5 55 25 31 49","osm_id":1785706094}},{"type":"Feature","geometry":{"type":"Point","coordinates":[1.6685755,45.0559929]},"properties":{"category":"compressed_air","osm_id":11637806059}}]}