{"type":"FeatureCollection","features":[{"type":"Feature","geometry":{"type":"Point","coordinates":[-0.5588959,45.0395745]},"properties":{"category":"bakery","name":"Boulangerie du Vieux Four","opening_hours":"Mo off; Tu-Sa 08:00-13:00,16:30-19:30; Su 08:00-13:00","osm_id":6483811750}},{"type":"Feature","geometry":{"type":"Point","coordinates":[-0.5318116,45.0121058]},"properties":{"category":"bakery","osm_id":7955966985}},{"type":"Feature","geometry":{"type":"Point","coordinates":[-0.5590321,45.038153]},"properties":{"category":"repair","opening_hours":"24/7","osm_id":13629517734}},{"type":"Feature","geometry":{"type":"Point","coordinates":[-0.5590375,45.0381384]},"properties":{"category":"repair","opening_hours":"24/7","osm_id":13629517735}}]}