{"type":"FeatureCollection","features":[{"type":"Feature","geometry":{"type":"Point","coordinates":[0.3684925,45.0367046]},"properties":{"category":"bakery","osm_id":2575908984}},{"type":"Feature","geometry":{"type":"Point","coordinates":[0.3619922,45.0371036]},"properties":{"category":"bakery","name":"Le Petit Michou","osm_id":2575931062}},{"type":"Feature","geometry":{"type":"Point","coordinates":[0.3627435,45.0545172]},"properties":{"category":"bakery","name":"Boulangerie Laurent Beaudout","opening_hours":"Mo,Tu,We,Fr 06:30-13:15,15:30-19:00; Sa 06:30-13:25,15:30-18:30; Su 06:00-12:45; Th off","phone":"+33 5 53 81 04 92","osm_id":3136128821}},{"type":"Feature","geometry":{"type":"Point","coordinates":[0.3664134,45.0349471]},"properties":{"category":"bakery","name":"Boulangerie Elodie et Thomas Courant","osm_id":9843479617}}]}