{"type":"FeatureCollection","features":[{"type":"Feature","geometry":{"type":"Point","coordinates":[3.9095587,45.05212]},"properties":{"category":"shop","name":"Station Bee's","opening_hours":"Tu-Sa 09:00-12:00, 13:30-18:30","phone":"+33 4 71 07 89 84","osm_id":9201919307}},{"type":"Feature","geometry":{"type":"Point","coordinates":[3.9091422,45.0489495]},"properties":{"category":"shop","name":"Velomania","opening_hours":"Tu-Fr 09:00-12:00,14:00-19:00; Sa 14:00-18:00,09:00-12:00; PH closed","phone":"+33 4 71 00 94 93","osm_id":10091763640}},{"type":"Feature","geometry":{"type":"Point","coordinates":[3.9077117,45.0505482]},"properties":{"category":"shop","name":"Compression Bicycles","opening_hours":"Mo-Fr 09:00-12:00,14:00-19:00; Sa 09:00-12:00,14:00-18:00","osm_id":11176215780}}]}