{"type":"FeatureCollection","features":[{"type":"Feature","geometry":{"type":"Point","coordinates":[3.7794732,45.0518192]},"properties":{"category":"bakery","name":"Boulangerie Patisserie Disseix","phone":"+33 4 71 03 41 45","osm_id":5044714024}},{"type":"Feature","geometry":{"type":"Point","coordinates":[3.7747648,45.0100736]},"properties":{"category":"bakery","osm_id":6170994153}},{"type":"Feature","geometry":{"type":"Point","coordinates":[3.7482801,45.0883073]},"properties":{"category":"bakery","name":"Lionel Masse","opening_hours":"We-Su 06:00-12:30","osm_id":12046997641}},{"type":"Feature","geometry":{"type":"Point","coordinates":[3.7615452,45.0744889]},"properties":{"category":"bakery","name":"Le d'Hélice","phone":"+33 4 71 08 22 57","osm_id":12618578504}}]}