{"type":"FeatureCollection","features":[{"type":"Feature","geometry":{"type":"Point","coordinates":[6.1237332,45.0108367]},"properties":{"category":"bakery","name":"Le fournil des 2 Alpes","osm_id":2421521440}},{"type":"Feature","geometry":{"type":"Point","coordinates":[6.1262236,45.0172823]},"properties":{"category":"bakery","name":"Le Moulin des Alpes","opening_hours":"Mo-Su 07:00-19:30; Sa 09:00-17:00; PH closed","osm_id":2424050706}},{"type":"Feature","geometry":{"type":"Point","coordinates":[6.1224644,45.0043077]},"properties":{"category":"bakery","name":"Boulangerie","osm_id":2480930511}},{"type":"Feature","geometry":{"type":"Point","coordinates":[6.1223211,45.0045662]},"properties":{"category":"bakery","name":"Au fil du temps","osm_id":4703507504}},{"type":"Feature","geometry":{"type":"Point","coordinates":[6.1220904,45.0042779]},"properties":{"category":"bakery","name":"Le Paneton","osm_id":6079658383}},{"type":"Feature","geometry":{"type":"Point","coordinates":[6.1239552,45.0146014]},"properties":{"category":"bakery","name":"Boulangerie Pâtisserie Duranton","osm_id":6113172319}},{"type":"Feature","geometry":{"type":"Point","coordinates":[6.1241095,45.0157381]},"properties":{"category":"shop","name":"Gravity Bike - Guides 2 Alpes","phone":"+33 4 76 11 36 29","osm_id":8857510297}}]}