{"type":"FeatureCollection","features":[{"type":"Feature","geometry":{"type":"Point","coordinates":[1.1637577,45.0643201]},"properties":{"category":"bakery","name":"Aux Aurores","osm_id":3055852287}},{"type":"Feature","geometry":{"type":"Point","coordinates":[1.1611756,45.0658276]},"properties":{"category":"bakery","name":"Les Copains d'Abord","opening_hours":"Su 07:00-14:00, Mo,We,Sa 07:00-14:00, Mo,We,Sa 16:00-19:00, Tu,Fr 07:00-14:00","phone":"+33 5 61 66 10 19","website":"https://auvieuxfournil.fr/","osm_id":4771224165}},{"type":"Feature","geometry":{"type":"Point","coordinates":[1.1622398,45.0641747]},"properties":{"category":"bakery","name":"La panetière des vacances","osm_id":7993126789}}]}