{"type":"FeatureCollection","features":[{"type":"Feature","geometry":{"type":"Point","coordinates":[4.2169789,45.0772932]},"properties":{"category":"bakery","name":"Boulangerie Pâtisserie","osm_id":6009593587}},{"type":"Feature","geometry":{"type":"Point","coordinates":[4.2451637,45.0476191]},"properties":{"category":"bakery","name":"Terrier Ferrapie","osm_id":6009646085}},{"type":"Feature","geometry":{"type":"Point","coordinates":[4.2457055,45.0480885]},"properties":{"category":"bakery","osm_id":6578346028}}]}