{"type":"FeatureCollection","features":[{"type":"Feature","geometry":{"type":"Point","coordinates":[0.70892,45.1845]},"properties":{"category":"shop","name":"Vélorution Périgourdine - atelier","opening_hours":"We 16:00-19:00","phone":"+33 6 03 65 03 82","osm_id":8635414955}},{"type":"Feature","geometry":{"type":"Point","coordinates":[0.7637779,45.1837631]},"properties":{"category":"shop","name":"Culture Vélo","opening_hours":"Tu-Fr 09:30-12:00,14:00-19:00; Sa 09:30-19:00","website":"https://www.culturevelo.com/-Perigueux-","osm_id":9851591998}},{"type":"Feature","geometry":{"type":"Point","coordinates":[0.7208683,45.1855703]},"properties":{"category":"shop","name":"3A Bikes","phone":"+33 5 53 53 15 62","website":"https://alliance3a.fr/3a-bikes/","osm_id":10994478885}},{"type":"Feature","geometry":{"type":"Point","coordinates":[0.7200506,45.1822633]},"properties":{"category":"shop","name":"Central Moto","phone":"+33 5 53 53 33 64","website":"https://central-moto-scooter-perigueux.fr/","osm_id":10994535420}},{"type":"Feature","geometry":{"type":"Point","coordinates":[0.7208024,45.1867436]},"properties":{"category":"shop","name":"L'Atelier Vélo","phone":"+33 5 53 46 64 96","website":"https://www.atelierveloperigueux.com/","osm_id":10994535698}},{"type":"Feature","geometry":{"type":"Point","coordinates":[0.7726618,45.1719165]},"properties":{"category":"repair","osm_id":12264622254}},{"type":"Feature","geometry":{"type":"Point","coordinates":[0.7008274,45.1973258]},"properties":{"category":"compressed_air","osm_id":13249668729}}]}