{"type":"FeatureCollection","features":[{"type":"Feature","geometry":{"type":"Point","coordinates":[0.6958672,45.1895587]},"properties":{"category":"shop","name":"Cycles Mazeau","phone":"+33 5 53 08 98 51","website":"https://cycles-mazeau.com","osm_id":4480120679}},{"type":"Feature","geometry":{"type":"Point","coordinates":[0.6775754,45.1965675]},"properties":{"category":"shop","name":"Des Jantes et des Gens","opening_hours":"We-Th 13:30-18:00","phone":"+33 6 14 75 57 13","website":"https://www.desjantesetdesgens.fr/","osm_id":11334830876}},{"type":"Feature","geometry":{"type":"Point","coordinates":[0.6921997,45.1984143]},"properties":{"category":"shop","name":"Des jantes et des gens","opening_hours":"Tu 13:30-18:00, We 13:30-18:00, Sa 09:00-14:00","phone":"+33 5 53 53 23 40","website":"https://www.desjantesetdesgens.fr/","osm_id":13668870340}},{"type":"Feature","geometry":{"type":"Point","coordinates":[0.6634304,45.1865441]},"properties":{"category":"compressed_air","osm_id":13912350572}}]}