{"type":"FeatureCollection","features":[{"type":"Feature","geometry":{"type":"Point","coordinates":[-0.6434083,45.1026352]},"properties":{"category":"bakery","osm_id":1538123820}},{"type":"Feature","geometry":{"type":"Point","coordinates":[-0.6531175,45.1307704]},"properties":{"category":"bakery","name":"Le Fournil de Blaye","opening_hours":"Mo-Su,PH 06:30-20:30","osm_id":1538134497}},{"type":"Feature","geometry":{"type":"Point","coordinates":[-0.6628136,45.1275844]},"properties":{"category":"bakery","opening_hours":"Mo-Sa 04:00-19:30; Su 04:00-14:00","osm_id":1546080865}},{"type":"Feature","geometry":{"type":"Point","coordinates":[-0.6621378,45.1287312]},"properties":{"category":"bakery","name":"Bergier","osm_id":1546112586}},{"type":"Feature","geometry":{"type":"Point","coordinates":[-0.6620064,45.1289186]},"properties":{"category":"bakery","name":"Au Coin Du Four","osm_id":1546120105}},{"type":"Feature","geometry":{"type":"Point","coordinates":[-0.6413853,45.1300624]},"properties":{"category":"bakery","name":"Marie Blachère","website":"https://boulangeries.marieblachere.com/fr/france-FR/5414/marie-blachere-st-martin-lacaussade/details","osm_id":9864035216}},{"type":"Feature","geometry":{"type":"Point","coordinates":[-0.6233368,45.1600225]},"properties":{"category":"bakery","name":"Boulangerie Laurent","osm_id":13026198124}},{"type":"Feature","geometry":{"type":"Point","coordinates":[-0.6233169,45.1600004]},"properties":{"category":"bakery","name":"Laurent","osm_id":14118125794}},{"type":"Feature","geometry":{"type":"Point","coordinates":[-0.6234268,45.1599781]},"properties":{"category":"bakery","name":"Boulangerie Laurent","osm_id":14118130566}}]}