{"type":"FeatureCollection","features":[{"type":"Feature","geometry":{"type":"Point","coordinates":[1.3401904,45.1875265]},"properties":{"category":"bakery","name":"Boulangerie","osm_id":2508778120}},{"type":"Feature","geometry":{"type":"Point","coordinates":[1.3838734,45.125846]},"properties":{"category":"bakery","osm_id":9027242600}},{"type":"Feature","geometry":{"type":"Point","coordinates":[1.316423,45.128295]},"properties":{"category":"bakery","name":"Marie Blachère","opening_hours":"Mo-Sa 07:00-19:30","phone":"+33 5 53 42 60 56","website":"https://boulangeries.marieblachere.com/terrasson-lavilledieu/","osm_id":10958283732}},{"type":"Feature","geometry":{"type":"Point","coordinates":[1.3050183,45.1437163]},"properties":{"category":"bakery","name":"L'Épi Fournil","opening_hours":"Mo-Tu,Th-Sa 07:30-13:00,16:00-19:00; We off; Su 07:30-13:00","phone":"+33 5 55 24 32 46","website":"https://l-epi-fournil.edan.io/","osm_id":13013315242}},{"type":"Feature","geometry":{"type":"Point","coordinates":[1.3024069,45.1296656]},"properties":{"category":"bakery","name":"Sainte Catherine","opening_hours":"Tu-Sa 07:00-13:30,16:00-19:00; Su 07:00-13:00","phone":"+33 5 53 42 50 57","osm_id":13555714396}},{"type":"Feature","geometry":{"type":"Point","coordinates":[1.3076524,45.1285254]},"properties":{"category":"bakery","name":"Boulangerie Naudy","opening_hours":"Tu,Th-Su 06:30-13:00","osm_id":13759085206}}]}