{"type":"FeatureCollection","features":[{"type":"Feature","geometry":{"type":"Point","coordinates":[5.2827473,45.1439713]},"properties":{"category":"bakery","osm_id":1789882250}},{"type":"Feature","geometry":{"type":"Point","coordinates":[5.2183311,45.1746241]},"properties":{"category":"bakery","name":"La fine boulangerie","opening_hours":"Tu-Th 06:30-13:00,15:00-18:30; Fr-Su 06:30-14:00,14:40-18:30","osm_id":3564287405}},{"type":"Feature","geometry":{"type":"Point","coordinates":[5.2507998,45.1455719]},"properties":{"category":"shop","name":"D-Dépanne vélo","phone":"+33 6 98 98 68 04","osm_id":9205148851}},{"type":"Feature","geometry":{"type":"Point","coordinates":[5.2837161,45.143287]},"properties":{"category":"bakery","osm_id":9762554820}}]}