{"type":"FeatureCollection","features":[{"type":"Feature","geometry":{"type":"Point","coordinates":[1.2271562,45.1294092]},"properties":{"category":"bakery","name":"La Tourte du Lardin","osm_id":8828045780}},{"type":"Feature","geometry":{"type":"Point","coordinates":[1.2117141,45.1355701]},"properties":{"category":"bakery","name":"Le Fournil des Vieilles Pierres","osm_id":8897407378}},{"type":"Feature","geometry":{"type":"Point","coordinates":[1.2266467,45.1289219]},"properties":{"category":"bakery","name":"La Pétrie","opening_hours":"Mo-We,Fr-Sa 06:45-19:00; Su 06:45-12:30","osm_id":11830120988}},{"type":"Feature","geometry":{"type":"Point","coordinates":[1.2950243,45.1306878]},"properties":{"category":"bakery","name":"La Panetière","opening_hours":"Mo-Su 07:00-20:00","phone":"+33 5 53 50 25 52","osm_id":12334465853}}]}