{"type":"FeatureCollection","features":[{"type":"Feature","geometry":{"type":"Point","coordinates":[4.8072629,45.1393525]},"properties":{"category":"bakery","osm_id":5555289086}},{"type":"Feature","geometry":{"type":"Point","coordinates":[4.8137552,45.1959101]},"properties":{"category":"bakery","name":"Les Deux Rives","osm_id":6407180561}},{"type":"Feature","geometry":{"type":"Point","coordinates":[4.8609486,45.1840692]},"properties":{"category":"bakery","name":"Boulangerie Souteyrat","osm_id":7151249470}},{"type":"Feature","geometry":{"type":"Point","coordinates":[4.8210897,45.1189967]},"properties":{"category":"bakery","name":"La p'tite Miette","phone":"+33 4 75 23 27 02","osm_id":7470504538}},{"type":"Feature","geometry":{"type":"Point","coordinates":[4.8189753,45.1716248]},"properties":{"category":"shop","name":"Cycles Sonier Bernard","osm_id":11228820541}}]}