{"type":"FeatureCollection","features":[{"type":"Feature","geometry":{"type":"Point","coordinates":[6.4934848,45.1752017]},"properties":{"category":"bakery","name":"La Fabric","osm_id":1793877471}},{"type":"Feature","geometry":{"type":"Point","coordinates":[6.4301538,45.1643271]},"properties":{"category":"bakery","name":"Boulangerie-Patisserie Thierry Gros","osm_id":1817446929}},{"type":"Feature","geometry":{"type":"Point","coordinates":[6.4983308,45.1722952]},"properties":{"category":"bakery","name":"Aux Délices d’en Haut","opening_hours":"Tu-Su 07:30-14:30","osm_id":2765625808}},{"type":"Feature","geometry":{"type":"Point","coordinates":[6.4199536,45.1464424]},"properties":{"category":"bakery","name":"Boulangerie Rambaud","osm_id":3719059229}},{"type":"Feature","geometry":{"type":"Point","coordinates":[6.4276683,45.1658383]},"properties":{"category":"bakery","name":"Le Fournil des Bergers","opening_hours":"Mo-Su 07:00-19:00","osm_id":7705807186}},{"type":"Feature","geometry":{"type":"Point","coordinates":[6.4293717,45.1630277]},"properties":{"category":"bakery","name":"Caprices des Neiges","osm_id":8566551056}}]}