{"type":"FeatureCollection","features":[{"type":"Feature","geometry":{"type":"Point","coordinates":[2.4950437,45.1388604]},"properties":{"category":"bakery","name":"Pâtisserie Servans","opening_hours":"Tu-Su 10:30-12:30,14:30-18:30","osm_id":1393762338}},{"type":"Feature","geometry":{"type":"Point","coordinates":[2.493658,45.1385368]},"properties":{"category":"bakery","name":"Aux Carrés de Salers","opening_hours":"Fr-We 07:00-13:00, 14:00-16:00","phone":"+33471407538","osm_id":1393808763}},{"type":"Feature","geometry":{"type":"Point","coordinates":[2.4271408,45.1181831]},"properties":{"category":"bakery","name":"Gladines","opening_hours":"Tu-Sa 07:00-12:30,16:00-19:00; Su 07:00-12:30","phone":"+33471692079","osm_id":9014657380}}]}