{"type":"FeatureCollection","features":[{"type":"Feature","geometry":{"type":"Point","coordinates":[2.8698889,45.1114893]},"properties":{"category":"repair","name":"Le chiffon noir","opening_hours":"Sa 13:00-19:00","osm_id":9967275923}},{"type":"Feature","geometry":{"type":"Point","coordinates":[2.8578562,45.1028456]},"properties":{"category":"shop","name":"Bike Home","opening_hours":"Tu-Sa 09:00-12:00, 14:00-18:00","osm_id":11385563715}},{"type":"Feature","geometry":{"type":"Point","coordinates":[2.8633845,45.1064298]},"properties":{"category":"compressed_air","osm_id":13110334811}}]}