{"type":"FeatureCollection","features":[{"type":"Feature","geometry":{"type":"Point","coordinates":[6.696635,45.201637]},"properties":{"category":"bakery","name":"Le Petit Four","osm_id":4305244295}},{"type":"Feature","geometry":{"type":"Point","coordinates":[6.6685103,45.2021178]},"properties":{"category":"bakery","name":"Le Fournil de Loutraz","osm_id":5523252422}},{"type":"Feature","geometry":{"type":"Point","coordinates":[6.6731764,45.2017363]},"properties":{"category":"bakery","name":"Maison Phelipeau","osm_id":8968408735}}]}