{"type":"FeatureCollection","features":[{"type":"Feature","geometry":{"type":"Point","coordinates":[6.4708533,45.2184117]},"properties":{"category":"shop","name":"Le Marché du Vélo","phone":"+33 9 72 56 31 33","website":"https://www.lemarcheduvelo.com","osm_id":9964304104}},{"type":"Feature","geometry":{"type":"Point","coordinates":[6.4658663,45.2203683]},"properties":{"category":"compressed_air","osm_id":9964490054}},{"type":"Feature","geometry":{"type":"Point","coordinates":[6.4708178,45.2183174]},"properties":{"category":"repair","opening_hours":"24/7","osm_id":13058472036}}]}