{"type":"FeatureCollection","features":[{"type":"Feature","geometry":{"type":"Point","coordinates":[3.495696,45.2093481]},"properties":{"category":"bakery","name":"Pâte à Craque","osm_id":6056863685}},{"type":"Feature","geometry":{"type":"Point","coordinates":[3.4241941,45.2889991]},"properties":{"category":"bakery","name":"La Fontannette","opening_hours":"Tu-Su 06:30-13:00","osm_id":11077401404}},{"type":"Feature","geometry":{"type":"Point","coordinates":[3.4069169,45.2609827]},"properties":{"category":"bakery","name":"Axel & Fanny","opening_hours":"Tu-Sa 06:00-19:00; Su 06:00-12:00","osm_id":14091428168}}]}