{"type":"FeatureCollection","features":[{"type":"Feature","geometry":{"type":"Point","coordinates":[5.4392551,45.2233927]},"properties":{"category":"bakery","name":"Boulangerie","osm_id":4681496952}},{"type":"Feature","geometry":{"type":"Point","coordinates":[5.4999246,45.2978365]},"properties":{"category":"bakery","name":"Marie Blachère","opening_hours":"Mo-Sa 06:30-19:30","phone":"+33 4 76 65 41 50","website":"https://boulangeries.marieblachere.com/fr/france-FR/5003/marie-blachere-tullins/details","osm_id":5125182773}},{"type":"Feature","geometry":{"type":"Point","coordinates":[5.4030903,45.2103751]},"properties":{"category":"bakery","name":"Boulangerie Patisserie Salon de Thé","osm_id":5431976386}},{"type":"Feature","geometry":{"type":"Point","coordinates":[5.4980246,45.2982296]},"properties":{"category":"repair","osm_id":11472777578}},{"type":"Feature","geometry":{"type":"Point","coordinates":[5.4830917,45.2982124]},"properties":{"category":"bakery","name":"La petite boulange","osm_id":12551831267}}]}