{"type":"FeatureCollection","features":[{"type":"Feature","geometry":{"type":"Point","coordinates":[4.706478,45.257174]},"properties":{"category":"bakery","osm_id":2368330097}},{"type":"Feature","geometry":{"type":"Point","coordinates":[4.7149491,45.2174932]},"properties":{"category":"bakery","name":"Boulangerie Pâtisserie Piazza Martial","opening_hours":"Tu,Th,Fr 06:30-12:30,15:30-19:00; We,Sa,Su,PH 06:30-12:30; Mo closed","osm_id":4026570340}},{"type":"Feature","geometry":{"type":"Point","coordinates":[4.7041235,45.2604592]},"properties":{"category":"bakery","name":"Marie Blachère","opening_hours":"Mo-Sa 07:00-19:30","phone":"+33 4 75 33 63 39","website":"https://boulangeries.marieblachere.com/fr/france-FR/7107/marie-blachere-davezieux-2/details","osm_id":4162175016}},{"type":"Feature","geometry":{"type":"Point","coordinates":[4.7073238,45.2553424]},"properties":{"category":"bakery","osm_id":5569260311}},{"type":"Feature","geometry":{"type":"Point","coordinates":[4.7987442,45.2401442]},"properties":{"category":"bakery","osm_id":5778829377}}]}