{"type":"FeatureCollection","features":[{"type":"Feature","geometry":{"type":"Point","coordinates":[4.9519774,45.2888268]},"properties":{"category":"bakery","osm_id":2267989818}},{"type":"Feature","geometry":{"type":"Point","coordinates":[4.9556141,45.2298283]},"properties":{"category":"shop","name":"Cycle des Collines","osm_id":4332325168}},{"type":"Feature","geometry":{"type":"Point","coordinates":[4.9561892,45.229887]},"properties":{"category":"bakery","name":"Boulangerie de la Galaure","osm_id":4804617357}},{"type":"Feature","geometry":{"type":"Point","coordinates":[4.9591148,45.2280367]},"properties":{"category":"bakery","name":"Boulangerie","osm_id":7362459574}},{"type":"Feature","geometry":{"type":"Point","coordinates":[4.9915608,45.2899928]},"properties":{"category":"bakery","name":"Boulangerie - Patisserie - Épicerie","osm_id":9801733080}}]}