{"type":"FeatureCollection","features":[{"type":"Feature","geometry":{"type":"Point","coordinates":[0.3421455,45.2555698]},"properties":{"category":"bakery","osm_id":304129887}},{"type":"Feature","geometry":{"type":"Point","coordinates":[0.3386486,45.2485743]},"properties":{"category":"bakery","name":"Boulangerie Du Marché -Lrckek","opening_hours":"Tu-Fr 06:30-13:00,15:00-19:00; Sa 06:30-13:00,15:00-18:00; Su 06:30-12:30","phone":"+33 5 53 91 06 27","osm_id":373345785}},{"type":"Feature","geometry":{"type":"Point","coordinates":[0.3399965,45.2478182]},"properties":{"category":"bakery","name":"Patisserie Bordelaise","osm_id":373345809}},{"type":"Feature","geometry":{"type":"Point","coordinates":[0.3401053,45.2484875]},"properties":{"category":"bakery","osm_id":377773276}},{"type":"Feature","geometry":{"type":"Point","coordinates":[0.3396773,45.2471253]},"properties":{"category":"bakery","osm_id":1687654662}},{"type":"Feature","geometry":{"type":"Point","coordinates":[0.333311,45.2436086]},"properties":{"category":"shop","osm_id":4701295721}},{"type":"Feature","geometry":{"type":"Point","coordinates":[0.3489945,45.2545271]},"properties":{"category":"compressed_air","osm_id":9913281389}},{"type":"Feature","geometry":{"type":"Point","coordinates":[0.3477739,45.2385628]},"properties":{"category":"bakery","name":"Le Fournil de Diren","opening_hours":"Tu-Sa 07:00-19:00; Su 07:00-13:30; PH off","osm_id":11990532950}},{"type":"Feature","geometry":{"type":"Point","coordinates":[0.3080571,45.2867117]},"properties":{"category":"bakery","name":"Au Fournil d'Allemans","osm_id":13448699267}}]}