{"type":"FeatureCollection","features":[{"type":"Feature","geometry":{"type":"Point","coordinates":[2.6587797,45.2830015]},"properties":{"category":"bakery","name":"Les Moulins d'Antoine","osm_id":2814989279}},{"type":"Feature","geometry":{"type":"Point","coordinates":[2.693434,45.248624]},"properties":{"category":"bakery","name":"Boulangerie","osm_id":2874245103}},{"type":"Feature","geometry":{"type":"Point","coordinates":[2.6592906,45.2821213]},"properties":{"category":"bakery","name":"Banette","opening_hours":"Tu-Sa 07:30-13:30,15:30-19:00; Su 07:00-12:30","osm_id":4176151490}},{"type":"Feature","geometry":{"type":"Point","coordinates":[2.6593573,45.2816207]},"properties":{"category":"bakery","name":"Au fin gourmet","osm_id":4176152090}},{"type":"Feature","geometry":{"type":"Point","coordinates":[2.6600626,45.2835097]},"properties":{"category":"bakery","name":"Juillard","osm_id":4176364994}}]}