{"type":"FeatureCollection","features":[{"type":"Feature","geometry":{"type":"Point","coordinates":[2.3312531,45.219043]},"properties":{"category":"bakery","name":"Boulangerie Patisserie","phone":"+33 4 71 68 00 86","osm_id":2304998441}},{"type":"Feature","geometry":{"type":"Point","coordinates":[2.3315522,45.2186812]},"properties":{"category":"bakery","name":"boulangerie David","osm_id":2304998467}},{"type":"Feature","geometry":{"type":"Point","coordinates":[2.3403599,45.2218623]},"properties":{"category":"bakery","osm_id":2425910994}},{"type":"Feature","geometry":{"type":"Point","coordinates":[2.3165609,45.2183564]},"properties":{"category":"repair","osm_id":10982372005}}]}