{"type":"FeatureCollection","features":[{"type":"Feature","geometry":{"type":"Point","coordinates":[6.3453385,45.2795622]},"properties":{"category":"shop","name":"Dvélos Maurienne","opening_hours":"Mo 13:30-18:30; Tu-Sa 09:00-12:00,13:30-18:30; Su off","phone":"+33 9 87 14 98 60","website":"https://www.dvelos.com/magasin/16-st-jean-de-maurienne","osm_id":8707456588}},{"type":"Feature","geometry":{"type":"Point","coordinates":[6.3451999,45.2793803]},"properties":{"category":"shop","name":"Saint-Jean Vélo - Cycles Solaro","phone":"+33 4 79 64 17 23","osm_id":12798149696}}]}