{"type":"FeatureCollection","features":[{"type":"Feature","geometry":{"type":"Point","coordinates":[-1.1432839,45.2669003]},"properties":{"category":"repair","opening_hours":"24/7","osm_id":9134554214}},{"type":"Feature","geometry":{"type":"Point","coordinates":[-1.1634021,45.2688779]},"properties":{"category":"bakery","name":"Cabane au Pains","opening_hours":"Mo-Su 08:00-13:00","osm_id":12137156016}},{"type":"Feature","geometry":{"type":"Point","coordinates":[-1.1033008,45.2697753]},"properties":{"category":"repair","osm_id":14096504132}}]}