{"type":"FeatureCollection","features":[{"type":"Feature","geometry":{"type":"Point","coordinates":[6.5792139,45.296593]},"properties":{"category":"bakery","name":"Sucré - Salé - Val Thorens","opening_hours":"Mo-Su,PH 07:00-19:30","website":"https://www.sucre-sale-valthorens.com/","osm_id":2419328868}},{"type":"Feature","geometry":{"type":"Point","coordinates":[6.580856,45.2979168]},"properties":{"category":"bakery","name":"La Boulangerie de Val’Tho","opening_hours":"Mo-Su 07:00-00:00","phone":"+33 4 79 55 47 19","osm_id":7266477514}}]}