{"type":"FeatureCollection","features":[{"type":"Feature","geometry":{"type":"Point","coordinates":[4.8226824,45.2791912]},"properties":{"category":"bakery","name":"Boulangerie, Patisserie","osm_id":2435123644}},{"type":"Feature","geometry":{"type":"Point","coordinates":[4.8265634,45.2758078]},"properties":{"category":"bakery","name":"Paul","osm_id":4052717798}},{"type":"Feature","geometry":{"type":"Point","coordinates":[4.8132079,45.2941923]},"properties":{"category":"bakery","name":"Boulangerie Banette","opening_hours":"Th-Mo 06:00-19:00","osm_id":4208834336}},{"type":"Feature","geometry":{"type":"Point","coordinates":[4.8050525,45.2422486]},"properties":{"category":"bakery","osm_id":5977964044}},{"type":"Feature","geometry":{"type":"Point","coordinates":[4.8318118,45.2179256]},"properties":{"category":"bakery","name":"Wilhelm Christophe","opening_hours":"Tu-Sa 06:30-12:30,16:00-19:30; Su 06:30-12:30","phone":"+33 4 75 03 13 39","osm_id":6435527143}},{"type":"Feature","geometry":{"type":"Point","coordinates":[4.8872646,45.2697042]},"properties":{"category":"bakery","osm_id":8458032390}},{"type":"Feature","geometry":{"type":"Point","coordinates":[4.8070952,45.2995379]},"properties":{"category":"repair","osm_id":11025777231}},{"type":"Feature","geometry":{"type":"Point","coordinates":[4.8153242,45.292243]},"properties":{"category":"bakery","name":"Maison Jury","phone":"+33 4 27 45 72 18","osm_id":11513796254}},{"type":"Feature","geometry":{"type":"Point","coordinates":[4.8140677,45.2913147]},"properties":{"category":"bakery","osm_id":11872440825}},{"type":"Feature","geometry":{"type":"Point","coordinates":[4.8253659,45.2775802]},"properties":{"category":"compressed_air","osm_id":12174703995}},{"type":"Feature","geometry":{"type":"Point","coordinates":[4.8291156,45.2758529]},"properties":{"category":"bakery","name":"PAUL","osm_id":13119508126}}]}