{"type":"FeatureCollection","features":[{"type":"Feature","geometry":{"type":"Point","coordinates":[-0.8357496,45.2496064]},"properties":{"category":"bakery","name":"Boulangerie Chaussat","osm_id":3024656985}},{"type":"Feature","geometry":{"type":"Point","coordinates":[-0.8319582,45.2275266]},"properties":{"category":"bakery","osm_id":6924648089}},{"type":"Feature","geometry":{"type":"Point","coordinates":[-0.8874456,45.273664]},"properties":{"category":"bakery","name":"Boulangerie Eric Arnaud","opening_hours":"Mo-Sa 07:30-09:00; Mo-Sa 12:00-13:00; Su 07:15-13:30","phone":"+33 5 56 73 08 19","osm_id":9952593849}},{"type":"Feature","geometry":{"type":"Point","coordinates":[-0.8659836,45.2882905]},"properties":{"category":"repair","osm_id":12542066602}}]}