{"type":"FeatureCollection","features":[{"type":"Feature","geometry":{"type":"Point","coordinates":[5.8799279,45.2744453]},"properties":{"category":"shop","name":"Cycles Bentoline","phone":"+33 6 37 14 09 94","osm_id":2419705553}},{"type":"Feature","geometry":{"type":"Point","coordinates":[5.867363,45.2472129]},"properties":{"category":"compressed_air","osm_id":3264007851}},{"type":"Feature","geometry":{"type":"Point","coordinates":[5.8919106,45.2707574]},"properties":{"category":"compressed_air","osm_id":5925894949}},{"type":"Feature","geometry":{"type":"Point","coordinates":[5.8880956,45.2763926]},"properties":{"category":"shop","name":"Bike to the Future","opening_hours":"Tu-Sa 10:00-19:00","phone":"+33 9 73 19 53 51","osm_id":6711080418}},{"type":"Feature","geometry":{"type":"Point","coordinates":[5.8898968,45.2722632]},"properties":{"category":"shop","name":"Mondovélo","opening_hours":"Tu-Sa 09:30-13:00,14:00-19:00","phone":"+334 85 87 05 50","website":"https://www.madeinvelo.fr/savoir-faire/mondovelo-crolles/513","osm_id":8828899624}},{"type":"Feature","geometry":{"type":"Point","coordinates":[5.8065166,45.2188356]},"properties":{"category":"repair","osm_id":8857213045}},{"type":"Feature","geometry":{"type":"Point","coordinates":[5.8861545,45.2742596]},"properties":{"category":"shop","name":"Routens Electric Bike","opening_hours":"Tu-Sa 09:45-12:30,14:00-19:00","phone":"+33 4 76 45 98 45","osm_id":10857455205}},{"type":"Feature","geometry":{"type":"Point","coordinates":[5.883696,45.2844673]},"properties":{"category":"repair","osm_id":11536387495}},{"type":"Feature","geometry":{"type":"Point","coordinates":[5.8918905,45.2707321]},"properties":{"category":"repair","osm_id":11554069145}},{"type":"Feature","geometry":{"type":"Point","coordinates":[5.8837023,45.2844629]},"properties":{"category":"compressed_air","osm_id":11554075288}},{"type":"Feature","geometry":{"type":"Point","coordinates":[5.8477449,45.2408099]},"properties":{"category":"repair","opening_hours":"24/7","osm_id":12151603147}},{"type":"Feature","geometry":{"type":"Point","coordinates":[5.8897835,45.2720681]},"properties":{"category":"repair","osm_id":12657980369}},{"type":"Feature","geometry":{"type":"Point","coordinates":[5.8608052,45.243422]},"properties":{"category":"compressed_air","osm_id":13526421019}},{"type":"Feature","geometry":{"type":"Point","coordinates":[5.8509882,45.2116903]},"properties":{"category":"shop","name":"Gboost","phone":"+33 7 49 94 95 67","osm_id":13686799742}}]}