{"type":"FeatureCollection","features":[{"type":"Feature","geometry":{"type":"Point","coordinates":[5.7580181,45.2121627]},"properties":{"category":"bakery","name":"L'Amandine","opening_hours":"Tu-Fr 07:00-13:30, 15:15-19:00; Sa 07:00-13:00, 15:15-19:00; Su 07:00-12:30","phone":"+33476971743","website":"https://www.patisserie-lamandine.fr/","osm_id":784500872}},{"type":"Feature","geometry":{"type":"Point","coordinates":[5.760721,45.2031458]},"properties":{"category":"bakery","name":"La Noisette","opening_hours":"Mo-Su 06:15-19:45","phone":"+33 4 76 90 57 69","osm_id":925155413}},{"type":"Feature","geometry":{"type":"Point","coordinates":[5.7860187,45.211606]},"properties":{"category":"bakery","name":"À L'Origine","opening_hours":"Mo-Fr 06:30-19:00; Sa 07:30-19:00","phone":"+33476254199","osm_id":1261910021}},{"type":"Feature","geometry":{"type":"Point","coordinates":[5.7634628,45.2080286]},"properties":{"category":"bakery","name":"Maison Latouche","opening_hours":"Mo-Fr 07:00-13:00; Sa,Su 07:00-12:30","osm_id":1313234165}},{"type":"Feature","geometry":{"type":"Point","coordinates":[5.7458477,45.2032024]},"properties":{"category":"bakery","name":"Le Fournil de Champagne","opening_hours":"Mo-Fr 06:00-19:30; Su 06:00-13:00","osm_id":2297059702}},{"type":"Feature","geometry":{"type":"Point","coordinates":[5.7350161,45.2025998]},"properties":{"category":"bakery","name":"L'Arrêt Gourmand","opening_hours":"Mo-Fr 08:00-15:00","osm_id":2675731091}},{"type":"Feature","geometry":{"type":"Point","coordinates":[5.7451122,45.2069695]},"properties":{"category":"bakery","name":"Boulangerie Del Vecchio","opening_hours":"Tu-Sa 06:30-19:30; Su 07:00-12:30","phone":"+33476032941","osm_id":2685522799}},{"type":"Feature","geometry":{"type":"Point","coordinates":[5.753593,45.2022654]},"properties":{"category":"bakery","name":"Alexandre Chenu","opening_hours":"Mo-Sa 07:00-13:00,15:00-19:00","osm_id":2685658741}},{"type":"Feature","geometry":{"type":"Point","coordinates":[5.7596579,45.2077867]},"properties":{"category":"bakery","name":"Maison Floran Meylan","opening_hours":"Mo-Sa 06:30-19:00; Su 06:30-13:00","osm_id":3783549385}},{"type":"Feature","geometry":{"type":"Point","coordinates":[5.777634,45.2090512]},"properties":{"category":"bakery","name":"Pâtes et pains","osm_id":4004504050}},{"type":"Feature","geometry":{"type":"Point","coordinates":[5.7650431,45.2119458]},"properties":{"category":"bakery","name":"Epicuria","opening_hours":"Mo-Su 06:30-20:00","phone":"+33 9 72 52 13 13","website":"http://www.epicuriasucresale.com/","osm_id":5046404621}},{"type":"Feature","geometry":{"type":"Point","coordinates":[5.7052931,45.2019382]},"properties":{"category":"bakery","name":"Paul","opening_hours":"Mo-Fr 06:30-19:00; Sa 07:30-13:00","phone":"+33 4 82 29 98 92","website":"https://paul.fr/stores/grenoble_presqu_ile","osm_id":5151153863}},{"type":"Feature","geometry":{"type":"Point","coordinates":[5.7645637,45.2053313]},"properties":{"category":"repair","name":"Aiguinards-Hexagone","opening_hours":"24/7","osm_id":7866127811}},{"type":"Feature","geometry":{"type":"Point","coordinates":[5.7911875,45.211595]},"properties":{"category":"repair","name":"Les Béalières","opening_hours":"24/7","osm_id":7866127812}},{"type":"Feature","geometry":{"type":"Point","coordinates":[5.7045011,45.2025036]},"properties":{"category":"bakery","name":"Pâtes et pains","opening_hours":"Mo-Fr 07:00-16:00","osm_id":8946588392}},{"type":"Feature","geometry":{"type":"Point","coordinates":[5.779042,45.2135242]},"properties":{"category":"shop","name":"La Grange à Vélo","opening_hours":"Tu-Sa 09:30-18:30","phone":"+33 6 23 17 51 91","osm_id":10263297990}},{"type":"Feature","geometry":{"type":"Point","coordinates":[5.7912913,45.2093162]},"properties":{"category":"shop","name":"Cyclable - Meylan","opening_hours":"Tu-Fr 10:00-19:00; Sa 09:00-18:00","phone":"+33 9 78 08 12 65","osm_id":10782538205}},{"type":"Feature","geometry":{"type":"Point","coordinates":[5.7911309,45.2092314]},"properties":{"category":"bakery","name":"L'Equilibriste","opening_hours":"Mo-Fr 08:30-19:00","phone":"+33 4 76 54 64 95","website":"https://www.lequilibristeboulangerie.fr/","osm_id":10857421548}},{"type":"Feature","geometry":{"type":"Point","coordinates":[5.7782639,45.2597025]},"properties":{"category":"bakery","name":"Un pain d’côté","opening_hours":"Fr 14:00-17:00","osm_id":11163170260}},{"type":"Feature","geometry":{"type":"Point","coordinates":[5.7258229,45.2342612]},"properties":{"category":"compressed_air","opening_hours":"24/7","osm_id":11684717770}},{"type":"Feature","geometry":{"type":"Point","coordinates":[5.7617577,45.2112192]},"properties":{"category":"shop","name":"Corenc Alternatif","opening_hours":"Mo-Fr 09:00-18:00","phone":"+33 7 52 06 25 35","osm_id":13732807576}}]}