{"type":"FeatureCollection","features":[{"type":"Feature","geometry":{"type":"Point","coordinates":[6.9124528,45.290475]},"properties":{"category":"bakery","name":"Boulangerie Patisserie Bernard","opening_hours":"We-Mo 07:00-13:00 ; Dec-Apr,Jul-Aug 07:00-13:00,15:00-19:30","website":"https://boulangeriepatisseriebernard.com","osm_id":1444657173}},{"type":"Feature","geometry":{"type":"Point","coordinates":[6.9116903,45.2892704]},"properties":{"category":"bakery","name":"Pains & Gourmandises","opening_hours":"Dec-Apr,Jul-Aug 07:30-12:30,15:00-19:00","website":"https://boulangeriepatisseriebernard.com","osm_id":4573291016}},{"type":"Feature","geometry":{"type":"Point","coordinates":[6.9162583,45.2915741]},"properties":{"category":"bakery","name":"Farandole du Haut","osm_id":5334866441}},{"type":"Feature","geometry":{"type":"Point","coordinates":[6.9043169,45.2883469]},"properties":{"category":"wash","osm_id":9364352124}},{"type":"Feature","geometry":{"type":"Point","coordinates":[6.9507016,45.2408131]},"properties":{"category":"bakery","name":"Au Bon Pain","opening_hours":"May 15-Oct 15 09:00-18:30","phone":"+33 4 79 05 41 02","osm_id":11292789256}}]}