{"type":"FeatureCollection","features":[{"type":"Feature","geometry":{"type":"Point","coordinates":[5.5757442,45.3264911]},"properties":{"category":"compressed_air","opening_hours":"24/7","osm_id":2997168611}},{"type":"Feature","geometry":{"type":"Point","coordinates":[5.5819159,45.3224527]},"properties":{"category":"repair","osm_id":6197852004}},{"type":"Feature","geometry":{"type":"Point","coordinates":[5.5937017,45.3635036]},"properties":{"category":"shop","name":"E-go Mobilité Electrique","phone":"+33 476 06 44 31","osm_id":8841750379}},{"type":"Feature","geometry":{"type":"Point","coordinates":[5.59808,45.35753]},"properties":{"category":"shop","name":"Véligood","opening_hours":"Tu-Fr 08:30-18:00; Sa 09:00-12:00","phone":"+33 682 832 680","osm_id":8860554638}},{"type":"Feature","geometry":{"type":"Point","coordinates":[5.5959651,45.3603846]},"properties":{"category":"shop","name":"Routens Evolution Voiron","opening_hours":"Tu-Sa 09:30-12:00, 14:00-19:00","osm_id":10857447306}},{"type":"Feature","geometry":{"type":"Point","coordinates":[5.5648241,45.3266588]},"properties":{"category":"shop","name":"Deux Roues","osm_id":11123465507}}]}