{"type":"FeatureCollection","features":[{"type":"Feature","geometry":{"type":"Point","coordinates":[5.8722102,45.3007737]},"properties":{"category":"bakery","name":"Aux Délices de Saint-Hilaire","opening_hours":"Mo-We,Fr,Sa 06:30-13:00, Mo-We 15:30-19:30, Su 06:30-12:30","phone":"+33 4 76 08 32 42","osm_id":1714593816}},{"type":"Feature","geometry":{"type":"Point","coordinates":[5.8144647,45.3426807]},"properties":{"category":"bakery","name":"Au fournil de St Pierre","opening_hours":"Mo-Su 06:30-19:00","phone":"+33 4 76 53 27 89","osm_id":4422613608}},{"type":"Feature","geometry":{"type":"Point","coordinates":[5.8870949,45.3120681]},"properties":{"category":"shop","name":"ATV Cycles","phone":"+33 4 58 00 59 32","osm_id":11263555337}}]}