{"type":"FeatureCollection","features":[{"type":"Feature","geometry":{"type":"Point","coordinates":[-1.0600056,45.3556608]},"properties":{"category":"bakery","osm_id":1843296224}},{"type":"Feature","geometry":{"type":"Point","coordinates":[-1.0612984,45.3562451]},"properties":{"category":"bakery","name":"Artisan Boulanger","osm_id":1843296432}},{"type":"Feature","geometry":{"type":"Point","coordinates":[-1.0594773,45.3561841]},"properties":{"category":"shop","name":"locvelos","phone":"+33547839818","osm_id":3710977350}},{"type":"Feature","geometry":{"type":"Point","coordinates":[-1.0604496,45.3565714]},"properties":{"category":"bakery","osm_id":9678572112}}]}