{"type":"FeatureCollection","features":[{"type":"Feature","geometry":{"type":"Point","coordinates":[4.8048743,45.3390445]},"properties":{"category":"bakery","name":"Maison Colomb","phone":"+33 4 74 29 95 27","osm_id":1885037477}},{"type":"Feature","geometry":{"type":"Point","coordinates":[4.8118844,45.3730728]},"properties":{"category":"bakery","name":"Ronde des Pains","opening_hours":"Mo,Tu,Th-Sa 06:00-19:00; We 06:00-13:00; Su 06:30-12:30","osm_id":3476556868}},{"type":"Feature","geometry":{"type":"Point","coordinates":[4.8108853,45.3712105]},"properties":{"category":"bakery","name":"Boulangerie Panel Adeline","opening_hours":"Tu-Sa 06:30-12:30,15:00-19:00; Su 06:30-12:30","phone":"+33 4 74 86 22 61","osm_id":4214931389}},{"type":"Feature","geometry":{"type":"Point","coordinates":[4.856759,45.3396309]},"properties":{"category":"bakery","name":"La Boulangerie d'Agnin","opening_hours":"Tu-Sa 06:00-13:00,15:30-19:30; Su 06:00-13:00","phone":"+33 4 37 04 40 81","osm_id":6899743599}},{"type":"Feature","geometry":{"type":"Point","coordinates":[4.8058205,45.3263218]},"properties":{"category":"bakery","name":"Marie Blachère","opening_hours":"Mo-Th 06:30-19:30; Fr-Sa 06:30-20:00","phone":"+33 4 74 59 99 62","osm_id":9391261130}},{"type":"Feature","geometry":{"type":"Point","coordinates":[4.8008425,45.3713768]},"properties":{"category":"bakery","name":"Fournil'in","osm_id":12361357211}},{"type":"Feature","geometry":{"type":"Point","coordinates":[4.8183386,45.3179516]},"properties":{"category":"bakery","name":"Maison Pellet","opening_hours":"Tu-Sa 06:00-13:00,15:30-19:00; Su 06:00-12:30","phone":"+334 74 16 13 99","osm_id":12744881732}}]}