{"type":"FeatureCollection","features":[{"type":"Feature","geometry":{"type":"Point","coordinates":[5.1700402,45.3175026]},"properties":{"category":"bakery","name":"Boulangerie Joud","osm_id":1356824848}},{"type":"Feature","geometry":{"type":"Point","coordinates":[5.1670015,45.3931548]},"properties":{"category":"bakery","name":"Boulangerie Michallon","opening_hours":"Tu,Th-Sa 06:30-12:30,16:00-19:00; We,Su 06:30-12:30","osm_id":4656901764}},{"type":"Feature","geometry":{"type":"Point","coordinates":[5.183798,45.3406722]},"properties":{"category":"bakery","name":"La Grange à Pain","osm_id":6483522272}}]}