{"type":"FeatureCollection","features":[{"type":"Feature","geometry":{"type":"Point","coordinates":[4.4111153,45.4239489]},"properties":{"category":"compressed_air","osm_id":730511557}},{"type":"Feature","geometry":{"type":"Point","coordinates":[4.4263444,45.443877]},"properties":{"category":"shop","name":"Culture Vélo","opening_hours":"Mo 14:00-19:00; Tu-Sa 09:30-12:00, 14:00-19:00","phone":"+33 4 77 25 11 37","website":"https://www.culturevelo.com/-Saint-Etienne-","osm_id":2332821104}},{"type":"Feature","geometry":{"type":"Point","coordinates":[4.416108,45.4330646]},"properties":{"category":"shop","name":"Cycles Granger","opening_hours":"Tu-Fr 09:00-12:00, 14:00-19:00; Sa 09:00-12:00, 14:00-18:00","website":"https://www.velos-saint-etienne.fr/","osm_id":2332835578}},{"type":"Feature","geometry":{"type":"Point","coordinates":[4.400666,45.443226]},"properties":{"category":"shop","name":"Agence VéliVert","phone":"+33 477371836","osm_id":2938465150}},{"type":"Feature","geometry":{"type":"Point","coordinates":[4.4743185,45.4610615]},"properties":{"category":"shop","name":"Cyclo P'tits Soins","opening_hours":"Mo-Fr \"Sur rendez-vous\"","phone":"+33 6 89 23 00 10","website":"https://www.cycloptitssoins.fr/","osm_id":6131576185}},{"type":"Feature","geometry":{"type":"Point","coordinates":[4.4099345,45.4422445]},"properties":{"category":"compressed_air","osm_id":8254756133}},{"type":"Feature","geometry":{"type":"Point","coordinates":[4.4194159,45.442427]},"properties":{"category":"compressed_air","osm_id":9291369139}},{"type":"Feature","geometry":{"type":"Point","coordinates":[4.4667353,45.4455879]},"properties":{"category":"compressed_air","osm_id":10688219487}},{"type":"Feature","geometry":{"type":"Point","coordinates":[4.4668098,45.4451049]},"properties":{"category":"compressed_air","osm_id":10688229925}},{"type":"Feature","geometry":{"type":"Point","coordinates":[4.407064,45.4460623]},"properties":{"category":"compressed_air","osm_id":12159391113}},{"type":"Feature","geometry":{"type":"Point","coordinates":[4.4208575,45.441757]},"properties":{"category":"repair","osm_id":13514244032}}]}