{"type":"FeatureCollection","features":[{"type":"Feature","geometry":{"type":"Point","coordinates":[5.1354477,45.4985224]},"properties":{"category":"bakery","name":"La Boulangerie de Pierre","opening_hours":"Mo-Sa 06:00-19:00; Su 07:00-13:00","phone":"+33 4 74 16 01 10","website":"https://laboulangeriedepierre.fr/","osm_id":4398667933}},{"type":"Feature","geometry":{"type":"Point","coordinates":[5.1015115,45.4759785]},"properties":{"category":"bakery","name":"Boulangerie Patisserie","osm_id":4562198560}}]}