{"type":"FeatureCollection","features":[{"type":"Feature","geometry":{"type":"Point","coordinates":[5.592225,45.4882033]},"properties":{"category":"bakery","name":"Boulangerie Jaunet&Deville","osm_id":727292191}},{"type":"Feature","geometry":{"type":"Point","coordinates":[5.5540313,45.476269]},"properties":{"category":"bakery","name":"Les Fournils du lac","osm_id":2404322252}},{"type":"Feature","geometry":{"type":"Point","coordinates":[5.5163759,45.4334638]},"properties":{"category":"compressed_air","osm_id":4213918736}},{"type":"Feature","geometry":{"type":"Point","coordinates":[5.5050553,45.4576739]},"properties":{"category":"bakery","name":"L'Ami de Pin","osm_id":10180550474}}]}