{"type":"FeatureCollection","features":[{"type":"Feature","geometry":{"type":"Point","coordinates":[6.9097291,45.4681369]},"properties":{"category":"bakery","name":"Le Boulanger des Montagnes","osm_id":469104806}},{"type":"Feature","geometry":{"type":"Point","coordinates":[6.9145196,45.4713991]},"properties":{"category":"bakery","name":"La Griottine","opening_hours":"Mo-Su 07:00-12:30,16:00-18:00","osm_id":469104808}},{"type":"Feature","geometry":{"type":"Point","coordinates":[6.97761,45.449718]},"properties":{"category":"bakery","name":"Chevallot","osm_id":3331003493}},{"type":"Feature","geometry":{"type":"Point","coordinates":[6.9634322,45.4621187]},"properties":{"category":"bakery","name":"Carmeline","osm_id":6240255654}},{"type":"Feature","geometry":{"type":"Point","coordinates":[6.9803178,45.4482972]},"properties":{"category":"bakery","name":"Chevallot","opening_hours":"Mo-Su 06:30-19:00","phone":"+33 4 79 06 02 42","osm_id":6240274603}},{"type":"Feature","geometry":{"type":"Point","coordinates":[6.9008423,45.4565735]},"properties":{"category":"bakery","name":"Au Pain Quotidien","osm_id":7161348685}},{"type":"Feature","geometry":{"type":"Point","coordinates":[6.9008182,45.4564262]},"properties":{"category":"bakery","name":"Perles des Alpes","opening_hours":"Mo-Su 07:00-19:00","osm_id":7168997329}},{"type":"Feature","geometry":{"type":"Point","coordinates":[6.980826,45.4488474]},"properties":{"category":"bakery","name":"Crazy Barm's","osm_id":9967454004}},{"type":"Feature","geometry":{"type":"Point","coordinates":[6.9761698,45.4470094]},"properties":{"category":"wash","opening_hours":"24/7","osm_id":13959319320}},{"type":"Feature","geometry":{"type":"Point","coordinates":[6.9761056,45.4469763]},"properties":{"category":"repair","opening_hours":"24/7","osm_id":13959319321,"has_compressed_air":true}}]}