{"type":"FeatureCollection","features":[{"type":"Feature","geometry":{"type":"Point","coordinates":[4.6758373,45.4172766]},"properties":{"category":"bakery","osm_id":5598725753}},{"type":"Feature","geometry":{"type":"Point","coordinates":[4.6781817,45.4644652]},"properties":{"category":"compressed_air","osm_id":8042774424}},{"type":"Feature","geometry":{"type":"Point","coordinates":[4.6781967,45.4644643]},"properties":{"category":"repair","opening_hours":"24/7","osm_id":13116287953}},{"type":"Feature","geometry":{"type":"Point","coordinates":[4.682514,45.4182351]},"properties":{"category":"bakery","name":"Délices & Gourmandises","osm_id":13394787616}}]}