{"type":"FeatureCollection","features":[{"type":"Feature","geometry":{"type":"Point","coordinates":[-0.1064447,45.4430983]},"properties":{"category":"bakery","name":"Moulin des Terrodes","osm_id":6337998256}},{"type":"Feature","geometry":{"type":"Point","coordinates":[-0.1632333,45.4770615]},"properties":{"category":"compressed_air","osm_id":11137509894}},{"type":"Feature","geometry":{"type":"Point","coordinates":[-0.1518509,45.4708346]},"properties":{"category":"bakery","name":"Boulangerie - Patisserie Snacking - Le Fournil du Sud","opening_hours":"Mo-Fr 06:30-19:45; Sa 06:30-19:15","phone":"+33545785495","osm_id":12328488301}}]}