{"type":"FeatureCollection","features":[{"type":"Feature","geometry":{"type":"Point","coordinates":[5.8821005,45.4522624]},"properties":{"category":"bakery","name":"Boulangerie d'Entremont Le Vieux","opening_hours":"Th-Mo 06:30-13:00,15:00-19:00; Tu 06:30-13:00","phone":"+33 4 79 65 11 78","osm_id":286703984}},{"type":"Feature","geometry":{"type":"Point","coordinates":[5.8547339,45.416379]},"properties":{"category":"bakery","name":"Le Fournil du Petit Ramoneur","osm_id":3396373557}},{"type":"Feature","geometry":{"type":"Point","coordinates":[5.8547598,45.4177634]},"properties":{"category":"bakery","name":"Aux Délices de Chartreuse","opening_hours":"Tu-Sa 07:00-12:30,15:00-19:00; Su 07:00-12:30","phone":"+33 4 79 65 86 95","website":"https://www.patisserie-delices-chartreuse.fr/","osm_id":5305367002}},{"type":"Feature","geometry":{"type":"Point","coordinates":[5.8820862,45.4067916]},"properties":{"category":"bakery","name":"Les Champs du Pain","phone":"+33761597327","website":"https://www.leschampsdupain.fr","osm_id":5893908980}},{"type":"Feature","geometry":{"type":"Point","coordinates":[5.8545044,45.4156132]},"properties":{"category":"shop","name":"Pignon sur Routes","opening_hours":"We-Fr 09:00-12:00, 14:00-18:00; Tu, Sa-Su 09:00-18:00","phone":"+33766139050","website":"https://www.pignonsurroutes.fr/","osm_id":11114556717}}]}