{"type":"FeatureCollection","features":[{"type":"Feature","geometry":{"type":"Point","coordinates":[4.3788588,45.4379483]},"properties":{"category":"shop","name":"Cycl'in","opening_hours":"Tu-Fr 09:00-12:00,14:15-19:00; Sa 09:00-12:00,14:15-18:00","website":"https://www.cyclin-saint-etienne.fr/","osm_id":1780763766}},{"type":"Feature","geometry":{"type":"Point","coordinates":[4.3914731,45.4374593]},"properties":{"category":"shop","name":"La Rue à Vélo","opening_hours":"Tu-Fr 10:00-13:00,14:00-19:00; Sa 10:00-12:30,14:00-18:30","phone":"+33 9 82 55 92 76","website":"https://saint-etienne.cyclable.com/","osm_id":1784959912}},{"type":"Feature","geometry":{"type":"Point","coordinates":[4.366792,45.4688022]},"properties":{"category":"shop","name":"Thollot","phone":"+33 4 77 32 33 51","website":"https://www.thollot2roues.com/","osm_id":2332802903}},{"type":"Feature","geometry":{"type":"Point","coordinates":[4.381457,45.440084]},"properties":{"category":"shop","name":"Ocivélo","opening_hours":"Tu-Fr 14:00-20:00; Sa 14:00-19:00","phone":"+33477211829","website":"https://ocivelo.fr/","osm_id":4941333686}},{"type":"Feature","geometry":{"type":"Point","coordinates":[4.3833927,45.4378731]},"properties":{"category":"shop","name":"Les 2 Roues","phone":"+33 4 27 77 27 55","osm_id":6220820044}},{"type":"Feature","geometry":{"type":"Point","coordinates":[4.3653835,45.4695218]},"properties":{"category":"shop","name":"Vélo Passion","phone":"+33 4 27 64 28 93","website":"https://velopassion-st-etienne.fr/","osm_id":7959027224}},{"type":"Feature","geometry":{"type":"Point","coordinates":[4.3919711,45.4351214]},"properties":{"category":"repair","osm_id":8410155485}},{"type":"Feature","geometry":{"type":"Point","coordinates":[4.3954445,45.4591738]},"properties":{"category":"repair","osm_id":8419929172}},{"type":"Feature","geometry":{"type":"Point","coordinates":[4.3966029,45.4399729]},"properties":{"category":"shop","name":"Atelier de la Souris Verte","opening_hours":"Tu 18:00-21:00; We 16:00-20:00","website":"https://lasourisverte.org","osm_id":9069362807}},{"type":"Feature","geometry":{"type":"Point","coordinates":[4.3941416,45.4289722]},"properties":{"category":"shop","name":"Cycles CTF Taghbalout","phone":"+33 4 77 21 98 05","osm_id":9190619336}},{"type":"Feature","geometry":{"type":"Point","coordinates":[4.3783363,45.4336644]},"properties":{"category":"shop","name":"Vélo en quartier","opening_hours":"week 2-52/2 We 10:00-12:00, 14:00-16:00; Th 14:00-16:00; Fr 10:00-12:00","phone":"+33 6 95 61 86 57","osm_id":11403479805}},{"type":"Feature","geometry":{"type":"Point","coordinates":[4.378179,45.4649033]},"properties":{"category":"repair","osm_id":12817865524}},{"type":"Feature","geometry":{"type":"Point","coordinates":[4.3979869,45.4231655]},"properties":{"category":"shop","name":"Le Ferrailleur","opening_hours":"Th 16:00-23:00; Fr 18:00-21:00; Sa 18:00-25:00","phone":"+33 9 81 46 96 65","osm_id":13087653276}},{"type":"Feature","geometry":{"type":"Point","coordinates":[4.3651812,45.4800804]},"properties":{"category":"repair","osm_id":13230008296}}]}