{"type":"FeatureCollection","features":[{"type":"Feature","geometry":{"type":"Point","coordinates":[-1.1428168,45.4160998]},"properties":{"category":"shop","name":"Natur Bike/Cyclonat","osm_id":2076151424}},{"type":"Feature","geometry":{"type":"Point","coordinates":[-1.1450291,45.4344362]},"properties":{"category":"repair","opening_hours":"24/7","osm_id":13729442118}},{"type":"Feature","geometry":{"type":"Point","coordinates":[-1.1450146,45.434435]},"properties":{"category":"repair","opening_hours":"24/7","osm_id":13729442119}}]}