{"type":"FeatureCollection","features":[{"type":"Feature","geometry":{"type":"Point","coordinates":[6.6511668,45.4170227]},"properties":{"category":"bakery","name":"Au Pain d'Antan","osm_id":2163709995}},{"type":"Feature","geometry":{"type":"Point","coordinates":[6.6236007,45.4327272]},"properties":{"category":"bakery","osm_id":2163728068}},{"type":"Feature","geometry":{"type":"Point","coordinates":[6.6961971,45.4561898]},"properties":{"category":"bakery","name":"La Marmottine Boulanger Pâtissier Chocolatier","opening_hours":"Mo-Su 07:00-12:30,15:00-19:00","osm_id":4467722379}},{"type":"Feature","geometry":{"type":"Point","coordinates":[6.6479874,45.4425888]},"properties":{"category":"bakery","name":"Boulangerie Pâtisserie au Caprice","opening_hours":"Mo,Tu,Th-Sa 06:00-19:00; Su,PH 06:00-13:00","osm_id":4467726200}},{"type":"Feature","geometry":{"type":"Point","coordinates":[6.6226943,45.4324184]},"properties":{"category":"bakery","osm_id":7840086313}},{"type":"Feature","geometry":{"type":"Point","coordinates":[6.6530403,45.4186071]},"properties":{"category":"shop","name":"Izi Bike","osm_id":9983851848}},{"type":"Feature","geometry":{"type":"Point","coordinates":[6.6513822,45.4162543]},"properties":{"category":"bakery","name":"Maison Braissand","osm_id":11015402018}},{"type":"Feature","geometry":{"type":"Point","coordinates":[6.6364269,45.4154281]},"properties":{"category":"bakery","name":"Au Pain d'Antan 1850 - Maison Gandy","opening_hours":"07:00-19:30","phone":"+33 4 79 08 23 07","osm_id":13352928870}}]}