{"type":"FeatureCollection","features":[{"type":"Feature","geometry":{"type":"Point","coordinates":[6.1187336,45.4573108]},"properties":{"category":"bakery","name":"La Cavagnotte","osm_id":6761282567}},{"type":"Feature","geometry":{"type":"Point","coordinates":[6.1152972,45.4620623]},"properties":{"category":"bakery","osm_id":7819949385}},{"type":"Feature","geometry":{"type":"Point","coordinates":[6.1158508,45.4570395]},"properties":{"category":"bakery","name":"Trio de choc","osm_id":9022956981}},{"type":"Feature","geometry":{"type":"Point","coordinates":[6.1193368,45.456573]},"properties":{"category":"shop","name":"Élément Cycles","osm_id":11052839402}},{"type":"Feature","geometry":{"type":"Point","coordinates":[6.1187481,45.4578181]},"properties":{"category":"bakery","osm_id":11143328747}}]}