{"type":"FeatureCollection","features":[{"type":"Feature","geometry":{"type":"Point","coordinates":[-0.7388615,45.4921701]},"properties":{"category":"bakery","name":"Clairat","osm_id":2706828905}},{"type":"Feature","geometry":{"type":"Point","coordinates":[-0.7857091,45.4825708]},"properties":{"category":"bakery","name":"Le Pain marin","opening_hours":"Mo,Tu,Th,Fr 06:30-13:00,16:00-18:00; Sa,Su 06:30-13:00","phone":"+33 5 46 90 61 49","osm_id":13409075896}},{"type":"Feature","geometry":{"type":"Point","coordinates":[-0.7911435,45.477003]},"properties":{"category":"repair","osm_id":13714659797}}]}