{"type":"FeatureCollection","features":[{"type":"Feature","geometry":{"type":"Point","coordinates":[4.0085253,45.4160265]},"properties":{"category":"shop","name":"Rêve Bike","phone":"+33 6 38 65 41 09","osm_id":9200964946}},{"type":"Feature","geometry":{"type":"Point","coordinates":[4.0628473,45.4208256]},"properties":{"category":"repair","opening_hours":"24/7","osm_id":12022683275}},{"type":"Feature","geometry":{"type":"Point","coordinates":[4.0102529,45.4149556]},"properties":{"category":"repair","opening_hours":"24/7","osm_id":12065022741}}]}