{"type":"FeatureCollection","features":[{"type":"Feature","geometry":{"type":"Point","coordinates":[6.3625543,45.41729]},"properties":{"category":"bakery","name":"La Marmotte","osm_id":2630474256}},{"type":"Feature","geometry":{"type":"Point","coordinates":[6.3639376,45.4212728]},"properties":{"category":"bakery","name":"Chalet du Pain","opening_hours":"Mo-Su 07:00-12:15, 15:30-19:45","osm_id":2665536015}},{"type":"Feature","geometry":{"type":"Point","coordinates":[6.3593575,45.4153797]},"properties":{"category":"bakery","name":"Au pain des pistes","osm_id":6174676786}},{"type":"Feature","geometry":{"type":"Point","coordinates":[6.3645668,45.4182615]},"properties":{"category":"repair","opening_hours":"24/7","osm_id":7775569236}}]}