{"type":"FeatureCollection","features":[{"type":"Feature","geometry":{"type":"Point","coordinates":[2.7406084,45.5890896]},"properties":{"category":"bakery","name":"Le moulin d'Auvergne","opening_hours":"We-Mo 07:15-12:30,16:00-19:30","osm_id":1403599778}},{"type":"Feature","geometry":{"type":"Point","coordinates":[2.7426476,45.588546]},"properties":{"category":"bakery","name":"Epi-curieux","opening_hours":"Tu-Fr 16:00-19:30; Th off","phone":"+33 6 42 92 67 06","osm_id":2386494838}},{"type":"Feature","geometry":{"type":"Point","coordinates":[2.7412136,45.5891344]},"properties":{"category":"bakery","name":"Le Moulin de l'Écureuil","opening_hours":"Th-Tu 07:30-19:00","osm_id":3750558944}},{"type":"Feature","geometry":{"type":"Point","coordinates":[2.7346159,45.5120674]},"properties":{"category":"bakery","osm_id":4042497577}},{"type":"Feature","geometry":{"type":"Point","coordinates":[2.7424715,45.5897207]},"properties":{"category":"bakery","name":"Au Vieux Pétrin","osm_id":5735668269}},{"type":"Feature","geometry":{"type":"Point","coordinates":[2.7348286,45.5122237]},"properties":{"category":"repair","osm_id":12077498168}}]}