{"type":"FeatureCollection","features":[{"type":"Feature","geometry":{"type":"Point","coordinates":[6.1562918,45.5472166]},"properties":{"category":"compressed_air","osm_id":7889576073}},{"type":"Feature","geometry":{"type":"Point","coordinates":[6.1572424,45.5486924]},"properties":{"category":"compressed_air","osm_id":7889576074}},{"type":"Feature","geometry":{"type":"Point","coordinates":[6.1627973,45.553906]},"properties":{"category":"compressed_air","osm_id":7889576075}},{"type":"Feature","geometry":{"type":"Point","coordinates":[6.1551111,45.560195]},"properties":{"category":"repair","osm_id":14041367516}}]}