{"type":"FeatureCollection","features":[{"type":"Feature","geometry":{"type":"Point","coordinates":[4.1223909,45.5547869]},"properties":{"category":"bakery","osm_id":2083935828}},{"type":"Feature","geometry":{"type":"Point","coordinates":[4.1510892,45.5862097]},"properties":{"category":"bakery","osm_id":3031720824}},{"type":"Feature","geometry":{"type":"Point","coordinates":[4.1837752,45.538688]},"properties":{"category":"bakery","name":"Boulangerie Philippe Allione","opening_hours":"Mo-Fr 05:00-19:00","phone":"+33 4 77 30 84 86","osm_id":7200854213}},{"type":"Feature","geometry":{"type":"Point","coordinates":[4.1841992,45.5401601]},"properties":{"category":"bakery","name":"Boulangerie Nicolas Lopez","opening_hours":"Tu-Fr 06:30-13:00,16:00-19:00; Sa 06:30-19:00; Su 06:30-13:00","phone":"+33 4 77 30 85 24","osm_id":7214210909}},{"type":"Feature","geometry":{"type":"Point","coordinates":[4.155762,45.554526]},"properties":{"category":"shop","name":"L'atelier du vélo électrique","phone":"+33 6 52 87 10 38","website":"https://latelierduveloelectrique.com/","osm_id":9201023508}},{"type":"Feature","geometry":{"type":"Point","coordinates":[4.124202,45.5550257]},"properties":{"category":"bakery","name":"Boulangerie Du Pic","opening_hours":"Mo 06:00-19:00; Tu 06:00-13:00; Th-Sa 06:00-19:00; Su 06:00-13:00","phone":"+33 4 77 76 94 66","website":"https://www.franceboulangerie.fr/boulangeries/boulangerie-du-pic-saint-romain-le-puy/","osm_id":10939098705}}]}