{"type":"FeatureCollection","features":[{"type":"Feature","geometry":{"type":"Point","coordinates":[5.6082108,45.5930602]},"properties":{"category":"bakery","name":"Boulangerie Trillat-Rabilloud","opening_hours":"Mo-Fr 06:00-19:00; Sa 06:30-19:00; Su 06:30-12:30,15:00-19:00","osm_id":1614925294}},{"type":"Feature","geometry":{"type":"Point","coordinates":[5.6073956,45.5874101]},"properties":{"category":"bakery","name":"Boulangerie Trillat-Rabilloud","opening_hours":"Tu-Sa 06:30-12:30,15:00-19:00; Su 06:30-12:30","osm_id":3668881919}},{"type":"Feature","geometry":{"type":"Point","coordinates":[5.6730196,45.536139]},"properties":{"category":"bakery","name":"L'Atelier Gourmand","osm_id":4411076635}},{"type":"Feature","geometry":{"type":"Point","coordinates":[5.6878812,45.5286644]},"properties":{"category":"bakery","name":"Marie Blachère","osm_id":6580035987}},{"type":"Feature","geometry":{"type":"Point","coordinates":[5.652184,45.5359245]},"properties":{"category":"bakery","name":"Boulangerie Rémi","osm_id":6987604104}},{"type":"Feature","geometry":{"type":"Point","coordinates":[5.6286398,45.597128]},"properties":{"category":"bakery","name":"Le parfum du blé","opening_hours":"Mo-Sa 06:00-19:00; Su 06:00-13:00","phone":"+33 4 76 66 94 70","website":"https://www.leparfumduble.fr/","osm_id":7025628027}},{"type":"Feature","geometry":{"type":"Point","coordinates":[5.6714391,45.5360259]},"properties":{"category":"bakery","name":"Maison de la baguette","osm_id":8065000823}},{"type":"Feature","geometry":{"type":"Point","coordinates":[5.6854179,45.5314235]},"properties":{"category":"bakery","name":"L'Éclat du Blé","opening_hours":"Mo-Sa 06:00-19:30; Su 06:00-13:00","phone":"+33 4 76 37 59 63","website":"https://web.lifein.click/l'eclat-du-ble","osm_id":9682035317}},{"type":"Feature","geometry":{"type":"Point","coordinates":[5.6850138,45.5299349]},"properties":{"category":"bakery","name":"Boréa","opening_hours":"Mo-Su 06:00-20:00","phone":"+33 9 86 66 76 77","osm_id":10694858005}}]}