{"type":"FeatureCollection","features":[{"type":"Feature","geometry":{"type":"Point","coordinates":[5.8909365,45.5973722]},"properties":{"category":"shop","name":"Atelier Titane / Grade9","phone":"+33479716627","website":"https://www.ateliertitane.fr/","osm_id":4254685727}},{"type":"Feature","geometry":{"type":"Point","coordinates":[5.8864657,45.5902565]},"properties":{"category":"shop","name":"Materiel-velo.com","opening_hours":"Tu-Fr 09:30-12:00,14:00-18:30; Sa 09:00-12:00,14:00-18:00","phone":"+33 9 50 04 39 65","website":"https://www.materiel-velo.com/a145-magasin-materiel-velo-la-motte-servolex.html","osm_id":6515029046}},{"type":"Feature","geometry":{"type":"Point","coordinates":[5.8759768,45.5974325]},"properties":{"category":"repair","opening_hours":"24/7","osm_id":13677455825}},{"type":"Feature","geometry":{"type":"Point","coordinates":[5.8008108,45.5743069]},"properties":{"category":"repair","opening_hours":"24/7","osm_id":14091880001}}]}