{"type":"FeatureCollection","features":[{"type":"Feature","geometry":{"type":"Point","coordinates":[4.4409097,45.5657489]},"properties":{"category":"bakery","osm_id":2318557415}},{"type":"Feature","geometry":{"type":"Point","coordinates":[4.4859029,45.5440232]},"properties":{"category":"bakery","name":"Boulangerie Couzon","opening_hours":"Tu-Sa 06:30-13:00,15:00-19:00; Su 06:30-13:00","phone":"+33477208503","website":"https://patisserie-couzon.com/","osm_id":3989379269}},{"type":"Feature","geometry":{"type":"Point","coordinates":[4.4873391,45.5353323]},"properties":{"category":"compressed_air","osm_id":12456285749}}]}