{"type":"FeatureCollection","features":[{"type":"Feature","geometry":{"type":"Point","coordinates":[6.640699,45.5545882]},"properties":{"category":"shop","name":"Bike Surgery","opening_hours":"Tu-Sa 09:00-12:00,14:00-18:00","phone":"+33 4 57 37 69 95","osm_id":12158502107}},{"type":"Feature","geometry":{"type":"Point","coordinates":[6.6478364,45.5526706]},"properties":{"category":"compressed_air","osm_id":13684429658}},{"type":"Feature","geometry":{"type":"Point","coordinates":[6.6947031,45.5632755]},"properties":{"category":"repair","osm_id":13914761771}}]}