{"type":"FeatureCollection","features":[{"type":"Feature","geometry":{"type":"Point","coordinates":[4.0400858,45.5023608]},"properties":{"category":"bakery","name":"Boulangerie-Pâtisserie Odier","opening_hours":"Tu-Su 07:00-18:30","phone":"+33477767777","osm_id":5926774891}},{"type":"Feature","geometry":{"type":"Point","coordinates":[4.0662511,45.5249794]},"properties":{"category":"bakery","osm_id":6535378505}},{"type":"Feature","geometry":{"type":"Point","coordinates":[4.0756375,45.5980266]},"properties":{"category":"bakery","name":"Maison Pouilly","osm_id":7770951875}},{"type":"Feature","geometry":{"type":"Point","coordinates":[4.0831045,45.597003]},"properties":{"category":"shop","name":"Mondovélo","opening_hours":"Mo 14:30-19:00; Tu-Fr 10:00-12:00,14:30-19:00; Sa 10:00-12:30,14:00-19:00","phone":"+33 4 77 96 36 65","website":"https://montbrison.mondovelo.fr/","osm_id":9088943848}},{"type":"Feature","geometry":{"type":"Point","coordinates":[4.061138,45.5673731]},"properties":{"category":"bakery","name":"Le p’tit Meunier Rouchon","osm_id":11373192336}},{"type":"Feature","geometry":{"type":"Point","coordinates":[4.0724107,45.592007]},"properties":{"category":"bakery","name":"Boulangerie Moritel - La Pétrie","osm_id":13910617766}}]}