{"type":"FeatureCollection","features":[{"type":"Feature","geometry":{"type":"Point","coordinates":[2.8111127,45.5729232]},"properties":{"category":"bakery","name":"Le Petit Mitron","osm_id":1580911509}},{"type":"Feature","geometry":{"type":"Point","coordinates":[2.8962597,45.5718384]},"properties":{"category":"bakery","name":"Boulangerie Morillat","opening_hours":"Mo-Su 07:00-19:00","phone":"+33 4 73 88 61 87","osm_id":2459757251}},{"type":"Feature","geometry":{"type":"Point","coordinates":[2.8564025,45.5111219]},"properties":{"category":"bakery","name":"La grignote Bessard","opening_hours":"closed","osm_id":3657935116}},{"type":"Feature","geometry":{"type":"Point","coordinates":[2.8095678,45.5747405]},"properties":{"category":"bakery","name":"La Reine Margot","osm_id":3955859310}},{"type":"Feature","geometry":{"type":"Point","coordinates":[2.8552275,45.5113154]},"properties":{"category":"bakery","osm_id":4153297189}},{"type":"Feature","geometry":{"type":"Point","coordinates":[2.8107521,45.5736466]},"properties":{"category":"bakery","name":"Le Moulin de l'Écureuil","opening_hours":"Mo-Tu,Th-Su 07:30-19:00","osm_id":4212317127}},{"type":"Feature","geometry":{"type":"Point","coordinates":[2.8107064,45.5721837]},"properties":{"category":"bakery","name":"Le Fournil du Sancy","osm_id":7673241685}},{"type":"Feature","geometry":{"type":"Point","coordinates":[2.8557135,45.5114483]},"properties":{"category":"bakery","osm_id":7755721186}}]}