{"type":"FeatureCollection","features":[{"type":"Feature","geometry":{"type":"Point","coordinates":[0.6616385,45.5286119]},"properties":{"category":"bakery","name":"La Nontronnaise","opening_hours":"Tu-Sa 07:30-13:30,15:30-19:00; Su 07:30-13:30","osm_id":707137266}},{"type":"Feature","geometry":{"type":"Point","coordinates":[0.6504562,45.5170929]},"properties":{"category":"bakery","name":"Valle Jean-René","osm_id":1316828454}},{"type":"Feature","geometry":{"type":"Point","coordinates":[0.6628494,45.5908166]},"properties":{"category":"bakery","osm_id":2448228352}},{"type":"Feature","geometry":{"type":"Point","coordinates":[0.6743668,45.589869]},"properties":{"category":"repair","osm_id":9118527632}},{"type":"Feature","geometry":{"type":"Point","coordinates":[0.66379,45.5917798]},"properties":{"category":"bakery","name":"Boulangerie Multiple Rurale","osm_id":9118539561}},{"type":"Feature","geometry":{"type":"Point","coordinates":[0.6634296,45.5298556]},"properties":{"category":"bakery","name":"Les Délices de Margaux","osm_id":9991084518}}]}