{"type":"FeatureCollection","features":[{"type":"Feature","geometry":{"type":"Point","coordinates":[4.998625,45.5864309]},"properties":{"category":"bakery","name":"Kling","osm_id":1491399007}},{"type":"Feature","geometry":{"type":"Point","coordinates":[4.9571768,45.5889591]},"properties":{"category":"bakery","name":"Boulangerie Simon","phone":"+33954981014","osm_id":6502373666}},{"type":"Feature","geometry":{"type":"Point","coordinates":[4.9161633,45.5282511]},"properties":{"category":"bakery","name":"Au Supplice Des Délices","osm_id":8308493609}},{"type":"Feature","geometry":{"type":"Point","coordinates":[4.9097767,45.5057514]},"properties":{"category":"bakery","name":"Banette chez Dim et Aurore","opening_hours":"Tu-Sa 06:00-19:30; Su 06:30-12:30","osm_id":9311961841}},{"type":"Feature","geometry":{"type":"Point","coordinates":[4.9212967,45.517925]},"properties":{"category":"bakery","name":"Marie Blachère","opening_hours":"Mo-Sa 06:30-19:30","website":"https://boulangeries.marieblachere.com/vienne/","osm_id":9670156547}},{"type":"Feature","geometry":{"type":"Point","coordinates":[4.9155106,45.5145937]},"properties":{"category":"bakery","name":"La Mie Soloise","osm_id":10789712899}},{"type":"Feature","geometry":{"type":"Point","coordinates":[4.9638667,45.5165547]},"properties":{"category":"bakery","name":"Boulangerie Roux Tradition","phone":"+33 6 84 31 00 71","osm_id":10889609589}},{"type":"Feature","geometry":{"type":"Point","coordinates":[4.9197361,45.5586514]},"properties":{"category":"bakery","name":"Margotin's","opening_hours":"Mo-Fr 06:30-12:30,15:30-19:00; We off; Sa,Su 06:30-13:00","phone":"+33 4 74 87 49 16","osm_id":12153085939}},{"type":"Feature","geometry":{"type":"Point","coordinates":[4.9125485,45.5298276]},"properties":{"category":"bakery","name":"Millet","osm_id":12884123472}},{"type":"Feature","geometry":{"type":"Point","coordinates":[4.9204832,45.5112214]},"properties":{"category":"shop","name":"Fun crazy bikes","phone":"+33 7 61 20 33 70","osm_id":13927774592}}]}