{"type":"FeatureCollection","features":[{"type":"Feature","geometry":{"type":"Point","coordinates":[4.7707501,45.5916821]},"properties":{"category":"repair","name":"Les Maillons du Rhône","opening_hours":"We 16:00-18:00; Sa 10:00-12:00","website":"https://maillonsdurhone.fr/","osm_id":11148018754}},{"type":"Feature","geometry":{"type":"Point","coordinates":[4.7553779,45.5860708]},"properties":{"category":"compressed_air","osm_id":11949548249}},{"type":"Feature","geometry":{"type":"Point","coordinates":[4.714725,45.5524128]},"properties":{"category":"shop","name":"Repare bike","opening_hours":"Tu, Th, Fr 14:00-18:00; Sa 09:30-12:00","phone":"+33 6 03 73 47 02","website":"repare-bike.fr","osm_id":11958118142}},{"type":"Feature","geometry":{"type":"Point","coordinates":[4.7947572,45.5822815]},"properties":{"category":"repair","osm_id":12623240859}}]}