{"type":"FeatureCollection","features":[{"type":"Feature","geometry":{"type":"Point","coordinates":[1.2069199,45.5113741]},"properties":{"category":"bakery","name":"Boulangerie Oh !!! Délices d'antan","opening_hours":"Mo-Fr 07:00-19:00; Sa 07:00-14:00","phone":"+33 5 55 08 67 98","website":"https://www.ohdelicesdantan.com/","osm_id":3519533708}},{"type":"Feature","geometry":{"type":"Point","coordinates":[1.2015709,45.5108074]},"properties":{"category":"bakery","name":"Boulangerie Maison Renard","opening_hours":"Mo-Fr 06:30-18:30; Th off; Sa 06:30-12:30","phone":"+33 5 55 75 16 92","osm_id":10269339198}},{"type":"Feature","geometry":{"type":"Point","coordinates":[1.2083159,45.5216122]},"properties":{"category":"bakery","name":"Marie Blachère","opening_hours":"Mo-Sa 07:00-19:30","phone":"+33 5 44 24 09 37","website":"https://boulangeries.marieblachere.com/fr/france-FR/5381/marie-blachere-st-yrieix-la-perche/details","osm_id":12857012494}},{"type":"Feature","geometry":{"type":"Point","coordinates":[1.2010793,45.5144662]},"properties":{"category":"bakery","name":"Boulangerie Denis et Carine Gourdet","opening_hours":"Mo-Sa 07:00-13:00,15:00-19:30; Tu off; Su 07:00-13:00","phone":"+33 5 55 31 00 37","osm_id":12857033886}}]}