{"type":"FeatureCollection","features":[{"type":"Feature","geometry":{"type":"Point","coordinates":[3.2534217,45.543921]},"properties":{"category":"compressed_air","osm_id":12051872219}},{"type":"Feature","geometry":{"type":"Point","coordinates":[3.2631222,45.5517119]},"properties":{"category":"compressed_air","osm_id":12595318483}},{"type":"Feature","geometry":{"type":"Point","coordinates":[3.2537112,45.5442888]},"properties":{"category":"repair","osm_id":12989708660}},{"type":"Feature","geometry":{"type":"Point","coordinates":[3.220247,45.5934913]},"properties":{"category":"shop","name":"L'Atelier du Vélo 63","opening_hours":"Mo-Fr 08:30-19:30; Sa 08:30-12:30","phone":"+33 6 24 87 49 32","website":"https://latelierduvelo63.fr/","osm_id":13364369531}}]}