{"type":"FeatureCollection","features":[{"type":"Feature","geometry":{"type":"Point","coordinates":[4.2875806,45.5278265]},"properties":{"category":"shop","name":"Materiel-velo.com","website":"https://www.materiel-velo.com/a272-magasin-velo-materiel-velocom-saint-etienne-42.html","osm_id":1827812689}},{"type":"Feature","geometry":{"type":"Point","coordinates":[4.2579029,45.5024583]},"properties":{"category":"shop","name":"Maison du vélo - Pont et Pignons","opening_hours":"Tu, Th 17:00-19:00","website":"https://www.pont-et-pignons.fr/","osm_id":9740221823}},{"type":"Feature","geometry":{"type":"Point","coordinates":[4.2822146,45.5306653]},"properties":{"category":"shop","name":"Mondovélo","opening_hours":"Tu-Sa 10:00-12:00,14:00-19:00","phone":"+33 4 77 93 73 50","website":"https://andrezieux-boutheon.mondovelo.fr/","osm_id":11975678399}},{"type":"Feature","geometry":{"type":"Point","coordinates":[4.2762418,45.5649662]},"properties":{"category":"shop","name":"Evidence Cycles","opening_hours":"Mo-Sa 10:00-19:00","phone":"+33 6 52 88 78 66","website":"https://evidencecycles.fr/","osm_id":12679471810}},{"type":"Feature","geometry":{"type":"Point","coordinates":[4.2510781,45.5307537]},"properties":{"category":"repair","osm_id":13903643289}},{"type":"Feature","geometry":{"type":"Point","coordinates":[4.279171,45.52846]},"properties":{"category":"shop","name":"Mobiswag","website":"https://www.mobiswag.fr","osm_id":13968932201}}]}