{"type":"FeatureCollection","features":[{"type":"Feature","geometry":{"type":"Point","coordinates":[2.9326812,45.5116855]},"properties":{"category":"bakery","name":"Boulangerie Florian Mestas","osm_id":1874327930}},{"type":"Feature","geometry":{"type":"Point","coordinates":[2.9337035,45.5121801]},"properties":{"category":"bakery","name":"À la reine Margot","osm_id":1874327942}},{"type":"Feature","geometry":{"type":"Point","coordinates":[2.9930266,45.5869013]},"properties":{"category":"bakery","osm_id":3084779322}},{"type":"Feature","geometry":{"type":"Point","coordinates":[2.9421321,45.572536]},"properties":{"category":"bakery","name":"Le Gourmet Auvergnat","osm_id":6640149585}},{"type":"Feature","geometry":{"type":"Point","coordinates":[2.9409005,45.5736767]},"properties":{"category":"bakery","name":"Le Fournil du Château","opening_hours":"Tu-Sa 07:00-13:00,15:00-19:00; Su 07:00-13:00","osm_id":6640267585}},{"type":"Feature","geometry":{"type":"Point","coordinates":[2.9177855,45.5745895]},"properties":{"category":"repair","osm_id":9830807218}}]}