{"type":"FeatureCollection","features":[{"type":"Feature","geometry":{"type":"Point","coordinates":[-0.3290878,45.6928667]},"properties":{"category":"bakery","name":"Victor","opening_hours":"Mo-Fr 07:00-13:00,15:00-19:30","phone":"+33 5 79 87 20 88","website":"https://www.au-pain-des-anges.fr/","osm_id":850483767}},{"type":"Feature","geometry":{"type":"Point","coordinates":[-0.3514276,45.6899145]},"properties":{"category":"bakery","name":"La Romaine","osm_id":1455043197}},{"type":"Feature","geometry":{"type":"Point","coordinates":[-0.3108233,45.6787942]},"properties":{"category":"bakery","name":"Ma boulangerie","osm_id":6722409285}},{"type":"Feature","geometry":{"type":"Point","coordinates":[-0.323833,45.6945352]},"properties":{"category":"bakery","name":"Fournil des Coquelicots","website":"http://fournildescoquelicots.fr/","osm_id":7717611391}},{"type":"Feature","geometry":{"type":"Point","coordinates":[-0.3469001,45.6946162]},"properties":{"category":"bakery","name":"Boulangerie Ange","opening_hours":"Mo-Sa 06:00-20:00","phone":"+33545325661","website":"http://www.boulangerie-ange.fr/boulangerie/?id=130","osm_id":8199360004}},{"type":"Feature","geometry":{"type":"Point","coordinates":[-0.3320016,45.6994475]},"properties":{"category":"bakery","name":"Boulangerie Saint-Jacques","opening_hours":"Mo-Fr 06:30-13:00,15:00-19:30; We off; Sa 07:00-13:00,15:00-19:30; Su 07:00-13:00,15:00-19:00","phone":"+33 5 45 82 10 86","osm_id":8225389629}},{"type":"Feature","geometry":{"type":"Point","coordinates":[-0.3405359,45.6991697]},"properties":{"category":"shop","name":"V-Bike","osm_id":9999771738}},{"type":"Feature","geometry":{"type":"Point","coordinates":[-0.3254061,45.6935695]},"properties":{"category":"bakery","name":"La Mie Câline","website":"https://www.lamiecaline.com/boutiques/saint-nazaire/","osm_id":13440461436}},{"type":"Feature","geometry":{"type":"Point","coordinates":[-0.3283716,45.6879464]},"properties":{"category":"bakery","name":"Boulangerie Pâtisserie La Mie de Nico","osm_id":14053379401}}]}