{"type":"FeatureCollection","features":[{"type":"Feature","geometry":{"type":"Point","coordinates":[1.3590689,45.6949059]},"properties":{"category":"bakery","name":"Boulangerie Chabernaud","opening_hours":"Mo-Sa 07:00-12:30; 15:30-19:00","phone":"+33 5 55 00 90 99","osm_id":12397520885}},{"type":"Feature","geometry":{"type":"Point","coordinates":[1.353258,45.6090048]},"properties":{"category":"bakery","name":"Fournil du Petit Gueulard","opening_hours":"Tu 16:00-19:00; Th 16:00-19:00; Fr 16:00-19:00","phone":"+33 6 67 10 62 59","osm_id":12398201828}}]}