{"type":"FeatureCollection","features":[{"type":"Feature","geometry":{"type":"Point","coordinates":[4.4774591,45.639564]},"properties":{"category":"shop","name":"Cycle Activ' & Co","opening_hours":"Mo,Fr 14:30-19:30; Tu-Th 09:00-12:30,14:30-19:30; Sa 09:00-12:00,14:30-19:30","phone":"+33981375586","website":"https://www.cycle-activ-and-co.fr","osm_id":6025640741}},{"type":"Feature","geometry":{"type":"Point","coordinates":[4.4181111,45.6278097]},"properties":{"category":"shop","name":"Pignon sur Champ","opening_hours":"We[2] 17:00-19:00","website":"https://www.fermedelamaladiere.fr/la-p%C3%A2te-%C3%A0-bonheur/pignon-sur-champs","osm_id":11477230741}}]}