{"type":"FeatureCollection","features":[{"type":"Feature","geometry":{"type":"Point","coordinates":[0.9778337,45.6543263]},"properties":{"category":"bakery","name":"Boulangerie Gallas","opening_hours":"Tu-Sa 07:00-13:00,14:30-19:30; Su 07:00-12:45","phone":"+33 5 55 78 67 36","osm_id":5728434576}},{"type":"Feature","geometry":{"type":"Point","coordinates":[0.9765888,45.6548182]},"properties":{"category":"bakery","name":"Aux Délices des Petits Choux","opening_hours":"Mo-Fr 07:00-13:30,15:00-19:00; We off; Sa,Su 07:00-12:30","phone":"+33 5 55 78 41 18","osm_id":11491676007}}]}