{"type":"FeatureCollection","features":[{"type":"Feature","geometry":{"type":"Point","coordinates":[5.561815,45.6351454]},"properties":{"category":"bakery","name":"Boulangerie du Champ de Mars","osm_id":2340688357}},{"type":"Feature","geometry":{"type":"Point","coordinates":[5.5371088,45.6098676]},"properties":{"category":"bakery","name":"Boulangerie Thevenet","opening_hours":"Mo off; Tu-Fr 06:00-13:30,15:30-19:30; Sa 06:00-19:30; Su 05:30-19:30","phone":"0474889900","osm_id":3577213958}},{"type":"Feature","geometry":{"type":"Point","coordinates":[5.5381535,45.6273403]},"properties":{"category":"bakery","name":"Vers un Autre Pain","opening_hours":"Mo,Tu,Th-Sa 06:00-19:00; Su 06:00-14:00","osm_id":3689078107}},{"type":"Feature","geometry":{"type":"Point","coordinates":[5.587038,45.6951116]},"properties":{"category":"bakery","name":"Depôt de pain","osm_id":9876641843}},{"type":"Feature","geometry":{"type":"Point","coordinates":[5.5665283,45.635109]},"properties":{"category":"bakery","name":"Boulangerie pâtisserie","opening_hours":"Tu-Sa 06:30-13:15,15:00-19:00; Su 06:30-12:30","osm_id":12752407194}},{"type":"Feature","geometry":{"type":"Point","coordinates":[5.5272008,45.6951564]},"properties":{"category":"bakery","name":"Boulangerie","osm_id":13135799567}},{"type":"Feature","geometry":{"type":"Point","coordinates":[5.5280543,45.6947463]},"properties":{"category":"repair","osm_id":13972110412}}]}