{"type":"FeatureCollection","features":[{"type":"Feature","geometry":{"type":"Point","coordinates":[-0.8114918,45.6507385]},"properties":{"category":"bakery","name":"La Meursacaise","osm_id":3967222664}},{"type":"Feature","geometry":{"type":"Point","coordinates":[-0.8117071,45.6510225]},"properties":{"category":"bakery","name":"FLAUSSE Pierre Jean","osm_id":6617018498}},{"type":"Feature","geometry":{"type":"Point","coordinates":[-0.8486708,45.6922438]},"properties":{"category":"bakery","osm_id":9192785965}}]}