{"type":"FeatureCollection","features":[{"type":"Feature","geometry":{"type":"Point","coordinates":[1.2147208,45.6141914]},"properties":{"category":"shop","osm_id":7738135983}},{"type":"Feature","geometry":{"type":"Point","coordinates":[1.2139881,45.6158301]},"properties":{"category":"bakery","name":"Boulangerie Le Fournil Arédien","opening_hours":"07:00-13:00; Tu 07:00-13:00,15:30-18:30; We off","phone":"+33 5 55 48 10 95","osm_id":12857715584}},{"type":"Feature","geometry":{"type":"Point","coordinates":[1.2362044,45.6988584]},"properties":{"category":"bakery","name":"Le Pain Retrouvé","opening_hours":"Mo-Fr 05:00-19:30; Sa 05:00-13:00,16:00-19:30; Su 05:00-13:00","phone":"+33 5 55 57 51 99","osm_id":13713743895}}]}