{"type":"FeatureCollection","features":[{"type":"Feature","geometry":{"type":"Point","coordinates":[-0.5998537,45.6097193]},"properties":{"category":"bakery","name":"Paul","opening_hours":"Mo-Su 07:00-15:00","phone":"+33 5 46 91 95 30","website":"https://www.paul.fr/stores/paul_saint_leger","osm_id":5365833966}},{"type":"Feature","geometry":{"type":"Point","coordinates":[-0.5029926,45.6487607]},"properties":{"category":"bakery","name":"Aux déliices de Manoa","opening_hours":"Tu-Su 07:00-12:30","osm_id":7409944520}},{"type":"Feature","geometry":{"type":"Point","coordinates":[-0.5876572,45.6538829]},"properties":{"category":"bakery","name":"Le Fournil de la Chouquette","osm_id":13098022791}}]}