{"type":"FeatureCollection","features":[{"type":"Feature","geometry":{"type":"Point","coordinates":[4.9344906,45.6283021]},"properties":{"category":"bakery","name":"Marguerite","osm_id":468130799}},{"type":"Feature","geometry":{"type":"Point","coordinates":[4.9674231,45.6768065]},"properties":{"category":"shop","name":"Culture Vélo","opening_hours":"Tu-Fr 09:00-12:30,14:00-19:00; Sa 09:00-12:30,13:30-18:00","osm_id":537874679}},{"type":"Feature","geometry":{"type":"Point","coordinates":[4.9382108,45.6944541]},"properties":{"category":"bakery","name":"Maison Délice","osm_id":2019686917}},{"type":"Feature","geometry":{"type":"Point","coordinates":[4.9345767,45.697487]},"properties":{"category":"bakery","name":"Au pain doré","opening_hours":"Mo-Fr 05:30-20:00; Sa-Su 06:00-20:00","osm_id":2019686920}},{"type":"Feature","geometry":{"type":"Point","coordinates":[4.9566233,45.6801586]},"properties":{"category":"bakery","name":"Marie Blachère","opening_hours":"Mo-Sa 07:00-20:00","phone":"+33 4 72 32 27 96","website":"https://boulangeries.marieblachere.com/Mions/","osm_id":2198824146}},{"type":"Feature","geometry":{"type":"Point","coordinates":[4.9370926,45.6943497]},"properties":{"category":"bakery","name":"Huche aux Pains","osm_id":2231675736}},{"type":"Feature","geometry":{"type":"Point","coordinates":[4.956598,45.6637654]},"properties":{"category":"bakery","name":"Boulangerie Pâtisserie Millet","opening_hours":"Mo-Su 06:00-20:00","phone":"+33 4 72 18 19 55","osm_id":2408825935}},{"type":"Feature","geometry":{"type":"Point","coordinates":[4.9526077,45.6640702]},"properties":{"category":"bakery","name":"Boulangerie des Arcades","opening_hours":"Mo-Fr 06:30-20:00; Sa 07:00-20:00; Su 07:00-14:00","osm_id":2408833658}},{"type":"Feature","geometry":{"type":"Point","coordinates":[4.9561903,45.6631009]},"properties":{"category":"bakery","name":"Maison Lambert","opening_hours":"Mo-Sa 06:00-19:30","osm_id":2408833659}},{"type":"Feature","geometry":{"type":"Point","coordinates":[4.9538799,45.6830953]},"properties":{"category":"compressed_air","osm_id":2468550863}},{"type":"Feature","geometry":{"type":"Point","coordinates":[4.9378406,45.6906812]},"properties":{"category":"bakery","name":"Maison Portelada","opening_hours":"Mo-Fr 06:30-19:00; Sa 07:00-19:00; Su 07:00-13:00","phone":"+33 4 37 25 97 47","osm_id":3668331333}},{"type":"Feature","geometry":{"type":"Point","coordinates":[4.9532688,45.687943]},"properties":{"category":"bakery","name":"Mell' Shop","osm_id":3893446372}},{"type":"Feature","geometry":{"type":"Point","coordinates":[4.9471966,45.6910526]},"properties":{"category":"bakery","name":"La Boul'Ange","osm_id":3894136029}},{"type":"Feature","geometry":{"type":"Point","coordinates":[4.9464346,45.6877407]},"properties":{"category":"bakery","name":"Fournil'In","osm_id":4570123505}},{"type":"Feature","geometry":{"type":"Point","coordinates":[4.942923,45.6880966]},"properties":{"category":"bakery","name":"Félicie et Michel","opening_hours":"Mo-Sa 06:00-19:30; Su 06:00-19:00","phone":"+33 9 73625363","website":"https://www.facebook.com/Boulangerie-F%C3%A9licie-et-Michel-1840123982885631","osm_id":4720794738}},{"type":"Feature","geometry":{"type":"Point","coordinates":[4.9362688,45.6868353]},"properties":{"category":"bakery","name":"La Panetière","osm_id":4733012898}},{"type":"Feature","geometry":{"type":"Point","coordinates":[4.942717,45.6995613]},"properties":{"category":"bakery","name":"Boulangerie Lambert","opening_hours":"Tu-Sa 06:00-20:00; Su 06:00-14:00","website":"https://maison-lambert.fr/","osm_id":6148477383}},{"type":"Feature","geometry":{"type":"Point","coordinates":[4.952906,45.6953813]},"properties":{"category":"bakery","osm_id":6446129861}},{"type":"Feature","geometry":{"type":"Point","coordinates":[4.9349679,45.6910484]},"properties":{"category":"bakery","name":"Millet","opening_hours":"Mo-Su 06:00-20:00","osm_id":7119983652}},{"type":"Feature","geometry":{"type":"Point","coordinates":[4.9854189,45.6541312]},"properties":{"category":"bakery","name":"My Gourmandise","osm_id":8676745147}},{"type":"Feature","geometry":{"type":"Point","coordinates":[4.9574543,45.6654047]},"properties":{"category":"repair","opening_hours":"24/7","osm_id":10594060127}},{"type":"Feature","geometry":{"type":"Point","coordinates":[4.9273101,45.6513724]},"properties":{"category":"bakery","opening_hours":"Mo-Sa 06:30-19:30","phone":"+33 4 72 70 99 08","website":"https://boulangeries.marieblachere.com/fr/france-FR/5413/marie-blachere-chaponnay/details","osm_id":11528542135}},{"type":"Feature","geometry":{"type":"Point","coordinates":[4.9413269,45.6808696]},"properties":{"category":"bakery","name":"Boulangerie Joliot-Curie","phone":"+33 4 78 35 66 75","osm_id":11560166540}},{"type":"Feature","geometry":{"type":"Point","coordinates":[4.9704965,45.6600853]},"properties":{"category":"repair","osm_id":12073102946}},{"type":"Feature","geometry":{"type":"Point","coordinates":[4.9361712,45.6270194]},"properties":{"category":"bakery","name":"Pains et Gourmandises","osm_id":12093100201}},{"type":"Feature","geometry":{"type":"Point","coordinates":[4.9581828,45.6648568]},"properties":{"category":"bakery","name":"Maison Millet","osm_id":12101797631}},{"type":"Feature","geometry":{"type":"Point","coordinates":[4.9127984,45.6876036]},"properties":{"category":"bakery","name":"La Petite Maison","phone":"+33 4 72 89 47 78","osm_id":12905283791}}]}