{"type":"FeatureCollection","features":[{"type":"Feature","geometry":{"type":"Point","coordinates":[1.1863659,45.6793441]},"properties":{"category":"bakery","name":"L'Atelier Sucré","opening_hours":"Mo-Sa 06:30-13:00,15:30-19:30; We,Su 06:30-13:00","phone":"+33 5 87 08 29 50","osm_id":11204968128}},{"type":"Feature","geometry":{"type":"Point","coordinates":[1.1595649,45.6431311]},"properties":{"category":"bakery","name":"Au Pain d'Hélène","opening_hours":"Tu-Fr 06:30-12:30,15:30-19:00; Sa 06:30-12:30; Su 06:30-11:30","phone":"+33 5 55 58 14 58","osm_id":12803740569}}]}