{"type":"FeatureCollection","features":[{"type":"Feature","geometry":{"type":"Point","coordinates":[6.848208,45.6273094]},"properties":{"category":"bakery","name":"Boulangerie Pâtisserie Ledemé","osm_id":2677720331}},{"type":"Feature","geometry":{"type":"Point","coordinates":[6.8500465,45.6271067]},"properties":{"category":"bakery","name":"Les 4 Épis","osm_id":3665886560}},{"type":"Feature","geometry":{"type":"Point","coordinates":[6.8632431,45.6257959]},"properties":{"category":"bakery","name":"Boulangere Ledemé","phone":"+334 79 00 94 57","osm_id":7184583179}},{"type":"Feature","geometry":{"type":"Point","coordinates":[6.8213115,45.6125531]},"properties":{"category":"repair","osm_id":14070822584}}]}