{"type":"FeatureCollection","features":[{"type":"Feature","geometry":{"type":"Point","coordinates":[3.091596,45.6596668]},"properties":{"category":"bakery","name":"Boulangerie","opening_hours":"Mo 00:00-00:01","osm_id":2297677073}},{"type":"Feature","geometry":{"type":"Point","coordinates":[3.0044294,45.6698478]},"properties":{"category":"bakery","name":"Le Fournil d'Aydat","opening_hours":"Mo,Tu,Th,Fr 06:30-13:00,16:00-19:00; Sa 07:00-13:00,16:00-19:00; Su 07:00-12:00","osm_id":6239229702}},{"type":"Feature","geometry":{"type":"Point","coordinates":[3.0938037,45.6605494]},"properties":{"category":"shop","name":"Vélo Aventure 63","opening_hours":"open \"Sur rendez-vous\"","phone":"+33 6 60 48 63 65","website":"https://velo-aventure-63.fr/","osm_id":9954114314}}]}