{"type":"FeatureCollection","features":[{"type":"Feature","geometry":{"type":"Point","coordinates":[5.4714829,45.675475]},"properties":{"category":"shop","name":"Respire Cycle & Café","opening_hours":"Tu-Sa 09:00-12:30,14:00-19:00","phone":"+33 4 74 92 58 69","website":"https://respirecyclecafe.fr/","osm_id":2352442018}},{"type":"Feature","geometry":{"type":"Point","coordinates":[5.4546889,45.6837924]},"properties":{"category":"shop","name":"alpin bike","phone":"+33 4 74 92 80 62","osm_id":5798367093}}]}