{"type":"FeatureCollection","features":[{"type":"Feature","geometry":{"type":"Point","coordinates":[1.7388484,45.738575]},"properties":{"category":"shop","osm_id":2674612805}},{"type":"Feature","geometry":{"type":"Point","coordinates":[1.7422425,45.7388718]},"properties":{"category":"bakery","name":"Boulangerie Martin","opening_hours":"Tu-Sa 07:30-13:00,15:30-19:00; Su 07:30-12:30","phone":"+33 5 55 69 75 87","osm_id":5777409813}},{"type":"Feature","geometry":{"type":"Point","coordinates":[1.7434635,45.7389409]},"properties":{"category":"bakery","name":"Échoppe Pelaude","osm_id":10815403917}}]}