{"type":"FeatureCollection","features":[{"type":"Feature","geometry":{"type":"Point","coordinates":[3.543225,45.7536656]},"properties":{"category":"bakery","name":"Maison Privat","osm_id":1731934469}},{"type":"Feature","geometry":{"type":"Point","coordinates":[3.5398373,45.7557996]},"properties":{"category":"bakery","name":"La boul","osm_id":11059604406}},{"type":"Feature","geometry":{"type":"Point","coordinates":[3.5388601,45.755557]},"properties":{"category":"bakery","name":"La Farinière","osm_id":14099652013}},{"type":"Feature","geometry":{"type":"Point","coordinates":[3.5382617,45.754881]},"properties":{"category":"bakery","osm_id":14099652020}}]}