{"type":"FeatureCollection","features":[{"type":"Feature","geometry":{"type":"Point","coordinates":[1.4326453,45.7502618]},"properties":{"category":"bakery","name":"Artisan Boulanger Pâtissier L'Utopie","opening_hours":"Tu-Fr 06:30-13:00,15:00-19:00; We 06:30-13:00; Sa 06:30-18:00; Su 07:00-12:30","phone":"+33 5 87 50 19 54","osm_id":3523657539}},{"type":"Feature","geometry":{"type":"Point","coordinates":[1.4314815,45.7525555]},"properties":{"category":"repair","opening_hours":"24/7","osm_id":10182540914}},{"type":"Feature","geometry":{"type":"Point","coordinates":[1.4249489,45.7029805]},"properties":{"category":"bakery","name":"La Grigne Sauvage","opening_hours":"Tu 16:00-19:00","phone":"+33 6 65 41 79 43","osm_id":12397553392}},{"type":"Feature","geometry":{"type":"Point","coordinates":[1.4324531,45.74996]},"properties":{"category":"bakery","name":"Le Fournil de Marie","phone":"+33 5 55 09 76 59","osm_id":12741646802}}]}