{"type":"FeatureCollection","features":[{"type":"Feature","geometry":{"type":"Point","coordinates":[-0.8887438,45.7717413]},"properties":{"category":"bakery","name":"Geffre Sébastien","osm_id":6906001141}},{"type":"Feature","geometry":{"type":"Point","coordinates":[-0.8369073,45.7421247]},"properties":{"category":"bakery","name":"Boulangerie Balanzac","osm_id":6906008333}},{"type":"Feature","geometry":{"type":"Point","coordinates":[-0.8116707,45.7457567]},"properties":{"category":"bakery","osm_id":7222110259}},{"type":"Feature","geometry":{"type":"Point","coordinates":[-0.8808657,45.7450138]},"properties":{"category":"bakery","name":"Le fournil de Nancras","osm_id":9033085378}},{"type":"Feature","geometry":{"type":"Point","coordinates":[-0.8891013,45.7104273]},"properties":{"category":"bakery","name":"La Boul'Ange de Léna","osm_id":12513292596}}]}