{"type":"FeatureCollection","features":[{"type":"Feature","geometry":{"type":"Point","coordinates":[4.8247285,45.7672621]},"properties":{"category":"shop","name":"Culture Vélo","opening_hours":"Mo-Th 10:00-19:00; Sa 10:00-18:00; Fr 10:00-12:00,14:00-19:00","phone":"+33 4 28 29 90 10","website":"https://www.culturevelo.com/-Lyon-centre-","osm_id":246746079}},{"type":"Feature","geometry":{"type":"Point","coordinates":[4.8267576,45.7672567]},"properties":{"category":"shop","name":"Véran des Villes","opening_hours":"Tu-Fr 09:00-12:00; Tu,We,Fr 14:00-19:00; Th 15:00-19:00; Sa 10:00-12:00,14:00-18:00","phone":"+33 4 78 27 22 41","website":"https://www.cyclesveran.fr/","osm_id":246746974}},{"type":"Feature","geometry":{"type":"Point","coordinates":[4.8472441,45.7698798]},"properties":{"category":"shop","name":"Vélonaute Tête d'Or","opening_hours":"Tu-Sa 10:00-13:00,14:30-19:00","website":"https://www.velonaute.com/content/8-velonaute-tete-d-or-magasin-velos-de-ville-draisiennes-pliants-Lyon","osm_id":976460018}},{"type":"Feature","geometry":{"type":"Point","coordinates":[4.8440923,45.7496354]},"properties":{"category":"shop","name":"Lyon Cycle Chic","opening_hours":"Tu-Sa 09:00-19:00","phone":"+33 4 26 85 07 22","website":"http://www.lyoncyclechic.fr/","osm_id":1029543032}},{"type":"Feature","geometry":{"type":"Point","coordinates":[4.842593,45.7566431]},"properties":{"category":"shop","name":"Vélonaute Liberté","opening_hours":"Tu-Sa 09:30-13:00,14:30-18:30","phone":"+33 4 78 95 39 77","website":"https://www.velonaute.com/content/49-Velonaute-magasin-specialise-velos-randonnee-voyage-vtc","osm_id":1270820061}},{"type":"Feature","geometry":{"type":"Point","coordinates":[4.8301122,45.7775456]},"properties":{"category":"shop","name":"Vélos et Compagnie","opening_hours":"Tu-Fr 10:00-13:00,14:30-18:30; Sa 10:00-18:00","osm_id":1326601559}},{"type":"Feature","geometry":{"type":"Point","coordinates":[4.8417193,45.7572531]},"properties":{"category":"shop","name":"Velostrada","phone":"+33 4 37 57 91 20","website":"https://velostrada.com/","osm_id":1407128782}},{"type":"Feature","geometry":{"type":"Point","coordinates":[4.8788063,45.766728]},"properties":{"category":"shop","name":"Cyclable","opening_hours":"Tu-Sa 10:00-13:00,14:00-19:00","phone":"+33 9 82 61 01 66","website":"https://villeurbanne.cyclable.com/","osm_id":1421941055}},{"type":"Feature","geometry":{"type":"Point","coordinates":[4.8619861,45.767991]},"properties":{"category":"shop","name":"Cycles Blain - Manudany","opening_hours":"Tu-Sa 10:00-13:00,14:00-19:00","phone":"+33 4 51 08 89 34","website":"https://www.cycles-blain.com/","osm_id":1423489846}},{"type":"Feature","geometry":{"type":"Point","coordinates":[4.894064,45.7381292]},"properties":{"category":"compressed_air","osm_id":1466648733}},{"type":"Feature","geometry":{"type":"Point","coordinates":[4.8252935,45.7672558]},"properties":{"category":"shop","name":"Vélo Station","opening_hours":"Tu-Fr 09:00-13:00,14:00-19:00; Sa 10:00-13:00,14:00-18:00","phone":"+33 4 72 00 91 44","website":"https://www.velostation.com/-Lyon-Saint-Paul-","osm_id":1480228032}},{"type":"Feature","geometry":{"type":"Point","coordinates":[4.8534583,45.7354849]},"properties":{"category":"shop","name":"Cyclexperts","opening_hours":"Mo-Fr 09:45-12:30,14:00-19:00","phone":"+33 4 78 72 78 47","osm_id":1503957845}},{"type":"Feature","geometry":{"type":"Point","coordinates":[4.8899616,45.755315]},"properties":{"category":"shop","name":"Le Cyclub","opening_hours":"Tu, Sa 10:15-17:30; We, Fr 13:30-18:30","phone":"+33 7 61 05 20 66","website":"https://lecyclub.org/","osm_id":2133524478}},{"type":"Feature","geometry":{"type":"Point","coordinates":[4.8460345,45.7526335]},"properties":{"category":"shop","name":"Cyclable Jean Jaurès","opening_hours":"Tu-Sa 10:00-13:00,14:00-19:00","phone":"+33983450706","website":"https://lyon7.cyclable.com/","osm_id":2217042329}},{"type":"Feature","geometry":{"type":"Point","coordinates":[4.8277975,45.7794521]},"properties":{"category":"shop","name":"Vélonaute Croix-Rousse","opening_hours":"Tu-Sa 09:30-13:00,14:30-18:30","website":"https://www.cyclable.com/","osm_id":2280843782}},{"type":"Feature","geometry":{"type":"Point","coordinates":[4.8475117,45.7671337]},"properties":{"category":"shop","name":"Eco-triporteur Delano","phone":"+33980796459","website":"https://www.eco-triporteur.com","osm_id":2920496401}},{"type":"Feature","geometry":{"type":"Point","coordinates":[4.8621429,45.7464727]},"properties":{"category":"shop","name":"Vélonaute Frères Lumière","opening_hours":"Tu-Sa 09:30-13:00,14:30-18:30; Mo,Su off","phone":"+33 9 84 43 50 49","website":"https://www.velonaute.com/content/11-velonaute-freres-lumiere-magasin-velos-fitness-gravelbikes-Lyon","osm_id":2924470593}},{"type":"Feature","geometry":{"type":"Point","coordinates":[4.8533453,45.7525538]},"properties":{"category":"shop","name":"Lion à Bicyclette","opening_hours":"Tu-Sa 10:00-18:00","osm_id":2932341403}},{"type":"Feature","geometry":{"type":"Point","coordinates":[4.8741532,45.7846544]},"properties":{"category":"shop","name":"Les Bikers","opening_hours":"Mo-Fr 12:15-13:45","website":"https://lesbikersinsalyon.wordpress.com/","osm_id":2957823933}},{"type":"Feature","geometry":{"type":"Point","coordinates":[4.8419229,45.7520069]},"properties":{"category":"shop","name":"Atelier cycle Lyon 3","opening_hours":"Mo-Sa 09:30-19:00","website":"https://ateliercyclelyon3.com/","osm_id":3044384212}},{"type":"Feature","geometry":{"type":"Point","coordinates":[4.8433812,45.7698667]},"properties":{"category":"shop","name":"Cyclable Foch","opening_hours":"Tu-Sa 10:00-13:00,14:00-19:00","phone":"+33981254647","website":"https://lyon6.cyclable.com/","osm_id":3423629362}},{"type":"Feature","geometry":{"type":"Point","coordinates":[4.8041416,45.7129375]},"properties":{"category":"shop","name":"Cycles Blain","opening_hours":"Tu-Sa 10:00-13:00,14:00-19:00","phone":"+33 4 69 84 68 64","website":"https://www.cycles-blain.com/pages/29/magasin-oullins","osm_id":3727166172}},{"type":"Feature","geometry":{"type":"Point","coordinates":[4.8412542,45.7601097]},"properties":{"category":"shop","name":"Giant","opening_hours":"Tu-Sa 10:00-13:00,14:00-19:00","phone":"+33 4 72756748","website":"https://www.giant-lyon-centre.fr","osm_id":3773002599}},{"type":"Feature","geometry":{"type":"Point","coordinates":[4.8986652,45.7583325]},"properties":{"category":"shop","name":"BikeCityZen","opening_hours":"Mo 17:00-19:00; Tu-Fr 08:00-10:00,17:00-19:00; Sa 10:00-16:00; Su \"on appointment\"","phone":"+33 6 58 73 39 42","website":"https://www.bikecityzen.com/","osm_id":3803555106}},{"type":"Feature","geometry":{"type":"Point","coordinates":[4.823629,45.7041024]},"properties":{"category":"shop","name":"Atelier Tricycle","phone":"+33753872549","website":"https://www.facebook.com/pg/Atelier-V%C3%A9lo-de-Pierre-B%C3%A9nite-274922476018176/","osm_id":3872574866}},{"type":"Feature","geometry":{"type":"Point","coordinates":[4.8450618,45.7641975]},"properties":{"category":"shop","name":"Altermove","opening_hours":"Tu-Sa 10:00-12:45,14:00-19:00","phone":"+33 4 82 53 96 69","website":"https://www.altermove.com/","osm_id":4421295211}},{"type":"Feature","geometry":{"type":"Point","coordinates":[4.8453529,45.7503937]},"properties":{"category":"shop","name":"Peugeot Cycles","opening_hours":"Tu-Fr 09:00-13:00,14:00-19:30; Sa 10:00-18:00","phone":"+33 9 50 20 29 77","website":"https://cycles.peugeot.fr","osm_id":4460871000}},{"type":"Feature","geometry":{"type":"Point","coordinates":[4.8837962,45.7741071]},"properties":{"category":"shop","name":"CycloCiel","opening_hours":"\"sur rendez-vous uniquement\"","phone":"+33 4 78545144","website":"https://www.cyclociel.com/","osm_id":4486040154}},{"type":"Feature","geometry":{"type":"Point","coordinates":[4.8462221,45.7453641]},"properties":{"category":"shop","name":"Cycle Service","opening_hours":"Mo-Th 10:00-13:00,15:00-19:00; Fr 10:00-13:00,15:00-18:00","phone":"+33 4 81 06 02 60","website":"https://www.cycleservice.fr/","osm_id":4495124290}},{"type":"Feature","geometry":{"type":"Point","coordinates":[4.8451066,45.7639653]},"properties":{"category":"shop","name":"ECOX LYON","opening_hours":"Tu-Sa 09:30-13:00, Tu-Fr 14:00-19:00, Sa 14:00-18:00","website":"https://www.ecox.fr/nos-magasins/ecox-lyon","osm_id":4701799607}},{"type":"Feature","geometry":{"type":"Point","coordinates":[4.8056633,45.781507]},"properties":{"category":"shop","name":"Atelier Vélo Change de Chaîne","opening_hours":"Tu-Fr 16:00-19:00; Sa 14:00-19:00","osm_id":4734545682}},{"type":"Feature","geometry":{"type":"Point","coordinates":[4.833203,45.7769695]},"properties":{"category":"shop","name":"Cyclable Croix-Rousse","opening_hours":"Tu-Sa 10:00-13:00,15:00-19:00","phone":"+33 9 81 29 44 18","website":"https://lyon4.cyclable.com/","osm_id":4885280655}},{"type":"Feature","geometry":{"type":"Point","coordinates":[4.8086086,45.7742475]},"properties":{"category":"shop","name":"Méca Vélo","opening_hours":"Tu-Fr 09:00-13:00,14:00-18:30; Sa 10:00-12:00,14:00-17:00","phone":"+33 4 78 34 77 21","website":"https://www.facebook.com/mecavelolyon/","osm_id":4885308384}},{"type":"Feature","geometry":{"type":"Point","coordinates":[4.8262644,45.7673577]},"properties":{"category":"shop","name":"Véran des Chemins","opening_hours":"Tu-Fr 09:00-12:00; Tu,We,Fr 14:00-19:00; Th 15:00-19:00; Sa 10:00-12:00,14:00-18:00","phone":"+33 4 78 27 22 41","website":"https://www.cyclesveran.fr/","osm_id":4894369158}},{"type":"Feature","geometry":{"type":"Point","coordinates":[4.8425985,45.7565659]},"properties":{"category":"shop","name":"Moustache Store by Vélonaute","opening_hours":"Tu-Sa 09:30-13:00,14:30-18:30","website":"https://www.velonaute.com/content/9-magasin-velos-moustache-lyon","osm_id":4909474087}},{"type":"Feature","geometry":{"type":"Point","coordinates":[4.8105437,45.75642]},"properties":{"category":"shop","name":"Cycles Millot","phone":"+33 7 81 80 71 69","osm_id":4927120134}},{"type":"Feature","geometry":{"type":"Point","coordinates":[4.8309763,45.7670156]},"properties":{"category":"shop","name":"Grimpeurs Cyclist House","opening_hours":"Mo-Sa 07:30-19:30; Su 08:00-15:00","website":"https://www.grimpeurs.cc/","osm_id":5607956122}},{"type":"Feature","geometry":{"type":"Point","coordinates":[4.8437804,45.764745]},"properties":{"category":"shop","name":"Etablicyclette","opening_hours":"Tu-We, Fr 11:00-19:00; Sa 10:30-19:00; Mo, Th 14:00-19:00","osm_id":5924443771}},{"type":"Feature","geometry":{"type":"Point","coordinates":[4.8188667,45.7170744]},"properties":{"category":"shop","name":"Janus France","opening_hours":"Tu,Th 14:00-19:00; We 14:00-17:30; Sa 10:00-13:00,14:00-16:30","phone":"+33 783 696 475","website":"https://www.janusfrance-asso.org/","osm_id":6087264585}},{"type":"Feature","geometry":{"type":"Point","coordinates":[4.8808187,45.7162514]},"properties":{"category":"shop","name":"Janus France","opening_hours":"Mo-Fr 14:00-18:00","phone":"+33 783 696 475","website":"https://www.janusfrance-asso.org/","osm_id":6100841869}},{"type":"Feature","geometry":{"type":"Point","coordinates":[4.842029,45.7807604]},"properties":{"category":"shop","name":"Planète Vélo","website":"https://www.planetevelo-lyon.com/","osm_id":6203196901}},{"type":"Feature","geometry":{"type":"Point","coordinates":[4.8152245,45.7354325]},"properties":{"category":"shop","name":"Ambassade Probikeshop","opening_hours":"Tu-Fr 10:30-20:00; Sa 09:30-20:00","phone":"+33 9 72 17 11 00","website":"https://www.probikeshop.fr","osm_id":6567757815}},{"type":"Feature","geometry":{"type":"Point","coordinates":[4.8289429,45.7685635]},"properties":{"category":"shop","name":"Baroudeur Cycles - L'Atelier","opening_hours":"Mo off; Tu-Fr 09:00-12:00,14:00-19:00; Sa 09:00-12:00,14:00-18:00; Su off","phone":"+33 9 83 78 48 79","osm_id":6601887936}},{"type":"Feature","geometry":{"type":"Point","coordinates":[4.8543212,45.7297446]},"properties":{"category":"repair","osm_id":6665507868}},{"type":"Feature","geometry":{"type":"Point","coordinates":[4.8852826,45.7544524]},"properties":{"category":"repair","osm_id":6665539055}},{"type":"Feature","geometry":{"type":"Point","coordinates":[4.8423236,45.74654]},"properties":{"category":"repair","osm_id":6669345108}},{"type":"Feature","geometry":{"type":"Point","coordinates":[4.8873758,45.7307681]},"properties":{"category":"repair","opening_hours":"24/7","osm_id":6673611285}},{"type":"Feature","geometry":{"type":"Point","coordinates":[4.8715153,45.7453366]},"properties":{"category":"repair","osm_id":6673611287}},{"type":"Feature","geometry":{"type":"Point","coordinates":[4.8594646,45.739997]},"properties":{"category":"compressed_air","opening_hours":"24/7","osm_id":6697575952}},{"type":"Feature","geometry":{"type":"Point","coordinates":[4.8801169,45.7668531]},"properties":{"category":"repair","opening_hours":"24/7","osm_id":6698463989}},{"type":"Feature","geometry":{"type":"Point","coordinates":[4.8326563,45.7637332]},"properties":{"category":"shop","name":"Véloterie Fondation AJD","opening_hours":"Tu-Th 12:00-14:00, 19:00-22:00; Fr 12:00-14:00, 19:00-22:30; Sa 12:00-15:00, 19:00-23:00","phone":"+33 4 37 65 30 12","website":"https://www.fondation-ajd.com/categorie-produit/veloterie/","osm_id":6724096285}},{"type":"Feature","geometry":{"type":"Point","coordinates":[4.8926525,45.7007902]},"properties":{"category":"shop","name":"Janus France","opening_hours":"We 10:00-13:00,14:00-17:00; Th 14:00-19:00; Fr 12:30-16:00; Sa 10:00-13:00,14:00-16:00","phone":"+33 783 696 475","website":"https://www.janusfrance-asso.org/","osm_id":6817293134}},{"type":"Feature","geometry":{"type":"Point","coordinates":[4.8288278,45.7576089]},"properties":{"category":"shop","name":"Cyclable","opening_hours":"Tu-Sa 10:00-13:00,14:00-19:00","phone":"+33478920920","website":"https://lyon-bellecour.cyclable.com","osm_id":7367481922}},{"type":"Feature","geometry":{"type":"Point","coordinates":[4.894,45.738]},"properties":{"category":"compressed_air","osm_id":7504154439,"has_compressed_air":true}},{"type":"Feature","geometry":{"type":"Point","coordinates":[4.8264445,45.7545227]},"properties":{"category":"shop","name":"Cycles Marchi L'Atelier","opening_hours":"Tu,We,Fr 10:00-12:00,14:00-18:00; Th,Sa 10:00-12:00","osm_id":7560052757}},{"type":"Feature","geometry":{"type":"Point","coordinates":[4.8187872,45.7419643]},"properties":{"category":"shop","name":"Le Comptoir du Cycle","opening_hours":"Tu-Sa 10:00-18:00","phone":"+33 4 78 85 26 70","website":"https://www.lecomptoirducycle.cc/","osm_id":7638495450}},{"type":"Feature","geometry":{"type":"Point","coordinates":[4.8412356,45.7603563]},"properties":{"category":"shop","name":"Giant","opening_hours":"Mo-Sa 10:00-13:00, Tu-Fr 14:00-19:00, Sa 14:00-18:00","phone":"+33451088998","website":"https://www.giant-lyon-centre.fr","osm_id":7858968463}},{"type":"Feature","geometry":{"type":"Point","coordinates":[4.8423597,45.7634992]},"properties":{"category":"shop","name":"Repair and run","opening_hours":"Tu-Fr 10:00-14:00,15:00-19:00","website":"https://www.repairandrun.com/","osm_id":7869414747}},{"type":"Feature","geometry":{"type":"Point","coordinates":[4.8056214,45.7673293]},"properties":{"category":"repair","opening_hours":"24/7","osm_id":7962604428}},{"type":"Feature","geometry":{"type":"Point","coordinates":[4.8266361,45.7672765]},"properties":{"category":"shop","name":"Véran des Routes","opening_hours":"Tu,We,Fr 09:00-12:00,14:00-19:00; Th 09:00-12:00,15:00-19:00; Sa 10:00-12:00,14:00-18:00","phone":"+33 4 78 27 22 41","website":"https://www.cyclesveran.fr/","osm_id":8118989990}},{"type":"Feature","geometry":{"type":"Point","coordinates":[4.8711073,45.7636366]},"properties":{"category":"shop","name":"Écomobilité","osm_id":8148393233}},{"type":"Feature","geometry":{"type":"Point","coordinates":[4.821308,45.7735172]},"properties":{"category":"repair","opening_hours":"24/7","osm_id":8288073880}},{"type":"Feature","geometry":{"type":"Point","coordinates":[4.8453647,45.7606659]},"properties":{"category":"shop","name":"Uniques","opening_hours":"Tu-Sa 10:00-12:30,14:00-19:00","osm_id":8342546317}},{"type":"Feature","geometry":{"type":"Point","coordinates":[4.8450661,45.764124]},"properties":{"category":"shop","name":"Repair and Run","opening_hours":"Mo-Th 09:00-19:00; Fr,Sa 10:00-13:00,14:00-19:00","phone":"+33978802734","website":"https://www.repairandrun.com/boutiques-ateliers/boutique-lyon-saxe","osm_id":8342654617}},{"type":"Feature","geometry":{"type":"Point","coordinates":[4.8277835,45.7742066]},"properties":{"category":"repair","osm_id":8707528552}},{"type":"Feature","geometry":{"type":"Point","coordinates":[4.8351089,45.7690942]},"properties":{"category":"shop","name":"Virvolt","opening_hours":"Tu 14:00-19:00; We-Fr 10:00-13:00,14:00-19:00; Sa 10:00-13:00,14:00-17:00","website":"https://virvolt.fr/electrification/","osm_id":8753903329}},{"type":"Feature","geometry":{"type":"Point","coordinates":[4.8525144,45.7972537]},"properties":{"category":"compressed_air","osm_id":9382711786}},{"type":"Feature","geometry":{"type":"Point","coordinates":[4.8769195,45.7628357]},"properties":{"category":"compressed_air","osm_id":9383416250}},{"type":"Feature","geometry":{"type":"Point","coordinates":[4.8104402,45.7820902]},"properties":{"category":"repair","opening_hours":"24/7","osm_id":9399152966}},{"type":"Feature","geometry":{"type":"Point","coordinates":[4.8310818,45.7273864]},"properties":{"category":"compressed_air","osm_id":9498965410}},{"type":"Feature","geometry":{"type":"Point","coordinates":[4.8523545,45.7578205]},"properties":{"category":"shop","name":"Dring","opening_hours":"Tu-Sa 09:00-19:00","phone":"+33 4 78 68 83 38","osm_id":9552366017}},{"type":"Feature","geometry":{"type":"Point","coordinates":[4.8522587,45.7999425]},"properties":{"category":"repair","opening_hours":"24/7","osm_id":9674959371}},{"type":"Feature","geometry":{"type":"Point","coordinates":[4.8397282,45.7352257]},"properties":{"category":"shop","name":"Prestacycles","phone":"+33 6 66 17 69 24","website":"https://prestacycles.com/","osm_id":9724602291}},{"type":"Feature","geometry":{"type":"Point","coordinates":[4.8330072,45.7569403]},"properties":{"category":"shop","name":"Fix&Move","opening_hours":"Mo-Fr 10:00-13:00,14:00-18:00; Sa,Su 10:00-18:00","phone":"+33 7 82 88 01 61","website":"https://fixandmove.fr/","osm_id":9935286308}},{"type":"Feature","geometry":{"type":"Point","coordinates":[4.8048449,45.7750328]},"properties":{"category":"repair","opening_hours":"Mo-Sa 08:30-21:30; Su 09:00-13:00","osm_id":9993300472}},{"type":"Feature","geometry":{"type":"Point","coordinates":[4.8409227,45.7574517]},"properties":{"category":"shop","name":"Holland Bikes","opening_hours":"Tu-Fr 10:00-14:00,15:00-19:00; Sa 10:00-19:00","phone":"+33 4 72 04 22 49","website":"https://www.hollandbikes.com/content/80-magasin-de-velo-a-lyon","osm_id":10008282346}},{"type":"Feature","geometry":{"type":"Point","coordinates":[4.8450789,45.7595083]},"properties":{"category":"shop","name":"Les ateliers de l'audace","opening_hours":"Mo-Sa 10:00-14:00,15:00-19:00","phone":"+33624888353","website":"https://www.ateliersdelaudace.fr/","osm_id":10044356583}},{"type":"Feature","geometry":{"type":"Point","coordinates":[4.86761,45.7566388]},"properties":{"category":"shop","name":"Velograma","opening_hours":"We-Fr 10:00-13:00, 14:00-19:00; Sa 10:00-13:00, 14:00-16:00","phone":"+33 6 10 20 87 44","website":"https://sites.google.com/velograma.com/velograma-home/accueil","osm_id":10075809319}},{"type":"Feature","geometry":{"type":"Point","coordinates":[4.8645127,45.7636179]},"properties":{"category":"shop","name":"Cycletic Café-Vélo","opening_hours":"Mo 10:00-19:00; Tu-Fr 08:30-19:00; Sa 09:00-12:30,15:00-19:00","phone":"+33 7 71 26 57 80","website":"https://www.cycletic.fr/","osm_id":10162301442}},{"type":"Feature","geometry":{"type":"Point","coordinates":[4.8293247,45.768787]},"properties":{"category":"shop","name":"Baroudeur Cycles - Le Magasin","opening_hours":"Tu-Fr 09:00-12:00,14:00-19:00; Sa 09:00-12:00,14:00-18:00; Mo off; Su off","phone":"+33 9 83 78 48 79","osm_id":10199566176}},{"type":"Feature","geometry":{"type":"Point","coordinates":[4.8043118,45.7130259]},"properties":{"category":"shop","name":"Cycles Blain","opening_hours":"Tu-Fr 10:00-13:00,14:00-19:00; Sa 10:00-13:00,14:00-18:00","phone":"+33 4 69 84 68 64","osm_id":10712477394}},{"type":"Feature","geometry":{"type":"Point","coordinates":[4.8986634,45.7484909]},"properties":{"category":"repair","osm_id":10729692753}},{"type":"Feature","geometry":{"type":"Point","coordinates":[4.8921471,45.753483]},"properties":{"category":"shop","name":"Montcycle","opening_hours":"Tu-Fr 09:00-13:00,14:30-18:30; Sa 10:00-17:00; Su off","phone":"+33 4 72 34 53 08","website":"https://www.montcycle.fr/","osm_id":11002893295}},{"type":"Feature","geometry":{"type":"Point","coordinates":[4.8341055,45.7825435]},"properties":{"category":"shop","name":"Ecox","opening_hours":"Tu-Sa 10:00-13:00,14:00-19:00","phone":"+339 81 07 09 81","website":"https://www.ecox.fr/nos-magasins/caluire","osm_id":11029852888}},{"type":"Feature","geometry":{"type":"Point","coordinates":[4.851606,45.7977108]},"properties":{"category":"compressed_air","osm_id":11088652171}},{"type":"Feature","geometry":{"type":"Point","coordinates":[4.8413299,45.7642268]},"properties":{"category":"shop","name":"Velcroc","opening_hours":"Tu-Fr 09:30-18:30; Sa 10:00-14:00, 15:00-19:00","phone":"+33 7 77 17 16 12","website":"https://velcroc.com/","osm_id":11331989452}},{"type":"Feature","geometry":{"type":"Point","coordinates":[4.876826,45.7239895]},"properties":{"category":"shop","name":"La 8ème roue","opening_hours":"Mo 13:30-17:00; Fr 08:00-12:30","website":"https://www.sp-actions.fr/r%C3%A9parationv%C3%A9lo","osm_id":11442946672}},{"type":"Feature","geometry":{"type":"Point","coordinates":[4.8310816,45.7983441]},"properties":{"category":"shop","name":"L'Atelier Vélo","opening_hours":"\"Sur rendez-vous\"","osm_id":11584541440}},{"type":"Feature","geometry":{"type":"Point","coordinates":[4.8624638,45.7372678]},"properties":{"category":"shop","name":"8 ô vélo","opening_hours":"Tu-We 14:00-19:00; Fr 14:00-16:00; Sa 10:00-13:00,14:00-19:00","website":"https://www.janus-france.org","osm_id":11697625670}},{"type":"Feature","geometry":{"type":"Point","coordinates":[4.8409512,45.7566729]},"properties":{"category":"shop","name":"Holland Bikes","opening_hours":"We-Su 09:00-17:00","phone":"+33 7 68 75 10 94","website":"https://locations.hollandbikes.com/location-velo-lyon/","osm_id":11837516573}},{"type":"Feature","geometry":{"type":"Point","coordinates":[4.8720235,45.7377581]},"properties":{"category":"shop","name":"Epsilon Bikes","opening_hours":"Mo-We,Fr 10:00-12:30,14:00-19:00; Th 14:00-19:00; Sa 10:00-12:30,14:00-18:00","phone":"+33627641839","website":"https://www.epsilon-bikes.com/","osm_id":11918109027}},{"type":"Feature","geometry":{"type":"Point","coordinates":[4.86012,45.7472607]},"properties":{"category":"repair","osm_id":12020361475}},{"type":"Feature","geometry":{"type":"Point","coordinates":[4.8167234,45.7565264]},"properties":{"category":"shop","name":"Bicycl'haize","osm_id":12036248727}},{"type":"Feature","geometry":{"type":"Point","coordinates":[4.8138572,45.7169608]},"properties":{"category":"repair","osm_id":12122337298}},{"type":"Feature","geometry":{"type":"Point","coordinates":[4.8431031,45.7070861]},"properties":{"category":"compressed_air","osm_id":12153663109}},{"type":"Feature","geometry":{"type":"Point","coordinates":[4.8169892,45.7561286]},"properties":{"category":"shop","name":"VéloTech Lyon Ouest","opening_hours":"Tu-Sa 10:00-12:00,14:00-18:00","phone":"+33951144618","website":"https://velotechlyon.fr/","osm_id":12197274667}},{"type":"Feature","geometry":{"type":"Point","coordinates":[4.874188,45.7730388]},"properties":{"category":"compressed_air","opening_hours":"24/7","osm_id":12281797585}},{"type":"Feature","geometry":{"type":"Point","coordinates":[4.8682792,45.7299917]},"properties":{"category":"compressed_air","opening_hours":"24/7","osm_id":12281797586}},{"type":"Feature","geometry":{"type":"Point","coordinates":[4.8547762,45.7573152]},"properties":{"category":"compressed_air","opening_hours":"24/7","osm_id":12281797587}},{"type":"Feature","geometry":{"type":"Point","coordinates":[4.8630913,45.7393873]},"properties":{"category":"compressed_air","opening_hours":"24/7","osm_id":12281797588}},{"type":"Feature","geometry":{"type":"Point","coordinates":[4.8529697,45.7353644]},"properties":{"category":"compressed_air","opening_hours":"24/7","osm_id":12281797589}},{"type":"Feature","geometry":{"type":"Point","coordinates":[4.8739098,45.7633805]},"properties":{"category":"compressed_air","opening_hours":"24/7","osm_id":12289757770}},{"type":"Feature","geometry":{"type":"Point","coordinates":[4.8875383,45.7506713]},"properties":{"category":"compressed_air","opening_hours":"24/7","osm_id":12351371778}},{"type":"Feature","geometry":{"type":"Point","coordinates":[4.8649682,45.7381615]},"properties":{"category":"compressed_air","opening_hours":"24/7","osm_id":12361990443}},{"type":"Feature","geometry":{"type":"Point","coordinates":[4.8738456,45.76709]},"properties":{"category":"compressed_air","opening_hours":"24/7","osm_id":12384537536}},{"type":"Feature","geometry":{"type":"Point","coordinates":[4.8825802,45.7323824]},"properties":{"category":"compressed_air","opening_hours":"24/7","osm_id":12389674396}},{"type":"Feature","geometry":{"type":"Point","coordinates":[4.8043648,45.753379]},"properties":{"category":"compressed_air","opening_hours":"24/7","osm_id":12417551796}},{"type":"Feature","geometry":{"type":"Point","coordinates":[4.8424789,45.7359184]},"properties":{"category":"shop","name":"Bric à Bike","opening_hours":"Tu 14:00-17:30; We-Fr 10:00-13:00,14:00-17:30","phone":"+33 4 72 76 33 12","website":"https://www.fndsa.org/bric-a-brac/atelier-v%C3%A9lo.html","osm_id":12688185166}},{"type":"Feature","geometry":{"type":"Point","coordinates":[4.8053785,45.7385744]},"properties":{"category":"repair","name":"L’Étape Atelier Vélo","opening_hours":"Mo,Fr 08:30-12:00,14:30-18:00; Tu-Th 08:30-12:00,14:30-19:00","website":"https://letape-atelier.com/","osm_id":12819545774}},{"type":"Feature","geometry":{"type":"Point","coordinates":[4.8918772,45.7690591]},"properties":{"category":"shop","name":"Doctibike","phone":"+33 9 67 04 31 33","website":"https://doctibike.com/","osm_id":12829907911}},{"type":"Feature","geometry":{"type":"Point","coordinates":[4.8300114,45.7325874]},"properties":{"category":"shop","name":"L'Atelier du Chat Perché","opening_hours":"Tu 15:00-19:00; We 16:00-20:00; Fr 15:00-19:00; Sa 15:00-19:00","website":"https://www.chatperche.org/","osm_id":12844545063}},{"type":"Feature","geometry":{"type":"Point","coordinates":[4.8594886,45.7399721]},"properties":{"category":"repair","opening_hours":"24/7","osm_id":13004471823}},{"type":"Feature","geometry":{"type":"Point","coordinates":[4.8221523,45.7495908]},"properties":{"category":"repair","name":"Une Roue et Demi","opening_hours":"Mo 15:00-19:00; Tu-Fr 10:00-13:00, 15:00-19:00","osm_id":13081506702}},{"type":"Feature","geometry":{"type":"Point","coordinates":[4.8266242,45.7543775]},"properties":{"category":"shop","name":"Le Petit Porteur","phone":"+33 6 50 51 94 89","website":"https://www.lepetitporteur.com/","osm_id":13179108693}},{"type":"Feature","geometry":{"type":"Point","coordinates":[4.8585354,45.7603877]},"properties":{"category":"repair","osm_id":13190793436}},{"type":"Feature","geometry":{"type":"Point","coordinates":[4.8611848,45.7600189]},"properties":{"category":"repair","osm_id":13190883063}},{"type":"Feature","geometry":{"type":"Point","coordinates":[4.861159,45.7594041]},"properties":{"category":"repair","osm_id":13190883065}},{"type":"Feature","geometry":{"type":"Point","coordinates":[4.8613105,45.7610139]},"properties":{"category":"repair","osm_id":13190934768}},{"type":"Feature","geometry":{"type":"Point","coordinates":[4.8507499,45.7529638]},"properties":{"category":"shop","name":"Tournée Cycles (sur rendez-vous)","opening_hours":"Mo-Fr 09:00-19:00","phone":"+33 6 75 60 96 03","osm_id":13232506691}},{"type":"Feature","geometry":{"type":"Point","coordinates":[4.8598351,45.7776806]},"properties":{"category":"compressed_air","osm_id":13375262702}},{"type":"Feature","geometry":{"type":"Point","coordinates":[4.8440905,45.7513239]},"properties":{"category":"compressed_air","opening_hours":"24/7","osm_id":13479366063}},{"type":"Feature","geometry":{"type":"Point","coordinates":[4.857903,45.748849]},"properties":{"category":"compressed_air","opening_hours":"24/7","osm_id":13637872633}},{"type":"Feature","geometry":{"type":"Point","coordinates":[4.8692727,45.7710736]},"properties":{"category":"repair","osm_id":13641357242}},{"type":"Feature","geometry":{"type":"Point","coordinates":[4.85374,45.7500256]},"properties":{"category":"shop","name":"Lyon à bicyclette","osm_id":13770986797}},{"type":"Feature","geometry":{"type":"Point","coordinates":[4.8685626,45.7514107]},"properties":{"category":"repair","name":"Pompe à velo","osm_id":13844356637}},{"type":"Feature","geometry":{"type":"Point","coordinates":[4.852842,45.7546211]},"properties":{"category":"compressed_air","osm_id":13915708237}},{"type":"Feature","geometry":{"type":"Point","coordinates":[4.8463957,45.7558031]},"properties":{"category":"shop","name":"Ovelo","website":"https://www.ovelo.fr/","osm_id":14017808870}}]}