{"type":"FeatureCollection","features":[{"type":"Feature","geometry":{"type":"Point","coordinates":[3.0811589,45.7729522]},"properties":{"category":"shop","name":"Bouticycle","opening_hours":"Tu,We 10:00-13:00,14:00-19:00; Th 14:00-19:00; Fr,Sa 10:00-13:00,14:00-19:00","phone":"+33 4 73 43 84 52","website":"https://bouticycle.com/-Clermont-Ferrand-","osm_id":2314250160}},{"type":"Feature","geometry":{"type":"Point","coordinates":[3.0991032,45.778098]},"properties":{"category":"shop","name":"Agence C.Vélo","opening_hours":"Mo-Fr 07:30-12:00,14:30-18:00; Sa 10:00-13:00,14:00-18:00","phone":"+33 4 73 92 65 08","osm_id":2885525713}},{"type":"Feature","geometry":{"type":"Point","coordinates":[3.0860934,45.7643433]},"properties":{"category":"shop","name":"Vélo-Boulot-Dodo","opening_hours":"Fr 16:00-19:00","website":"https://www.velocite63.fr","osm_id":4743048621}},{"type":"Feature","geometry":{"type":"Point","coordinates":[3.0864964,45.7709398]},"properties":{"category":"shop","name":"Cyclable","opening_hours":"Tu-Sa 10:00-13:00,14:00-19:00","phone":"+33 9 83 33 55 70","website":"https://clermont-ferrand.cyclable.com/","osm_id":4940602318}},{"type":"Feature","geometry":{"type":"Point","coordinates":[3.0889745,45.7829823]},"properties":{"category":"compressed_air","osm_id":6822978399}},{"type":"Feature","geometry":{"type":"Point","coordinates":[3.0863349,45.7768929]},"properties":{"category":"shop","name":"Tempo - le repaire cycliste","opening_hours":"Tu,We,Fr 11:00-19:00; Th 14:00-19:00; Sa 10:00-19:00","phone":"+33 9 82 53 71 75","website":"https://www.tempoclermont.bike/","osm_id":7137043132}},{"type":"Feature","geometry":{"type":"Point","coordinates":[3.0811211,45.7677012]},"properties":{"category":"shop","name":"Vélocaz","phone":"+33 6 50 08 17 83","website":"https://www.facebook.com/velocaz/","osm_id":8948632928}},{"type":"Feature","geometry":{"type":"Point","coordinates":[3.078656,45.7688288]},"properties":{"category":"shop","name":"La Roue Tourne","opening_hours":"We,Sa 14:00-18:00; Th,Fr 16:00-20:00; Mo 09:30-12:30","osm_id":9160795941}},{"type":"Feature","geometry":{"type":"Point","coordinates":[3.08481,45.7793413]},"properties":{"category":"shop","name":"Takamaka","osm_id":9161345912}},{"type":"Feature","geometry":{"type":"Point","coordinates":[3.0146388,45.7681784]},"properties":{"category":"shop","name":"Les Bicyclettes du Grenier","website":"https://www.lesbicyclettesdugrenier.com/","osm_id":9954114315}},{"type":"Feature","geometry":{"type":"Point","coordinates":[3.0915172,45.7853087]},"properties":{"category":"repair","osm_id":10056585339}},{"type":"Feature","geometry":{"type":"Point","coordinates":[3.0903121,45.7841647]},"properties":{"category":"repair","osm_id":10689175135}},{"type":"Feature","geometry":{"type":"Point","coordinates":[3.0903106,45.7843845]},"properties":{"category":"compressed_air","osm_id":10784674292}},{"type":"Feature","geometry":{"type":"Point","coordinates":[3.0891094,45.7810918]},"properties":{"category":"shop","name":"Cartel Cycles Café","opening_hours":"Tu-Sa 09:00-19:00","website":"https://www.victoire-cycles.com/","osm_id":11118808339}},{"type":"Feature","geometry":{"type":"Point","coordinates":[3.0754739,45.7825954]},"properties":{"category":"compressed_air","osm_id":11252711534}},{"type":"Feature","geometry":{"type":"Point","coordinates":[3.0947788,45.7466781]},"properties":{"category":"shop","name":"Au Vieux Biclou","website":"https://www.auvieuxbiclou.fr/","osm_id":13140578104}},{"type":"Feature","geometry":{"type":"Point","coordinates":[3.0959948,45.7821002]},"properties":{"category":"shop","name":"Cyclo&Co","phone":"+33 6 66 48 27 97","website":"https://cycloetco.fr","osm_id":13703316060}}]}