{"type":"FeatureCollection","features":[{"type":"Feature","geometry":{"type":"Point","coordinates":[3.3330931,45.723786]},"properties":{"category":"bakery","name":"Maison Charlat","opening_hours":"Jan-Dec: Mo-Fr 06:00-13:00; Jan-Dec: Mo-Th 15:00-19:00; Jan-Dec: Fr 14:00-19:00; Sa 06:00-19:30","phone":"+33473733921","osm_id":3337977425}},{"type":"Feature","geometry":{"type":"Point","coordinates":[3.3502248,45.7804345]},"properties":{"category":"bakery","name":"Le Fournil Fermier","opening_hours":"Mo 16:00-19:00; Fr 10:00-19:00; Sa 09:00-12:00","phone":"+33 7 68 05 57 50","website":"https://www.lefournilfermier.com","osm_id":10870091755}},{"type":"Feature","geometry":{"type":"Point","coordinates":[3.3399575,45.723164]},"properties":{"category":"bakery","name":"Au Pain Bougnat","opening_hours":"Mo-Fr 07:00-13:00,15:00-19:00; Sa 07:00-13:00","osm_id":11387530027}},{"type":"Feature","geometry":{"type":"Point","coordinates":[3.3954879,45.7792374]},"properties":{"category":"bakery","name":"La boulange d'Antan","opening_hours":"Tu-Fr 06:15-12:45,16:00-19:30; Sa 06:30-12:30","phone":"+33 4 73 68 50 18","osm_id":13084229153}},{"type":"Feature","geometry":{"type":"Point","coordinates":[3.337359,45.7241982]},"properties":{"category":"bakery","name":"Boulangerie Patisserie Chocolatier","opening_hours":"Mo,Th-Fr 07:00-13:00,15:30-19:00; Sa 07:00-13:00,15:00-19:00; Su 07:00-13:00","osm_id":13909440721}},{"type":"Feature","geometry":{"type":"Point","coordinates":[3.3373589,45.7241981]},"properties":{"category":"bakery","name":"Boulangerie Patisserie Chocolatier","opening_hours":"Mo,Th-Fr 07:00-13:00,15:30-19:00; Sa 07:00-13:00,15:00-19:00; Su 07:00-13:00","osm_id":13931003881}},{"type":"Feature","geometry":{"type":"Point","coordinates":[3.3373589,45.7241981]},"properties":{"category":"bakery","name":"Boulangerie Patisserie Chocolatier","opening_hours":"Mo,Th-Fr 07:00-13:00,15:30-19:00; Sa 07:00-13:00,15:00-19:00; Su 07:00-13:00","osm_id":13978030649}}]}