{"type":"FeatureCollection","features":[{"type":"Feature","geometry":{"type":"Point","coordinates":[-0.9554555,45.7310078]},"properties":{"category":"bakery","name":"Maison mary","opening_hours":"Mo-Sa 06:30-20:00","website":"https://www.franceboulangerie.fr/boulangeries/maison-mary-le-gua","osm_id":2687361058}},{"type":"Feature","geometry":{"type":"Point","coordinates":[-0.9573254,45.7317366]},"properties":{"category":"bakery","name":"Boulangerie Ange","opening_hours":"Mo-Sa 06:30-20:00","phone":"+33 5 86 30 31 31","website":"https://www.boulangerie-ange.fr/stores/boulangerie-ange-le-gua/","osm_id":13241711389}}]}