{"type":"FeatureCollection","features":[{"type":"Feature","geometry":{"type":"Point","coordinates":[4.3956696,45.7162389]},"properties":{"category":"bakery","name":"La Miche Taravouérienne","phone":"+33474263292","osm_id":624016210}},{"type":"Feature","geometry":{"type":"Point","coordinates":[4.3385299,45.793005]},"properties":{"category":"bakery","osm_id":3655203531}},{"type":"Feature","geometry":{"type":"Point","coordinates":[4.3538323,45.7206547]},"properties":{"category":"bakery","name":"Le Goût de l'Authentique","phone":"+33477273852","osm_id":4455279987}},{"type":"Feature","geometry":{"type":"Point","coordinates":[4.3401413,45.7202871]},"properties":{"category":"bakery","osm_id":6758794450}}]}