{"type":"FeatureCollection","features":[{"type":"Feature","geometry":{"type":"Point","coordinates":[6.5752007,45.7180524]},"properties":{"category":"bakery","name":"Pouilloux","opening_hours":"Mo-Su 06:30-19:00","phone":"+33 4 79 38 70 19","osm_id":670863763}},{"type":"Feature","geometry":{"type":"Point","coordinates":[6.503516,45.7939783]},"properties":{"category":"bakery","name":"Au Sommet des Anges","opening_hours":"Mo-Su 07:00-12:30,15:30-19:00","phone":"+33479383762","website":"https://boulangerie-crest-voland.com","osm_id":3712606176}},{"type":"Feature","geometry":{"type":"Point","coordinates":[6.5856327,45.7507862]},"properties":{"category":"bakery","opening_hours":"Tu-Su 07:00-13:00; Mo 07:00-13:00, 16:00-19:00","osm_id":4045359991}},{"type":"Feature","geometry":{"type":"Point","coordinates":[6.5398666,45.7567619]},"properties":{"category":"bakery","name":"Le Fournil des Saisies","osm_id":5787647686}},{"type":"Feature","geometry":{"type":"Point","coordinates":[6.5393925,45.7569885]},"properties":{"category":"bakery","name":"Chocolatine","phone":"+33 4 79 38 90 89","website":"https://lachoco.fr/","osm_id":5787647691}},{"type":"Feature","geometry":{"type":"Point","coordinates":[6.5757519,45.7173015]},"properties":{"category":"bakery","name":"Les Croés","opening_hours":"Mo-Su 07:00-19:00","phone":"+33 4 79 89 43 73","osm_id":7825338272}}]}