{"type":"FeatureCollection","features":[{"type":"Feature","geometry":{"type":"Point","coordinates":[0.1344804,45.7980139]},"properties":{"category":"bakery","name":"Gourmandises de la Boixe","osm_id":1955225843}},{"type":"Feature","geometry":{"type":"Point","coordinates":[0.145776,45.7110136]},"properties":{"category":"bakery","name":"Le Moulin de Balzac","osm_id":2052546709}},{"type":"Feature","geometry":{"type":"Point","coordinates":[0.1232523,45.7832589]},"properties":{"category":"bakery","name":"Forget Tony","opening_hours":"Jan-Jun,Sep-Dec Mo-Sa 06:00-13:00,15:30-19:30; Jan-Jun,Sep-Dec Tu off; Jan-Jun,Sep-Dec Su 06:00-13:00; Mo-Sa 06:00-13:00,15:30-19:30; Su 06:00-13:00","phone":"+33 5 45 39 74 04","osm_id":8596174972}},{"type":"Feature","geometry":{"type":"Point","coordinates":[0.1816577,45.7035058]},"properties":{"category":"shop","name":"Bouticycle Christian Michelot","osm_id":9152362355}},{"type":"Feature","geometry":{"type":"Point","coordinates":[0.1229933,45.7623927]},"properties":{"category":"bakery","name":"Le Fournil d'Anaïs","opening_hours":"Tu-Sa 06:30-13:00, 16:00-19:00, Su 06:30-12:30","phone":"+33 5 45 39 73 15","website":"https://boulangerie-patisserie-vars.fr","osm_id":12084833294}}]}