{"type":"FeatureCollection","features":[{"type":"Feature","geometry":{"type":"Point","coordinates":[-0.6359691,45.7430583]},"properties":{"category":"bakery","name":"Le Petit Chat Gourmand","opening_hours":"Mo 07:00-13:00,16:00-19:00; We-Su 07:00-13:00,16:00-19:30","phone":"+33 5 46 74 05 78","osm_id":2334903139}},{"type":"Feature","geometry":{"type":"Point","coordinates":[-0.6237567,45.7455585]},"properties":{"category":"bakery","name":"Boulangerie Saint-Pallais","opening_hours":"Mo-Sa 07:00-19:30","phone":"+33 5 46 92 15 50","osm_id":2337079241}},{"type":"Feature","geometry":{"type":"Point","coordinates":[-0.6205137,45.7451975]},"properties":{"category":"bakery","name":"Boulangerie La Gourmandise","opening_hours":"Tu-Sa 06:45-13:00,15:30-19:45; Su 06:45-13:00","phone":"+33 5 46 92 00 50","osm_id":2337079249}},{"type":"Feature","geometry":{"type":"Point","coordinates":[-0.6248207,45.7455594]},"properties":{"category":"bakery","name":"boulangerie La Ronde des Pains","opening_hours":"Mo-Sa 06:30-13:30,15:30-20:00; Su 06:30-13:30","phone":"+33 5 46 92 13 63","osm_id":2337079264}},{"type":"Feature","geometry":{"type":"Point","coordinates":[-0.6734768,45.7471553]},"properties":{"category":"bakery","name":"Sésame","opening_hours":"Mo-Sa 07:00-19:00","osm_id":2696131014}},{"type":"Feature","geometry":{"type":"Point","coordinates":[-0.6428227,45.7436165]},"properties":{"category":"bakery","name":"Boulanger Laurent Pomet","opening_hours":"We-Mo 07:00-20:00","phone":"+33 5 46 93 00 69","osm_id":2701221343}},{"type":"Feature","geometry":{"type":"Point","coordinates":[-0.6436131,45.7329264]},"properties":{"category":"bakery","name":"Boulangerie de Bellevue","opening_hours":"Tu-Fr 07:00-19:00, Sa-Su 07:00-13:00","phone":"+33 5 16 86 96 15","osm_id":3783436333}},{"type":"Feature","geometry":{"type":"Point","coordinates":[-0.6147883,45.7466114]},"properties":{"category":"bakery","name":"La Cour du pain","opening_hours":"Mo-Fr 06:15-19:30; Sa 06:15-13:30","phone":"+33 5 46 93 04 69","osm_id":3787183645}},{"type":"Feature","geometry":{"type":"Point","coordinates":[-0.621652,45.7464247]},"properties":{"category":"bakery","name":"La Flûte Enchantée","opening_hours":"Mo,Tu,Th-Sa 06:30-20:00; Su 06:30-14:00,15:30-19:30","phone":"+33 5 46 93 04 69","osm_id":3787747967}},{"type":"Feature","geometry":{"type":"Point","coordinates":[-0.6259338,45.7468651]},"properties":{"category":"bakery","name":"Boulangerie Renaud","opening_hours":"Tu-Sa 06:30-19:15; Su 04:30-19:15","phone":"+33 5 46 93 07 31","osm_id":3787767071}},{"type":"Feature","geometry":{"type":"Point","coordinates":[-0.6318862,45.747205]},"properties":{"category":"bakery","name":"La Chocolataise","opening_hours":"We,Fr,Sa 09:30-12:30","osm_id":3789059226}},{"type":"Feature","geometry":{"type":"Point","coordinates":[-0.6564778,45.7541132]},"properties":{"category":"bakery","name":"La Boul’ange de Gaëtan","opening_hours":"Mo-Su 06:00-20:00","phone":"+33 5 46 92 01 85","website":"https://www.facebook.com/laboulangedegaetan","osm_id":3792672242}},{"type":"Feature","geometry":{"type":"Point","coordinates":[-0.6387298,45.7454386]},"properties":{"category":"bakery","name":"Boulangerie Au 38","opening_hours":"Mo-Su 07:00-19:30","osm_id":3792723793}},{"type":"Feature","geometry":{"type":"Point","coordinates":[-0.6334321,45.7465002]},"properties":{"category":"bakery","name":"Laurent Renard","opening_hours":"Mo-Sa 08:00-20:00","phone":"+33 5 46 93 08 62","osm_id":3794020709}},{"type":"Feature","geometry":{"type":"Point","coordinates":[-0.6368965,45.747683]},"properties":{"category":"bakery","name":"La Boulangerie Pasteur","osm_id":3798079146}},{"type":"Feature","geometry":{"type":"Point","coordinates":[-0.6337269,45.7469664]},"properties":{"category":"bakery","name":"Boulangerie du Palais","opening_hours":"Mo-Sa 07:00-19:00","phone":"+33 5 46 74 64 48","osm_id":5016864642}},{"type":"Feature","geometry":{"type":"Point","coordinates":[-0.6308749,45.7446804]},"properties":{"category":"bakery","name":"Boulangerie - l'Authentique","osm_id":6524594677}},{"type":"Feature","geometry":{"type":"Point","coordinates":[-0.6458168,45.749652]},"properties":{"category":"bakery","name":"Boulangerie l'Authentique","osm_id":6524671419}},{"type":"Feature","geometry":{"type":"Point","coordinates":[-0.6253142,45.742757]},"properties":{"category":"shop","name":"BV Cycles","osm_id":6589755703}},{"type":"Feature","geometry":{"type":"Point","coordinates":[-0.6362869,45.7905705]},"properties":{"category":"bakery","name":"Vival","opening_hours":"Mo-Sa 08:00-13:00","osm_id":7389686125}},{"type":"Feature","geometry":{"type":"Point","coordinates":[-0.6509552,45.7354662]},"properties":{"category":"bakery","name":"La Boul'ange des Boiffiers","opening_hours":"Mo-Tu 07:30-12:30 16:00-19:00; Tu-Su 07:30-12:30 16:00-19:00","phone":"+33 5 46 94 91 86","osm_id":7435776398}},{"type":"Feature","geometry":{"type":"Point","coordinates":[-0.6201259,45.7465433]},"properties":{"category":"bakery","name":"Au pâton d'or","opening_hours":"Tu-Sa 06:00-13:30, 15:30-19:30; Su 06:00-15:00","osm_id":7435778111}},{"type":"Feature","geometry":{"type":"Point","coordinates":[-0.6323728,45.7470485]},"properties":{"category":"bakery","name":"La Mie Câline","opening_hours":"Mo-Sa 07:30-20:00; Su 08:00-20:00","osm_id":7437713399}},{"type":"Feature","geometry":{"type":"Point","coordinates":[-0.6259395,45.7057311]},"properties":{"category":"bakery","name":"3+1 Boulangerie","opening_hours":"Mo-Su 06:30-19:30","osm_id":7655642086}},{"type":"Feature","geometry":{"type":"Point","coordinates":[-0.645839,45.7502555]},"properties":{"category":"bakery","name":"Boulangerie Feuillette","opening_hours":"Mo-Su 06:00-20:00","phone":"+33 5 46 94 63 33","website":"https://www.feuillette.fr/","osm_id":10799229106}},{"type":"Feature","geometry":{"type":"Point","coordinates":[-0.6188744,45.7158783]},"properties":{"category":"repair","osm_id":12257844888}}]}