{"type":"FeatureCollection","features":[{"type":"Feature","geometry":{"type":"Point","coordinates":[-0.4969118,45.763598]},"properties":{"category":"shop","name":"Louveloss","opening_hours":"Tu-Su 09:00-19:00","osm_id":7887486991}},{"type":"Feature","geometry":{"type":"Point","coordinates":[-0.4927519,45.7668006]},"properties":{"category":"bakery","name":"Pétrin de Seb & San","opening_hours":"Mo-Tu 07:00-13:00,16:00-19:00; Th-Sa 07:00-13:00,16:00-19:00; Su 07:00-13:00","phone":"+33 9 50 02 47 48","osm_id":8637626795}},{"type":"Feature","geometry":{"type":"Point","coordinates":[-0.4936614,45.7009956]},"properties":{"category":"bakery","opening_hours":"Mo, Tu, Th-Sa 07:00-13:00, 16:00-19:00; Su 07:00-13:00","osm_id":8852559608}},{"type":"Feature","geometry":{"type":"Point","coordinates":[-0.4216395,45.7731579]},"properties":{"category":"bakery","name":"Poiré Eddy","osm_id":11193579193}}]}