{"type":"FeatureCollection","features":[{"type":"Feature","geometry":{"type":"Point","coordinates":[4.900537,45.7055472]},"properties":{"category":"bakery","name":"L'épi de la Cité","opening_hours":"Mo-Fr 05:00-19:30, Sa 06:00-19:30, Su 07:00-14:00","osm_id":592350526}},{"type":"Feature","geometry":{"type":"Point","coordinates":[4.901188,45.7645857]},"properties":{"category":"bakery","name":"Maison Balbali","opening_hours":"Mo-Th 05:30-19:30, Fr,Sa 05:30-20:00","osm_id":1837447216}},{"type":"Feature","geometry":{"type":"Point","coordinates":[4.9964141,45.7669127]},"properties":{"category":"bakery","name":"La Panière","opening_hours":"Mo-Su 06:00-20:00","osm_id":1887917063}},{"type":"Feature","geometry":{"type":"Point","coordinates":[4.9976521,45.7323603]},"properties":{"category":"bakery","name":"Bio et Tradition","osm_id":2329245454}},{"type":"Feature","geometry":{"type":"Point","coordinates":[4.9003667,45.7660034]},"properties":{"category":"bakery","name":"Banette","opening_hours":"Mo-Fr 06:00-19:00; Sa 06:00-12:30","osm_id":2623015180}},{"type":"Feature","geometry":{"type":"Point","coordinates":[4.9625945,45.7631813]},"properties":{"category":"bakery","name":"Boulangerie Sensationnel","phone":"+33472021682","osm_id":2809760247}},{"type":"Feature","geometry":{"type":"Point","coordinates":[4.9188932,45.7774732]},"properties":{"category":"bakery","name":"Maison Millet","opening_hours":"Mo-Su 06:00-20:00","osm_id":2839052051}},{"type":"Feature","geometry":{"type":"Point","coordinates":[4.9744743,45.7721464]},"properties":{"category":"bakery","name":"Boulangerie Patisserie","opening_hours":"Mo-Sa 06:00-13:30,15:00-20:00; Sa 06:00-13:30","phone":"+33 4 78 49 27 69","osm_id":2922013190}},{"type":"Feature","geometry":{"type":"Point","coordinates":[4.924359,45.7862307]},"properties":{"category":"bakery","name":"Le Moulin à Pain","opening_hours":"Mo-Su 06:00-20:00","osm_id":3336754583}},{"type":"Feature","geometry":{"type":"Point","coordinates":[4.9170647,45.7309467]},"properties":{"category":"bakery","name":"Arici","opening_hours":"Mo-Fr 06:00-20:00; Sa,Su 06:30-20:00","osm_id":3531523947}},{"type":"Feature","geometry":{"type":"Point","coordinates":[4.9909226,45.7732653]},"properties":{"category":"shop","name":"L'Atelier Vélos","phone":"+33 7 83 36 40 41","osm_id":4083903290}},{"type":"Feature","geometry":{"type":"Point","coordinates":[4.925408,45.7466971]},"properties":{"category":"bakery","name":"La Halle aux Pains","osm_id":4140198047}},{"type":"Feature","geometry":{"type":"Point","coordinates":[4.9289253,45.7577472]},"properties":{"category":"bakery","name":"Pâtisserie de la Côte","opening_hours":"06:00-19:00","phone":"+33 4 78 80 65 68","osm_id":4824462677}},{"type":"Feature","geometry":{"type":"Point","coordinates":[4.9111827,45.735895]},"properties":{"category":"bakery","name":"Banette","opening_hours":"Mo-Fr 06:30-19:00","osm_id":5350978423}},{"type":"Feature","geometry":{"type":"Point","coordinates":[4.9863108,45.7176595]},"properties":{"category":"shop","name":"O2 Vélo","opening_hours":"Mo off; Tu-Fr 10:00-12:30,14:00-19:00; Sa 09:00-18:00; Su off","phone":"+33 4 26 17 26 65","website":"https://www.o2velo.fr/","osm_id":5403752171}},{"type":"Feature","geometry":{"type":"Point","coordinates":[4.9725714,45.7126233]},"properties":{"category":"bakery","name":"Jean","opening_hours":"Mo-Su","osm_id":6128763194}},{"type":"Feature","geometry":{"type":"Point","coordinates":[4.9427298,45.7000037]},"properties":{"category":"bakery","name":"Boulangerie Léonard","opening_hours":"Mo-Fr 06:30-19:30; Sa 07:00-14:00; Su 07:00-13:00","osm_id":6148477382}},{"type":"Feature","geometry":{"type":"Point","coordinates":[4.9154247,45.7200746]},"properties":{"category":"bakery","name":"Boogy's","opening_hours":"Mo-Fr 07:00-20:00; Su 08:00-13:00","phone":"+33 4 72 63 36 57","osm_id":6426720252}},{"type":"Feature","geometry":{"type":"Point","coordinates":[4.9088268,45.733317]},"properties":{"category":"bakery","name":"Au pain de Bron","opening_hours":"Mo-Sa 06:00-19:00","osm_id":6970950510}},{"type":"Feature","geometry":{"type":"Point","coordinates":[4.9058783,45.7343262]},"properties":{"category":"bakery","name":"Maison Vermare","opening_hours":"Mo, Tu, Th, Fr 06:30-19:00; Sa 06:30-18:30; Su 06:30-12:30","phone":"+33 4 72 14 90 80","osm_id":7040384032}},{"type":"Feature","geometry":{"type":"Point","coordinates":[4.9728018,45.7373368]},"properties":{"category":"bakery","name":"Oriane","opening_hours":"Mo-Su 06:00-20:00","phone":"+33 4 78 90 72 10","osm_id":7191684791}},{"type":"Feature","geometry":{"type":"Point","coordinates":[4.9211622,45.7743185]},"properties":{"category":"bakery","name":"À la petite boulangerie","opening_hours":"Mo-Fr 06:00-19:30","phone":"+33 4 78 80 85 64","osm_id":7364386306}},{"type":"Feature","geometry":{"type":"Point","coordinates":[4.9288939,45.7480036]},"properties":{"category":"bakery","name":"Banette","opening_hours":"Tu-Sa 08:00-18:00","osm_id":7444905027}},{"type":"Feature","geometry":{"type":"Point","coordinates":[4.9905503,45.730636]},"properties":{"category":"bakery","name":"L'Atelier du Rond-Point","opening_hours":"Mo-Fr 06:30-19:30; Sa 07:30-19:30","phone":"+33437608665","website":"https://latelierdurondpoint-genas.eatbu.com/","osm_id":7517151606}},{"type":"Feature","geometry":{"type":"Point","coordinates":[4.9595645,45.7710573]},"properties":{"category":"bakery","name":"Boulangerie Monnet","opening_hours":"Mo-Sa 06:30-19:00; Su 06:30-13:00","osm_id":7529356710}},{"type":"Feature","geometry":{"type":"Point","coordinates":[4.9005163,45.7523077]},"properties":{"category":"compressed_air","osm_id":7761691029}},{"type":"Feature","geometry":{"type":"Point","coordinates":[4.9051143,45.7394401]},"properties":{"category":"compressed_air","osm_id":7761721393}},{"type":"Feature","geometry":{"type":"Point","coordinates":[4.9155564,45.7235462]},"properties":{"category":"shop","name":"La P'tite Rustine","opening_hours":"Mo 09:00-12:00; Tu 09:00-12:00; We 09:00-12:00; Th 09:00-12:00, 14:00-17:00; Sa 10:00-17:00","website":"https://www.laptiterustine.fr/","osm_id":7809964553}},{"type":"Feature","geometry":{"type":"Point","coordinates":[4.9218155,45.7858857]},"properties":{"category":"bakery","name":"Maison Rezaiguia","opening_hours":"Tu-Su 06:30-19:30","osm_id":7813605415}},{"type":"Feature","geometry":{"type":"Point","coordinates":[4.9187289,45.7615353]},"properties":{"category":"bakery","name":"Naan","opening_hours":"Mo-Su 06:00-19:30","phone":"+33 4 78 52 21 79","website":"https://naan.fr/","osm_id":7846915882}},{"type":"Feature","geometry":{"type":"Point","coordinates":[4.9214134,45.7610366]},"properties":{"category":"bakery","osm_id":7846915883}},{"type":"Feature","geometry":{"type":"Point","coordinates":[4.9797972,45.7008507]},"properties":{"category":"bakery","name":"Le QG des Gourmets","opening_hours":"Mo, Tu, Th, Fr 06:30-19:30; Sa, Su 07:00-13:00","phone":"+33 4 78 90 88 95","osm_id":7933481859}},{"type":"Feature","geometry":{"type":"Point","coordinates":[4.9280589,45.7857673]},"properties":{"category":"bakery","name":"L'artisane","osm_id":8043978675}},{"type":"Feature","geometry":{"type":"Point","coordinates":[4.9163366,45.7610817]},"properties":{"category":"shop","name":"À Fond Gaston","phone":"+33 6 13 19 24 11","website":"https://afondgaston.fr/","osm_id":8144254488}},{"type":"Feature","geometry":{"type":"Point","coordinates":[4.9323597,45.7035958]},"properties":{"category":"bakery","name":"La Quotidienne","opening_hours":"Mo-Su 06:30-19:30","osm_id":8198619025}},{"type":"Feature","geometry":{"type":"Point","coordinates":[4.9603335,45.716628]},"properties":{"category":"bakery","name":"Marie Blachère","osm_id":8340931657}},{"type":"Feature","geometry":{"type":"Point","coordinates":[4.9015667,45.760152]},"properties":{"category":"compressed_air","osm_id":8898155164}},{"type":"Feature","geometry":{"type":"Point","coordinates":[4.9667132,45.7346162]},"properties":{"category":"bakery","name":"La Panière","opening_hours":"Mo-Fr 06:00-20:00; Sa,Su 06:30-19:30","osm_id":9337607600}},{"type":"Feature","geometry":{"type":"Point","coordinates":[4.9298676,45.7254919]},"properties":{"category":"bakery","name":"Marie Blachère","opening_hours":"Mo-Sa 07:30-20:00","phone":"+33 4 78 24 08 57","osm_id":9427475417}},{"type":"Feature","geometry":{"type":"Point","coordinates":[4.9640861,45.7164948]},"properties":{"category":"bakery","name":"Boulangerie Ange","opening_hours":"Mo-Sa 06:30-20:00","phone":"+33 4 72 47 02 60","website":"https://www.boulangerie-ange.fr/","osm_id":9472699454}},{"type":"Feature","geometry":{"type":"Point","coordinates":[4.90376,45.7516048]},"properties":{"category":"bakery","name":"Maison Paneo","opening_hours":"Mo-Su 06:00-20:00","osm_id":9528430925}},{"type":"Feature","geometry":{"type":"Point","coordinates":[4.9134088,45.7497459]},"properties":{"category":"bakery","name":"Millet","osm_id":9656038462}},{"type":"Feature","geometry":{"type":"Point","coordinates":[4.9230367,45.7060775]},"properties":{"category":"bakery","name":"Baguettes, Sandwichs & Tradition","opening_hours":"Mo-Sa 06:30-19:30","osm_id":9980322454}},{"type":"Feature","geometry":{"type":"Point","coordinates":[4.9029123,45.747085]},"properties":{"category":"repair","osm_id":10175782884}},{"type":"Feature","geometry":{"type":"Point","coordinates":[4.9941782,45.7776805]},"properties":{"category":"bakery","name":"La Ribambelle des pains","osm_id":10262489208}},{"type":"Feature","geometry":{"type":"Point","coordinates":[4.9815769,45.771522]},"properties":{"category":"bakery","name":"Le 505","osm_id":10797368903}},{"type":"Feature","geometry":{"type":"Point","coordinates":[4.9377756,45.7632298]},"properties":{"category":"bakery","name":"D boulangerie","opening_hours":"Mo-Sa 08:00-18:00","osm_id":10924043714}},{"type":"Feature","geometry":{"type":"Point","coordinates":[4.9727518,45.7692877]},"properties":{"category":"shop","name":"La Fabrik' à Vélos","osm_id":11007919673}},{"type":"Feature","geometry":{"type":"Point","coordinates":[4.9372387,45.7080299]},"properties":{"category":"compressed_air","opening_hours":"24/7","osm_id":11026011009}},{"type":"Feature","geometry":{"type":"Point","coordinates":[4.9925755,45.7801979]},"properties":{"category":"repair","name":"TD vélo","phone":"+33 6 18 17 18 17","website":"www.tdveli.fr","osm_id":11349854064}},{"type":"Feature","geometry":{"type":"Point","coordinates":[4.9010123,45.7763644]},"properties":{"category":"bakery","name":"La Tour Du Pain","osm_id":11622858449}},{"type":"Feature","geometry":{"type":"Point","coordinates":[4.9288381,45.757389]},"properties":{"category":"bakery","name":"Millet","osm_id":11623016411}},{"type":"Feature","geometry":{"type":"Point","coordinates":[4.9563139,45.7692633]},"properties":{"category":"bakery","name":"Sensations","opening_hours":"Mo-Sa 06:30-19:00; Su 06:30-13:00","osm_id":11793889972}},{"type":"Feature","geometry":{"type":"Point","coordinates":[4.9154791,45.7520376]},"properties":{"category":"bakery","name":"Boulangerie Pâtisserie de la Paix","osm_id":11795051170}},{"type":"Feature","geometry":{"type":"Point","coordinates":[4.9625259,45.7725643]},"properties":{"category":"bakery","name":"Maison Edgar","opening_hours":"Mo-Su 07:00-19:00","phone":"+33 6 51 95 19 59","osm_id":11911689063}},{"type":"Feature","geometry":{"type":"Point","coordinates":[4.9070458,45.7810864]},"properties":{"category":"bakery","name":"NAAN","opening_hours":"Mo 09:00-17:00; Tu-Fr 07:00-17:00; Sa 07:00-13:00","osm_id":11942280062}},{"type":"Feature","geometry":{"type":"Point","coordinates":[4.9093543,45.7486182]},"properties":{"category":"bakery","name":"Maison Jumeaux","opening_hours":"06:30-20:00","osm_id":11990761040}},{"type":"Feature","geometry":{"type":"Point","coordinates":[4.9131476,45.7883562]},"properties":{"category":"bakery","name":"Boulangerie Pâtisserie de la Grappinière","opening_hours":"Mo-Su 06:30-20:00","osm_id":11991509115}},{"type":"Feature","geometry":{"type":"Point","coordinates":[4.9191794,45.7613936]},"properties":{"category":"bakery","name":"Naan Pâtisseries","website":"https://naan.fr/","osm_id":12213972737}},{"type":"Feature","geometry":{"type":"Point","coordinates":[4.9106771,45.7534702]},"properties":{"category":"bakery","name":"Le meunier","osm_id":12677776262}},{"type":"Feature","geometry":{"type":"Point","coordinates":[4.92048,45.7481289]},"properties":{"category":"bakery","name":"Boulangerie Terraillon","osm_id":12696917958}},{"type":"Feature","geometry":{"type":"Point","coordinates":[4.937142,45.7080476]},"properties":{"category":"compressed_air","osm_id":12751874497}},{"type":"Feature","geometry":{"type":"Point","coordinates":[4.9827104,45.7936221]},"properties":{"category":"repair","opening_hours":"24/7","osm_id":12848758936}},{"type":"Feature","geometry":{"type":"Point","coordinates":[4.9084313,45.7417811]},"properties":{"category":"compressed_air","osm_id":12881231502}},{"type":"Feature","geometry":{"type":"Point","coordinates":[4.9863446,45.7725764]},"properties":{"category":"bakery","name":"Marie Blachère","osm_id":12901885885}},{"type":"Feature","geometry":{"type":"Point","coordinates":[4.9408742,45.7986299]},"properties":{"category":"repair","opening_hours":"24/7","osm_id":13138805264}},{"type":"Feature","geometry":{"type":"Point","coordinates":[4.9112867,45.7722403]},"properties":{"category":"bakery","name":"Artisan Boulanger","opening_hours":"Mo-Fr 06:00-19:00; Su 06:00-15:00","osm_id":13195454798}},{"type":"Feature","geometry":{"type":"Point","coordinates":[4.9170111,45.7607015]},"properties":{"category":"shop","name":"Tournée Cycles (atelier réparation)","opening_hours":"Mo-Fr 09:00-18:00","osm_id":13232523218}},{"type":"Feature","geometry":{"type":"Point","coordinates":[4.9163273,45.7371852]},"properties":{"category":"bakery","name":"Fraise et Farine","osm_id":13368911303}},{"type":"Feature","geometry":{"type":"Point","coordinates":[4.9105728,45.7564741]},"properties":{"category":"bakery","name":"Tas Firin","osm_id":13975540479}},{"type":"Feature","geometry":{"type":"Point","coordinates":[4.9669996,45.7716623]},"properties":{"category":"bakery","name":"Jean Artisan Boulanger","osm_id":14115340933}}]}