{"type":"FeatureCollection","features":[{"type":"Feature","geometry":{"type":"Point","coordinates":[6.0307712,45.7652201]},"properties":{"category":"bakery","name":"Le Refuge Des Gourmands","osm_id":359528405}},{"type":"Feature","geometry":{"type":"Point","coordinates":[6.0863432,45.7138127]},"properties":{"category":"bakery","name":"Boulangerie « Chez Bouboule »","opening_hours":"Mo-Fr 07:30-12:30,15:30-19:00; We off; Sa 07:30-12:30,16:00-19:00; Su 07:30-12:30","phone":"+33 4 57 34 59 05","osm_id":6381185714}},{"type":"Feature","geometry":{"type":"Point","coordinates":[6.0541816,45.7867552]},"properties":{"category":"bakery","name":"Aux Sources du Pain","opening_hours":"Tu-Sa 07:30-13:00, 14:45-19:00","phone":"+33 4 50 19 26 69","osm_id":11118921361}}]}