{"type":"FeatureCollection","features":[{"type":"Feature","geometry":{"type":"Point","coordinates":[1.1983959,45.840698]},"properties":{"category":"bakery","name":"La Belle Amie","osm_id":2795817770}},{"type":"Feature","geometry":{"type":"Point","coordinates":[1.1920518,45.8436968]},"properties":{"category":"bakery","name":"La Landréenne","osm_id":2795817774}},{"type":"Feature","geometry":{"type":"Point","coordinates":[1.126517,45.8492306]},"properties":{"category":"bakery","name":"Boulangerie Lagueny","opening_hours":"Tu-Fr 07:00-12:30,15:30-18:30; We,Sa,Su 07:00-12:30","phone":"+33 5 55 48 04 07","osm_id":7353905577}}]}