{"type":"FeatureCollection","features":[{"type":"Feature","geometry":{"type":"Point","coordinates":[3.0741191,45.8909574]},"properties":{"category":"bakery","name":"Le fournil d'Emma","opening_hours":"Mo-Su 05:00-20:00","osm_id":1704103605}},{"type":"Feature","geometry":{"type":"Point","coordinates":[3.078397,45.8291567]},"properties":{"category":"bakery","osm_id":1785497749}},{"type":"Feature","geometry":{"type":"Point","coordinates":[3.0489855,45.8983294]},"properties":{"category":"bakery","osm_id":2358639593}},{"type":"Feature","geometry":{"type":"Point","coordinates":[3.0965664,45.8326189]},"properties":{"category":"bakery","name":"Fournil de l'Authentique","osm_id":3245697088}},{"type":"Feature","geometry":{"type":"Point","coordinates":[3.0157244,45.8299557]},"properties":{"category":"bakery","name":"Distributeur automatique de pain","osm_id":6603389814}},{"type":"Feature","geometry":{"type":"Point","coordinates":[3.0860404,45.8492458]},"properties":{"category":"bakery","name":"Pains et Traditions","osm_id":7283482298}},{"type":"Feature","geometry":{"type":"Point","coordinates":[3.0925839,45.8940051]},"properties":{"category":"bakery","name":"Le Pain de Guylaine","osm_id":7417170560}},{"type":"Feature","geometry":{"type":"Point","coordinates":[3.0941396,45.8935342]},"properties":{"category":"bakery","name":"Boulangerie des volcans","osm_id":7417170561}},{"type":"Feature","geometry":{"type":"Point","coordinates":[3.0754288,45.8899265]},"properties":{"category":"bakery","name":"Patapain","opening_hours":"Mo-Su 06:30-20:00","phone":"+33415790079","osm_id":7427961230}},{"type":"Feature","geometry":{"type":"Point","coordinates":[3.0366717,45.8702081]},"properties":{"category":"bakery","name":"Boulangerie (fermée)","osm_id":8781273717}},{"type":"Feature","geometry":{"type":"Point","coordinates":[3.0656594,45.8877573]},"properties":{"category":"shop","name":"Volcanic Cycles","osm_id":11358807418}},{"type":"Feature","geometry":{"type":"Point","coordinates":[3.0519635,45.8278496]},"properties":{"category":"bakery","name":"Boulangerie Du Bedat","osm_id":13067632985}}]}