{"type":"FeatureCollection","features":[{"type":"Feature","geometry":{"type":"Point","coordinates":[2.1727267,45.8837575]},"properties":{"category":"bakery","name":"Les délices d'Alice","opening_hours":"Mo,We-Su 07:00-13:30","phone":"+33555664159","osm_id":917119556}},{"type":"Feature","geometry":{"type":"Point","coordinates":[2.1745433,45.882633]},"properties":{"category":"bakery","name":"Boulangerie SK","osm_id":2632081845}},{"type":"Feature","geometry":{"type":"Point","coordinates":[2.1737609,45.8831198]},"properties":{"category":"bakery","name":"La Noisetine","osm_id":7329215587}}]}