{"type":"FeatureCollection","features":[{"type":"Feature","geometry":{"type":"Point","coordinates":[2.8501243,45.8330414]},"properties":{"category":"bakery","osm_id":1897172722}},{"type":"Feature","geometry":{"type":"Point","coordinates":[2.8185901,45.8384933]},"properties":{"category":"bakery","name":"Boulangerie","opening_hours":"Tu-Fr 07:00-12:30,15:00-19:00; Sa 07:00-12:30,15:00-18:00; Su 07:00-12:30","osm_id":4961525822}},{"type":"Feature","geometry":{"type":"Point","coordinates":[2.8517944,45.8322529]},"properties":{"category":"bakery","name":"Boulangerie Bonaparte","phone":"+33473628378","osm_id":10178468748}},{"type":"Feature","geometry":{"type":"Point","coordinates":[2.8931458,45.8501417]},"properties":{"category":"bakery","osm_id":11957681897}}]}