{"type":"FeatureCollection","features":[{"type":"Feature","geometry":{"type":"Point","coordinates":[5.2550256,45.8932617]},"properties":{"category":"bakery","name":"Le Pain de Chazey","osm_id":2047762584}},{"type":"Feature","geometry":{"type":"Point","coordinates":[5.2183243,45.8759711]},"properties":{"category":"shop","name":"Velox","osm_id":7075154889}},{"type":"Feature","geometry":{"type":"Point","coordinates":[5.2488866,45.8453564]},"properties":{"category":"bakery","name":"La Miette d'Adripain","osm_id":7707361849}},{"type":"Feature","geometry":{"type":"Point","coordinates":[5.2937378,45.8373155]},"properties":{"category":"bakery","name":"L'Atelier","opening_hours":"Mo-Fr 04:00-18:15; Sa 04:00-12:30","phone":"+33 4 74 38 56 66","osm_id":11554285322}},{"type":"Feature","geometry":{"type":"Point","coordinates":[5.216576,45.84375]},"properties":{"category":"bakery","osm_id":12253122013}}]}