{"type":"FeatureCollection","features":[{"type":"Feature","geometry":{"type":"Point","coordinates":[6.2041608,45.8285108]},"properties":{"category":"bakery","name":"Boulangerie du Lac","opening_hours":"Tu-Su 06:00-19:30","osm_id":841995362}},{"type":"Feature","geometry":{"type":"Point","coordinates":[6.200603,45.8264108]},"properties":{"category":"repair","name":"Aire de service vélo Duingt","opening_hours":"24/7","osm_id":8784788119}},{"type":"Feature","geometry":{"type":"Point","coordinates":[6.2011258,45.8265177]},"properties":{"category":"shop","name":"Le Bon Wagon","opening_hours":"Mo-Su 09:00-19:00","phone":"+33 4 50 32 55 66","website":"https://www.lebonwagon.fr/","osm_id":8986230058}},{"type":"Feature","geometry":{"type":"Point","coordinates":[6.2148435,45.8401246]},"properties":{"category":"bakery","name":"Le Fournil de mon Père - Maison Neveu","opening_hours":"Tu-Su 07:00-13:00","osm_id":9310342572}},{"type":"Feature","geometry":{"type":"Point","coordinates":[6.2194856,45.8323952]},"properties":{"category":"shop","name":"AS Bike","opening_hours":"Mo-Sa 09:00-12:00,14:00-18:00","website":"https://asbike74.wixsite.com/monsite","osm_id":9323104598}},{"type":"Feature","geometry":{"type":"Point","coordinates":[6.2187265,45.8282951]},"properties":{"category":"shop","name":"Nomad Bike","phone":"+33 637161384","website":"https://www.nomadbike.fr/","osm_id":9505378778}},{"type":"Feature","geometry":{"type":"Point","coordinates":[6.209314,45.8103378]},"properties":{"category":"repair","osm_id":11174732161}},{"type":"Feature","geometry":{"type":"Point","coordinates":[6.2472792,45.8925088]},"properties":{"category":"shop","name":"Aravis mobile","opening_hours":"Tu-Sa 10:00-19:00","website":"https://www.aravismobile.fr/","osm_id":13888615744}},{"type":"Feature","geometry":{"type":"Point","coordinates":[6.2086192,45.8034178]},"properties":{"category":"bakery","name":"La Tartine","opening_hours":"Mo-Th 10:00-14:00; Fr 10:00-20:00","osm_id":14092768301}}]}