{"type":"FeatureCollection","features":[{"type":"Feature","geometry":{"type":"Point","coordinates":[5.372806,45.822378]},"properties":{"category":"bakery","name":"Ferme de Chalonne","opening_hours":"Th 17:00-19:30","phone":"+33 4 74 82 49 66","website":"https://www.fermedechalonne.fr/","osm_id":4954892854}},{"type":"Feature","geometry":{"type":"Point","coordinates":[5.3392336,45.8528286]},"properties":{"category":"repair","opening_hours":"24/7","osm_id":12112311201}},{"type":"Feature","geometry":{"type":"Point","coordinates":[5.3469636,45.8859218]},"properties":{"category":"repair","osm_id":13786290654}}]}