{"type":"FeatureCollection","features":[{"type":"Feature","geometry":{"type":"Point","coordinates":[4.4425397,45.8917145]},"properties":{"category":"bakery","name":"Banette","opening_hours":"Mo-Fr 05:00-14:00,16:30-19:30; Sa 05:00-13:00","osm_id":5981139557}},{"type":"Feature","geometry":{"type":"Point","coordinates":[4.4334136,45.8970186]},"properties":{"category":"shop","name":"Cycles André Leduq","osm_id":5981463758}},{"type":"Feature","geometry":{"type":"Point","coordinates":[4.4338127,45.8964439]},"properties":{"category":"bakery","name":"Banette","osm_id":5984999104}},{"type":"Feature","geometry":{"type":"Point","coordinates":[4.433515,45.8965721]},"properties":{"category":"bakery","osm_id":6268360556}},{"type":"Feature","geometry":{"type":"Point","coordinates":[4.4339021,45.8974238]},"properties":{"category":"bakery","name":"La boulange-rit","osm_id":6268360564}},{"type":"Feature","geometry":{"type":"Point","coordinates":[4.445448,45.8903781]},"properties":{"category":"compressed_air","osm_id":6710496732}},{"type":"Feature","geometry":{"type":"Point","coordinates":[4.4741325,45.8591936]},"properties":{"category":"bakery","osm_id":8702388377}}]}