{"type":"FeatureCollection","features":[{"type":"Feature","geometry":{"type":"Point","coordinates":[6.7266288,45.8224257]},"properties":{"category":"repair","opening_hours":"24/7","osm_id":9515957017}},{"type":"Feature","geometry":{"type":"Point","coordinates":[6.7266825,45.8224275]},"properties":{"category":"compressed_air","opening_hours":"24/7","osm_id":9515957018}},{"type":"Feature","geometry":{"type":"Point","coordinates":[6.7975714,45.88951]},"properties":{"category":"shop","name":"Sport Spirit","phone":"+33 4 50 53 43 42","website":"http://www.sport-spirit74.com/","osm_id":9532413492}},{"type":"Feature","geometry":{"type":"Point","coordinates":[6.7725771,45.8932691]},"properties":{"category":"wash","name":"Bike Shower","osm_id":13462798286}},{"type":"Feature","geometry":{"type":"Point","coordinates":[6.7727135,45.8933172]},"properties":{"category":"repair","opening_hours":"Mo-Sa 08:00-18:00","osm_id":13462813704}}]}