{"type":"FeatureCollection","features":[{"type":"Feature","geometry":{"type":"Point","coordinates":[-0.1937177,45.8298238]},"properties":{"category":"bakery","name":"La Gourmandise","opening_hours":"Tu-Su 06:00-20:00","phone":"+33 6 01 00 35 43","osm_id":8674393447}},{"type":"Feature","geometry":{"type":"Point","coordinates":[-0.1651747,45.802281]},"properties":{"category":"bakery","name":"Le Fournil de Yoann et Julie","osm_id":9120861113}},{"type":"Feature","geometry":{"type":"Point","coordinates":[-0.1870009,45.8825736]},"properties":{"category":"bakery","osm_id":9137423604}}]}