{"type":"FeatureCollection","features":[{"type":"Feature","geometry":{"type":"Point","coordinates":[3.1510114,45.8273297]},"properties":{"category":"bakery","osm_id":2520866768}},{"type":"Feature","geometry":{"type":"Point","coordinates":[3.1619478,45.8426996]},"properties":{"category":"compressed_air","osm_id":2942420827}},{"type":"Feature","geometry":{"type":"Point","coordinates":[3.102988,45.830483]},"properties":{"category":"bakery","name":"Maison Fournier","osm_id":3236761979}},{"type":"Feature","geometry":{"type":"Point","coordinates":[3.1004718,45.8302365]},"properties":{"category":"bakery","name":"La Pompadour","osm_id":3236761989}},{"type":"Feature","geometry":{"type":"Point","coordinates":[3.112664,45.8068811]},"properties":{"category":"shop","name":"Un guidon dans la tête","opening_hours":"We-Th 14:00-20:00; Sa 14:00-18:00","phone":"+33 9 81 25 77 76","website":"https://unguidondanslatete.fr/","osm_id":3832397207}},{"type":"Feature","geometry":{"type":"Point","coordinates":[3.1201918,45.8378856]},"properties":{"category":"compressed_air","osm_id":4066375112}},{"type":"Feature","geometry":{"type":"Point","coordinates":[3.1460311,45.8231454]},"properties":{"category":"bakery","name":"Maison Antonio","osm_id":4508374889}},{"type":"Feature","geometry":{"type":"Point","coordinates":[3.1422643,45.8226234]},"properties":{"category":"bakery","name":"Au Croissant d'Or","osm_id":4508387590}},{"type":"Feature","geometry":{"type":"Point","coordinates":[3.106056,45.8808146]},"properties":{"category":"shop","name":"Atelier Biclou","opening_hours":"We 14:00-18:00","osm_id":4743048220}},{"type":"Feature","geometry":{"type":"Point","coordinates":[3.1115124,45.8015736]},"properties":{"category":"bakery","name":"Fournil des pistes","osm_id":4748216421}},{"type":"Feature","geometry":{"type":"Point","coordinates":[3.1558628,45.8205372]},"properties":{"category":"bakery","name":"Marie Blachère","osm_id":4993197298}},{"type":"Feature","geometry":{"type":"Point","coordinates":[3.1113048,45.8118153]},"properties":{"category":"bakery","name":"Moulin de Païou","osm_id":5236663123}},{"type":"Feature","geometry":{"type":"Point","coordinates":[3.1165419,45.8773682]},"properties":{"category":"compressed_air","osm_id":5383260896}},{"type":"Feature","geometry":{"type":"Point","coordinates":[3.1203912,45.8428104]},"properties":{"category":"compressed_air","osm_id":5418020674}},{"type":"Feature","geometry":{"type":"Point","coordinates":[3.1185436,45.8904066]},"properties":{"category":"bakery","name":"Belin & Belin","opening_hours":"Tu-Fr 06:30-19:30; Sa 06:30-12:45","phone":"+33 4 73 63 17 35","osm_id":5986656882}},{"type":"Feature","geometry":{"type":"Point","coordinates":[3.1159061,45.876638]},"properties":{"category":"shop","name":"Cycles Blanc","opening_hours":"Tu-Sa 09:00-12:00,14:00-19:00","phone":"+33 473 380 325","website":"https://www.sport2000.fr/magasins/fiche/630299-mondovelo-riom-cycles-blanc","osm_id":6184226692}},{"type":"Feature","geometry":{"type":"Point","coordinates":[3.1282572,45.8126018]},"properties":{"category":"bakery","name":"Moulin de Païou","osm_id":6557486085}},{"type":"Feature","geometry":{"type":"Point","coordinates":[3.1559405,45.8207633]},"properties":{"category":"bakery","name":"Au Fournil Gourmand","osm_id":6578502837}},{"type":"Feature","geometry":{"type":"Point","coordinates":[3.1404935,45.8174709]},"properties":{"category":"bakery","name":"A La Croisée Des Pains","osm_id":6694394285}},{"type":"Feature","geometry":{"type":"Point","coordinates":[3.1140054,45.8937648]},"properties":{"category":"bakery","name":"Belin & Belin","phone":"+33 4 73 38 00 11","osm_id":7741321892}},{"type":"Feature","geometry":{"type":"Point","coordinates":[3.1090343,45.8063334]},"properties":{"category":"bakery","name":"Boulangerie Clementel","osm_id":8287035313}},{"type":"Feature","geometry":{"type":"Point","coordinates":[3.1097278,45.8104972]},"properties":{"category":"bakery","name":"Marie Blachère","opening_hours":"Mo-Sa 06:30-19:30","osm_id":8313168803}},{"type":"Feature","geometry":{"type":"Point","coordinates":[3.1202855,45.8945721]},"properties":{"category":"bakery","name":"Les 3 Colibris","opening_hours":"Mo,Tu,Th-Sa 06:15-19:30; Su 06:15-18:00","osm_id":8476871523}},{"type":"Feature","geometry":{"type":"Point","coordinates":[3.1087024,45.8138936]},"properties":{"category":"compressed_air","osm_id":8662468542}},{"type":"Feature","geometry":{"type":"Point","coordinates":[3.106505,45.8375269]},"properties":{"category":"shop","name":"CyclAmbul’","phone":"+33 7 68 74 33 48","website":"https://www.cyclambul.fr/","osm_id":9176889751}},{"type":"Feature","geometry":{"type":"Point","coordinates":[3.115611,45.893746]},"properties":{"category":"shop","name":"Cycles Gozh","phone":"+33 6 98 98 67 43","website":"https://www.cycles-gozh.fr/","osm_id":11162551065}},{"type":"Feature","geometry":{"type":"Point","coordinates":[3.1166628,45.8940216]},"properties":{"category":"bakery","name":"Combes","opening_hours":"Mo-Sa 06:00-19:15","osm_id":12669265752}},{"type":"Feature","geometry":{"type":"Point","coordinates":[3.1504018,45.8284092]},"properties":{"category":"shop","name":"Le biclou de Nano","phone":"+33 6 64 61 34 15","osm_id":13059617468}},{"type":"Feature","geometry":{"type":"Point","coordinates":[3.1113739,45.8888494]},"properties":{"category":"repair","osm_id":13541216397}},{"type":"Feature","geometry":{"type":"Point","coordinates":[3.1113567,45.8888837]},"properties":{"category":"compressed_air","osm_id":13541216398}}]}