{"type":"FeatureCollection","features":[{"type":"Feature","geometry":{"type":"Point","coordinates":[4.7858075,45.8009414]},"properties":{"category":"compressed_air","osm_id":3698810811}},{"type":"Feature","geometry":{"type":"Point","coordinates":[4.7036632,45.8555678]},"properties":{"category":"compressed_air","osm_id":8127306879}},{"type":"Feature","geometry":{"type":"Point","coordinates":[4.7809454,45.8057023]},"properties":{"category":"shop","name":"Culture Vélo","phone":"+33 4 78 66 25 75","osm_id":8184532523}},{"type":"Feature","geometry":{"type":"Point","coordinates":[4.7693887,45.8090801]},"properties":{"category":"compressed_air","osm_id":9168416768}},{"type":"Feature","geometry":{"type":"Point","coordinates":[4.7332834,45.8480668]},"properties":{"category":"compressed_air","name":"Dive Lyon","opening_hours":"Tu-Fr 11:00-19:00; Sa 10:00-18:00","phone":"+33 4 87 24 29 13","website":"https://divelyon.fr/","osm_id":9497561213}},{"type":"Feature","geometry":{"type":"Point","coordinates":[4.7865957,45.8007833]},"properties":{"category":"compressed_air","osm_id":9686193455}},{"type":"Feature","geometry":{"type":"Point","coordinates":[4.7816463,45.8044994]},"properties":{"category":"shop","name":"Cyclable","website":"https://champagne-au-mont-dor.cyclable.com/","osm_id":11076056704}},{"type":"Feature","geometry":{"type":"Point","coordinates":[4.7604017,45.8207496]},"properties":{"category":"compressed_air","name":"Esso","osm_id":13316538626}},{"type":"Feature","geometry":{"type":"Point","coordinates":[4.7712418,45.8191479]},"properties":{"category":"shop","name":"Ekstere Lyon – Limonest","phone":"+33 4 72 18 50 66","osm_id":13605573901}},{"type":"Feature","geometry":{"type":"Point","coordinates":[4.7038445,45.8568408]},"properties":{"category":"shop","name":"Mondovélo","opening_hours":"Mo 14:00-19:00; Tu-Th 09:30-12:30,14:00-19:00; Fr,Sa 09:30-12:30,14:00-18:30","phone":"+33 4 72 48 99 73","website":"https://lozanne.mondovelo.fr/","osm_id":13654209055}},{"type":"Feature","geometry":{"type":"Point","coordinates":[4.7141916,45.8364724]},"properties":{"category":"repair","osm_id":13856247207}}]}