{"type":"FeatureCollection","features":[{"type":"Feature","geometry":{"type":"Point","coordinates":[-0.9622023,45.873842]},"properties":{"category":"bakery","name":"Le Pain d'Antan","osm_id":5462192438}},{"type":"Feature","geometry":{"type":"Point","coordinates":[-0.9450256,45.8435809]},"properties":{"category":"shop","name":"Yannick Sage","phone":"+33684121479","osm_id":9819866594}},{"type":"Feature","geometry":{"type":"Point","coordinates":[-0.9100614,45.8319951]},"properties":{"category":"bakery","name":"Boulangerie Pâtisserie Au Pain Doré","osm_id":9844176871}},{"type":"Feature","geometry":{"type":"Point","coordinates":[-0.9469734,45.8198587]},"properties":{"category":"bakery","osm_id":12238582571}},{"type":"Feature","geometry":{"type":"Point","coordinates":[-0.9643583,45.865415]},"properties":{"category":"bakery","osm_id":12248271954}},{"type":"Feature","geometry":{"type":"Point","coordinates":[-0.965711,45.8746332]},"properties":{"category":"repair","osm_id":12574348771}}]}