{"type":"FeatureCollection","features":[{"type":"Feature","geometry":{"type":"Point","coordinates":[6.3265367,45.8831919]},"properties":{"category":"bakery","name":"Boulangerie Patisserie Petit Michel","opening_hours":"06:00-13:00,15:00-19:00","phone":"+33 4 50 02 93 19","osm_id":2073918546}},{"type":"Feature","geometry":{"type":"Point","coordinates":[6.3047272,45.8937589]},"properties":{"category":"bakery","name":"Boulangerie des Aravis","opening_hours":"Mo-Su 06:00-19:00","phone":"+33 4 50 64 88 37","osm_id":2425614171}},{"type":"Feature","geometry":{"type":"Point","coordinates":[6.3164693,45.8857679]},"properties":{"category":"bakery","name":"La Panière","opening_hours":"Mo-Sa 05:30-20:00; Su 06:00-20:00","phone":"+33 4 50 02 07 35","osm_id":2447977901}},{"type":"Feature","geometry":{"type":"Point","coordinates":[6.3250987,45.8825176]},"properties":{"category":"bakery","name":"Aux délices d'O Thônes","opening_hours":"Tu-Su 06:00-13:00, Tu-Sa 14:30-19:00","phone":"+33 4 50 23 24 02","osm_id":4457187885}},{"type":"Feature","geometry":{"type":"Point","coordinates":[6.3687102,45.8615911]},"properties":{"category":"bakery","name":"La Manigodine","osm_id":11711316362}},{"type":"Feature","geometry":{"type":"Point","coordinates":[6.3292234,45.8856607]},"properties":{"category":"compressed_air","osm_id":12748691151}},{"type":"Feature","geometry":{"type":"Point","coordinates":[6.3244109,45.8831463]},"properties":{"category":"repair","osm_id":13085223055}}]}