{"type":"FeatureCollection","features":[{"type":"Feature","geometry":{"type":"Point","coordinates":[4.8594741,45.8046436]},"properties":{"category":"compressed_air","osm_id":4959568462}},{"type":"Feature","geometry":{"type":"Point","coordinates":[4.8675673,45.806222]},"properties":{"category":"shop","name":"Giant","osm_id":6611932250}},{"type":"Feature","geometry":{"type":"Point","coordinates":[4.8322544,45.8459569]},"properties":{"category":"repair","osm_id":7127007665}},{"type":"Feature","geometry":{"type":"Point","coordinates":[4.8348248,45.8429991]},"properties":{"category":"compressed_air","opening_hours":"24/7","osm_id":9190349435}},{"type":"Feature","geometry":{"type":"Point","coordinates":[4.8291815,45.8886716]},"properties":{"category":"shop","name":"JTR Cycles","osm_id":9348703746}},{"type":"Feature","geometry":{"type":"Point","coordinates":[4.8047671,45.8847009]},"properties":{"category":"repair","opening_hours":"Mo-Fr 09:00-17:00","osm_id":9350137337}},{"type":"Feature","geometry":{"type":"Point","coordinates":[4.8877941,45.8133201]},"properties":{"category":"compressed_air","osm_id":9472463070}},{"type":"Feature","geometry":{"type":"Point","coordinates":[4.8478585,45.8336546]},"properties":{"category":"shop","name":"Cycles Bob","osm_id":10090372135}},{"type":"Feature","geometry":{"type":"Point","coordinates":[4.831621,45.8444098]},"properties":{"category":"shop","name":"Cyclomontdor","osm_id":10124053692}},{"type":"Feature","geometry":{"type":"Point","coordinates":[4.8398588,45.8548991]},"properties":{"category":"compressed_air","osm_id":10929999596}},{"type":"Feature","geometry":{"type":"Point","coordinates":[4.8205602,45.8926818]},"properties":{"category":"compressed_air","osm_id":11216965150}},{"type":"Feature","geometry":{"type":"Point","coordinates":[4.8753186,45.8194227]},"properties":{"category":"repair","opening_hours":"24/7","osm_id":11804881602}},{"type":"Feature","geometry":{"type":"Point","coordinates":[4.8246557,45.8027609]},"properties":{"category":"compressed_air","opening_hours":"24/7","osm_id":12285880624}},{"type":"Feature","geometry":{"type":"Point","coordinates":[4.8752873,45.8194396]},"properties":{"category":"repair","opening_hours":"24/7","osm_id":12615410682}},{"type":"Feature","geometry":{"type":"Point","coordinates":[4.8040282,45.8883871]},"properties":{"category":"repair","osm_id":12718627036}},{"type":"Feature","geometry":{"type":"Point","coordinates":[4.8628685,45.821313]},"properties":{"category":"compressed_air","osm_id":13375261955}},{"type":"Feature","geometry":{"type":"Point","coordinates":[4.8937526,45.8848387]},"properties":{"category":"compressed_air","osm_id":13375287349}}]}