{"type":"FeatureCollection","features":[{"type":"Feature","geometry":{"type":"Point","coordinates":[4.6108692,45.8507749]},"properties":{"category":"bakery","name":"La petite boulangerie","opening_hours":"Tu-Sa 06:30-13:30,15:30-19:00; Su 06:30-12:30","osm_id":599953599}},{"type":"Feature","geometry":{"type":"Point","coordinates":[4.6826434,45.8550697]},"properties":{"category":"bakery","osm_id":1497033492}},{"type":"Feature","geometry":{"type":"Point","coordinates":[4.6843762,45.8554268]},"properties":{"category":"shop","name":"Mondovélo","opening_hours":"Mo-Sa09:00-12:00,14:00-19:00","phone":"+33 4 72 48 99 73","website":"https://www.mondovelo.fr/magasins/140-mondovelo-lozanne","osm_id":5881194213}},{"type":"Feature","geometry":{"type":"Point","coordinates":[4.6226125,45.8266825]},"properties":{"category":"bakery","name":"Chez Alex & Nico","opening_hours":"Tu,Th,Fr 06:30-13:00,15:30-19:00; Sa,Su 07:00-13:00","osm_id":6015158848}},{"type":"Feature","geometry":{"type":"Point","coordinates":[4.6067105,45.8262252]},"properties":{"category":"bakery","osm_id":6015159093}},{"type":"Feature","geometry":{"type":"Point","coordinates":[4.6091777,45.8260624]},"properties":{"category":"bakery","name":"Milann","osm_id":6015159094}},{"type":"Feature","geometry":{"type":"Point","coordinates":[4.6017231,45.8131995]},"properties":{"category":"bakery","name":"Boulangerie Lagoutte","opening_hours":"Mo-Fr 06:00-19:00; Sa 06:00-18:00","phone":"+33 4 26 18 60 70","osm_id":6060664347}},{"type":"Feature","geometry":{"type":"Point","coordinates":[4.6319295,45.8821608]},"properties":{"category":"bakery","name":"La Maison Nicolas","osm_id":6229691759}},{"type":"Feature","geometry":{"type":"Point","coordinates":[4.6448725,45.8767761]},"properties":{"category":"bakery","name":"Le Puits d'Amour","osm_id":6229722138}},{"type":"Feature","geometry":{"type":"Point","coordinates":[4.6627547,45.8183293]},"properties":{"category":"bakery","name":"Le Boulanger de Lentilly (Jocteur)","osm_id":6898698328}},{"type":"Feature","geometry":{"type":"Point","coordinates":[4.6222552,45.8050885]},"properties":{"category":"bakery","name":"O Pain d'autrefois","osm_id":9005850217}},{"type":"Feature","geometry":{"type":"Point","coordinates":[4.6929807,45.8555658]},"properties":{"category":"bakery","name":"Boulangerie Ange","osm_id":12085232206}},{"type":"Feature","geometry":{"type":"Point","coordinates":[4.6956415,45.8558318]},"properties":{"category":"bakery","name":"Marie Blachère","opening_hours":"Mo-Sa 07:00-20:00; Su 08:00-12:30","phone":"+33 4 72 19 65 30","website":"https://boulangeries.marieblachere.com/fr/france-FR/7010/marie-blachere-lozanne/details","osm_id":12085255274}},{"type":"Feature","geometry":{"type":"Point","coordinates":[4.6928884,45.855544]},"properties":{"category":"bakery","name":"Boulangerie Ange","osm_id":12760627535}},{"type":"Feature","geometry":{"type":"Point","coordinates":[4.6928752,45.855539]},"properties":{"category":"bakery","name":"Boulangerie Ange","osm_id":12760663011}},{"type":"Feature","geometry":{"type":"Point","coordinates":[4.682237,45.8166338]},"properties":{"category":"repair","osm_id":13144212942}},{"type":"Feature","geometry":{"type":"Point","coordinates":[4.6238665,45.8397045]},"properties":{"category":"shop","name":"Bouticycle","opening_hours":"Tu-Sa 10:00-19:00","phone":"+33469847387","website":"https://bouticycle.com/-L-Arbresle-","osm_id":14107529803}}]}