{"type":"FeatureCollection","features":[{"type":"Feature","geometry":{"type":"Point","coordinates":[6.6447209,45.8950815]},"properties":{"category":"bakery","name":"Le Fournil","osm_id":2180456445}},{"type":"Feature","geometry":{"type":"Point","coordinates":[6.6164241,45.8566067]},"properties":{"category":"bakery","name":"Le montagnard","osm_id":5550839921}},{"type":"Feature","geometry":{"type":"Point","coordinates":[6.611715,45.8572649]},"properties":{"category":"shop","name":"Alp'ventures","osm_id":7540803191}},{"type":"Feature","geometry":{"type":"Point","coordinates":[6.6185698,45.8619589]},"properties":{"category":"bakery","name":"Aux délices de Megève","phone":"+33 4 50 21 30 48","osm_id":9202417327}}]}