{"type":"FeatureCollection","features":[{"type":"Feature","geometry":{"type":"Point","coordinates":[1.2556248,45.8296805]},"properties":{"category":"shop","name":"Vélo Concept 87","opening_hours":"Mo-Su 09:00-12:00,14:30-18:30","osm_id":2506508493}},{"type":"Feature","geometry":{"type":"Point","coordinates":[1.275832,45.8210815]},"properties":{"category":"shop","name":"Jeremy's Cycle","opening_hours":"Mo,Tu,Th-Sa 10:00-12:00, 14:00-19:00","phone":"+335 55 06 06 08","osm_id":3676453404}},{"type":"Feature","geometry":{"type":"Point","coordinates":[1.2632506,45.8302972]},"properties":{"category":"shop","name":"Maison du V’LiM","opening_hours":"Mo-Fr 09:30-18:00; Sa 08:30-12:00","osm_id":3942341704}},{"type":"Feature","geometry":{"type":"Point","coordinates":[1.265376,45.854184]},"properties":{"category":"shop","name":"Mondo Vélo","opening_hours":"Mo-Sa 14:00-19:00; Tu-Sa 09:00-12:00","phone":"+33 5 55 32 39 52","osm_id":4774706487}},{"type":"Feature","geometry":{"type":"Point","coordinates":[1.2699669,45.8339845]},"properties":{"category":"shop","name":"Zélix","opening_hours":"Tu-Sa 10:00-13:00,14:00-18:00","phone":"+33 9 88 45 48 48","website":"https://www.zelix.fr/","osm_id":5503539291}},{"type":"Feature","geometry":{"type":"Point","coordinates":[1.2589525,45.8270686]},"properties":{"category":"compressed_air","osm_id":6061707513}},{"type":"Feature","geometry":{"type":"Point","coordinates":[1.2194288,45.8101335]},"properties":{"category":"compressed_air","osm_id":6832893875}},{"type":"Feature","geometry":{"type":"Point","coordinates":[1.2413518,45.821349]},"properties":{"category":"compressed_air","osm_id":6935741040}},{"type":"Feature","geometry":{"type":"Point","coordinates":[1.2854514,45.8823234]},"properties":{"category":"shop","name":"Culture Vélo Limoges","osm_id":7355030338}},{"type":"Feature","geometry":{"type":"Point","coordinates":[1.2661079,45.8551829]},"properties":{"category":"repair","name":"Association Véli-Vélo","opening_hours":"We 15:00-18:00; Th 15:00-18:00; Sa 15:00-18:00","phone":"+33 7 66 49 44 96","website":"https://velivelo-limoges.org/","osm_id":8635414495}},{"type":"Feature","geometry":{"type":"Point","coordinates":[1.2816094,45.8120666]},"properties":{"category":"compressed_air","osm_id":11276824512}},{"type":"Feature","geometry":{"type":"Point","coordinates":[1.2181534,45.806703]},"properties":{"category":"repair","osm_id":13114520657}},{"type":"Feature","geometry":{"type":"Point","coordinates":[1.2540629,45.8403675]},"properties":{"category":"compressed_air","osm_id":14123744872}}]}