{"type":"FeatureCollection","features":[{"type":"Feature","geometry":{"type":"Point","coordinates":[1.3418183,45.9235609]},"properties":{"category":"bakery","name":"Le Fournil aux Gourmandises","opening_hours":"Mo-Sa 06:00-13:00,15:00-19:30","phone":"+33 5 55 39 94 39","osm_id":2749306562}},{"type":"Feature","geometry":{"type":"Point","coordinates":[1.3182896,45.9017891]},"properties":{"category":"bakery","name":"Le Palais Gourmand","opening_hours":"Tu-Sa 07:00-13:00,15:00-19:00; Su 07:00-13:00","phone":"+33 5 55 39 40 59","osm_id":4225318680}},{"type":"Feature","geometry":{"type":"Point","coordinates":[1.3157643,45.9014484]},"properties":{"category":"bakery","name":"La Boulangerie LB","opening_hours":"Mo-Sa 06:00-19:30","phone":"+33 5 55 56 63 50","osm_id":7358492129}}]}