{"type":"FeatureCollection","features":[{"type":"Feature","geometry":{"type":"Point","coordinates":[2.1716707,45.95747]},"properties":{"category":"bakery","name":"Pâtisserie Rullière","opening_hours":"We-Sa 08:00-12:30,14:30-19:00; Su 08:00-13:00; Mo,Tu off","osm_id":6825806110}},{"type":"Feature","geometry":{"type":"Point","coordinates":[2.1673307,45.956106]},"properties":{"category":"bakery","name":"La Noisettine","osm_id":6849287999}},{"type":"Feature","geometry":{"type":"Point","coordinates":[2.164067,45.9539039]},"properties":{"category":"shop","name":"L'atelier du cycliste","opening_hours":"Mo-Tu,Th-Sa 09:00-12:00,14:00-18:00; We off","phone":"+336 31 88 92 26","website":"https://www.facebook.com/Latelier-du-cycliste-107673317676691/","osm_id":6850256420}},{"type":"Feature","geometry":{"type":"Point","coordinates":[2.1705117,45.9556329]},"properties":{"category":"bakery","name":"Sauvanet","osm_id":6850256460}},{"type":"Feature","geometry":{"type":"Point","coordinates":[2.1727179,45.9577463]},"properties":{"category":"bakery","name":"La Noisettine","osm_id":9272104566}},{"type":"Feature","geometry":{"type":"Point","coordinates":[2.1630022,45.9537373]},"properties":{"category":"bakery","name":"Les Délices d'Alice","opening_hours":"Mo,We-Su 08:00-13:00","osm_id":11062846474}},{"type":"Feature","geometry":{"type":"Point","coordinates":[2.1927247,45.9635739]},"properties":{"category":"compressed_air","osm_id":13021090526}}]}