{"type":"FeatureCollection","features":[{"type":"Feature","geometry":{"type":"Point","coordinates":[5.3351246,45.9645003]},"properties":{"category":"shop","name":"Cycles Di Lullo","phone":"+33 4 74 38 23 00","website":"http://www.dilullo.fr/dilullo/Amberieu.html","osm_id":1528441681}},{"type":"Feature","geometry":{"type":"Point","coordinates":[5.3580576,45.960456]},"properties":{"category":"bakery","name":"Maison Bochard","osm_id":1687420784}},{"type":"Feature","geometry":{"type":"Point","coordinates":[5.3473815,45.9025381]},"properties":{"category":"bakery","name":"l'Atelier","opening_hours":"Mo-Sa 04:00-20:00; Su 06:00-13:00","osm_id":2614809531}},{"type":"Feature","geometry":{"type":"Point","coordinates":[5.3563409,45.9286387]},"properties":{"category":"bakery","osm_id":3199214963}},{"type":"Feature","geometry":{"type":"Point","coordinates":[5.3421586,45.9544894]},"properties":{"category":"bakery","name":"La Mie Dorée","osm_id":3429838235}},{"type":"Feature","geometry":{"type":"Point","coordinates":[5.3414159,45.9546007]},"properties":{"category":"bakery","name":"Boulangerie Bala","osm_id":3431595248}},{"type":"Feature","geometry":{"type":"Point","coordinates":[5.3466998,45.9560416]},"properties":{"category":"bakery","name":"Boulangerie de la Gare","osm_id":3431595249}},{"type":"Feature","geometry":{"type":"Point","coordinates":[5.3583607,45.9592132]},"properties":{"category":"bakery","name":"Boulangerie Randot","osm_id":4579791695}},{"type":"Feature","geometry":{"type":"Point","coordinates":[5.3154637,45.9767129]},"properties":{"category":"shop","name":"Giant Store Ambérieu","opening_hours":"Tu-Fr 09:00-12:00,14:00-19:00; Sa 09:00-19:00","phone":"+33 4 74 39 08 39","website":"https://www.giant-chateau-gaillard-amberieu.fr/fr","osm_id":7656892156}},{"type":"Feature","geometry":{"type":"Point","coordinates":[5.3123242,45.9756896]},"properties":{"category":"shop","name":"Exacycle","phone":"+33 6 33 20 42 44","osm_id":7657113506}},{"type":"Feature","geometry":{"type":"Point","coordinates":[5.3445297,45.9627671]},"properties":{"category":"bakery","name":"Banette","opening_hours":"Mo-Fr 05:00-19:00; Sa 05:00-18:00","phone":"+33 4 74 34 51 01","osm_id":9935964347}},{"type":"Feature","geometry":{"type":"Point","coordinates":[5.3419087,45.9542663]},"properties":{"category":"repair","osm_id":12617833638}}]}