{"type":"FeatureCollection","features":[{"type":"Feature","geometry":{"type":"Point","coordinates":[-1.3558987,45.9718535]},"properties":{"category":"shop","osm_id":860922367}},{"type":"Feature","geometry":{"type":"Point","coordinates":[-1.337066,45.9196956]},"properties":{"category":"shop","name":"Passion Loisir Océan","phone":"+33 5 46 47 10 91","osm_id":1569469704}},{"type":"Feature","geometry":{"type":"Point","coordinates":[-1.3135473,45.9402487]},"properties":{"category":"shop","name":"Vélo 17 loisir","osm_id":3036034524}},{"type":"Feature","geometry":{"type":"Point","coordinates":[-1.3315375,45.917793]},"properties":{"category":"shop","name":"Roule écoléron","osm_id":8952082794}},{"type":"Feature","geometry":{"type":"Point","coordinates":[-1.3257388,45.9151269]},"properties":{"category":"repair","opening_hours":"24/7","osm_id":13298475383}}]}