{"type":"FeatureCollection","features":[{"type":"Feature","geometry":{"type":"Point","coordinates":[6.245242,45.9965032]},"properties":{"category":"bakery","name":"Fournil des Glières","opening_hours":"Mo-Su 06:00-19:30","phone":"+33 4 50 22 42 48","osm_id":1860241946}},{"type":"Feature","geometry":{"type":"Point","coordinates":[6.2478999,45.9968825]},"properties":{"category":"bakery","name":"Délices Al'pain","osm_id":1867279157}},{"type":"Feature","geometry":{"type":"Point","coordinates":[6.2497539,45.9964834]},"properties":{"category":"repair","name":"Aire de service vélo Thorens Glières - Mairie déléguée","opening_hours":"24/7","osm_id":8626527347}}]}