{"type":"FeatureCollection","features":[{"type":"Feature","geometry":{"type":"Point","coordinates":[4.986155,45.9492312]},"properties":{"category":"bakery","osm_id":871832027}},{"type":"Feature","geometry":{"type":"Point","coordinates":[4.9506493,45.9253313]},"properties":{"category":"bakery","name":"La manufacture des pains","opening_hours":"Tu-Sa 06:00-19:30; Su 06:00-13:00","osm_id":1839752123}},{"type":"Feature","geometry":{"type":"Point","coordinates":[4.9513297,45.9263497]},"properties":{"category":"bakery","name":"Banette","opening_hours":"Mo-Sa 06:00-19:30; Su 06:00-18:00","osm_id":1839752390}},{"type":"Feature","geometry":{"type":"Point","coordinates":[4.9026733,45.9979923]},"properties":{"category":"bakery","name":"La Manufacture des Pains","opening_hours":"Tu-Su","osm_id":3388432195}},{"type":"Feature","geometry":{"type":"Point","coordinates":[4.9642197,45.9361667]},"properties":{"category":"shop","name":"Cycle'n co St André","opening_hours":"Mo-Fr 09:00-12:00,14:00-19:00; Sa 18:00+ off","website":"https://www.cycle-nco.fr/","osm_id":6819756858}},{"type":"Feature","geometry":{"type":"Point","coordinates":[4.9555136,45.9296242]},"properties":{"category":"bakery","name":"NATUREA Le Boulanger","opening_hours":"PH,Mo-Su 06:00-20:00","phone":"+33 4 28 70 17 27","osm_id":9066106399}}]}