{"type":"FeatureCollection","features":[{"type":"Feature","geometry":{"type":"Point","coordinates":[5.1708663,45.9971032]},"properties":{"category":"bakery","name":"Au four bressan","opening_hours":"Mo-Su 06:00-13:00","osm_id":1658177591}},{"type":"Feature","geometry":{"type":"Point","coordinates":[5.1907657,45.9024849]},"properties":{"category":"bakery","name":"Boulangerie Cizaire","opening_hours":"Mo-Fr 06:30-19:00; Sa 06:30-14:00","osm_id":3376839220}},{"type":"Feature","geometry":{"type":"Point","coordinates":[5.1986856,45.9011953]},"properties":{"category":"bakery","name":"Banette","osm_id":7857288433}},{"type":"Feature","geometry":{"type":"Point","coordinates":[5.192186,45.9036518]},"properties":{"category":"bakery","name":"Patrick Rosa","opening_hours":"Tu-Sa 06:00-19:00; Su 06:00-18:30","osm_id":8280128305}},{"type":"Feature","geometry":{"type":"Point","coordinates":[5.1805439,45.903245]},"properties":{"category":"bakery","name":"Didier Rapaud","phone":"+33 4 74 61 39 81","osm_id":9620496419}},{"type":"Feature","geometry":{"type":"Point","coordinates":[5.1746004,45.9987161]},"properties":{"category":"compressed_air","osm_id":14008187975}}]}