{"type":"FeatureCollection","features":[{"type":"Feature","geometry":{"type":"Point","coordinates":[6.4104857,45.92301]},"properties":{"category":"bakery","name":"Boulangerie Capucine","phone":"+33 4 50 77 36 30","osm_id":939966315}},{"type":"Feature","geometry":{"type":"Point","coordinates":[6.408109,45.9221356]},"properties":{"category":"bakery","name":"Maison Perreau","opening_hours":"Mo-Tu 06:30-19:30; Th-Sa 06:30-19:30; Su 07:00-18:00","osm_id":947017839}},{"type":"Feature","geometry":{"type":"Point","coordinates":[6.4268915,45.9422476]},"properties":{"category":"bakery","name":"Pâtisserie Boulangerie Maison Bétemps","opening_hours":"Mo-Su 06:30-19:00","phone":"+33 4 50 02 20 03","osm_id":2130986825}},{"type":"Feature","geometry":{"type":"Point","coordinates":[6.4250674,45.9057821]},"properties":{"category":"bakery","name":"Manez","osm_id":2629248952}},{"type":"Feature","geometry":{"type":"Point","coordinates":[6.4282831,45.9062309]},"properties":{"category":"bakery","name":"l'Atelier du Pain","opening_hours":"Mo-Su 06:30-19:00","osm_id":2631753704}},{"type":"Feature","geometry":{"type":"Point","coordinates":[6.4236908,45.9046142]},"properties":{"category":"bakery","osm_id":7642819652}},{"type":"Feature","geometry":{"type":"Point","coordinates":[6.4276609,45.9426457]},"properties":{"category":"bakery","name":"Boulangerie pâtisserie Vulliet","osm_id":9382480480}},{"type":"Feature","geometry":{"type":"Point","coordinates":[6.4578654,45.974981]},"properties":{"category":"bakery","name":"Le petit marquis","opening_hours":"Mo-Su 07:00-13:00, 16:00-18:45","osm_id":9919300825}},{"type":"Feature","geometry":{"type":"Point","coordinates":[6.4113463,45.9231954]},"properties":{"category":"shop","name":"Altitude Cycle","opening_hours":"We-Sa 10:00-18:30; Su 09:00-13:00","phone":"+33 457418457","website":"https://www.altitude-cycle.fr","osm_id":11623562344}}]}