{"type":"FeatureCollection","features":[{"type":"Feature","geometry":{"type":"Point","coordinates":[-1.0089508,45.9258338]},"properties":{"category":"bakery","name":"Boulangerie","osm_id":2309537158}},{"type":"Feature","geometry":{"type":"Point","coordinates":[-1.0935008,45.9880944]},"properties":{"category":"bakery","name":"Loulou","opening_hours":"Tu-Su 07:00-19:00","osm_id":3639846025}},{"type":"Feature","geometry":{"type":"Point","coordinates":[-1.0959778,45.9863212]},"properties":{"category":"bakery","name":"L'Épi Sucré","opening_hours":"Th-Tu 07:30-13:30,14:30-19:30","osm_id":3667271921}},{"type":"Feature","geometry":{"type":"Point","coordinates":[-1.0787322,45.9477334]},"properties":{"category":"bakery","name":"Moineau Cédric","opening_hours":"Mo,We-Sa 06:30-12:30,16:30-19:30; Tu,Su 06:30-12:30","osm_id":4004583106}},{"type":"Feature","geometry":{"type":"Point","coordinates":[-1.0782788,45.9489618]},"properties":{"category":"bakery","name":"La Renaissance","osm_id":8571879760}},{"type":"Feature","geometry":{"type":"Point","coordinates":[-1.0764951,45.9905453]},"properties":{"category":"compressed_air","osm_id":10012474897}},{"type":"Feature","geometry":{"type":"Point","coordinates":[-1.0518779,45.9360481]},"properties":{"category":"bakery","name":"Au grain de folie","opening_hours":"PH,Th-Tu 07:00-13:00, Mo,Tu,Th-Sa 16:00-19:00","phone":"+33971462293","osm_id":11050467442}},{"type":"Feature","geometry":{"type":"Point","coordinates":[-1.0369451,45.9043753]},"properties":{"category":"bakery","name":"Le blédici","osm_id":11054192555}},{"type":"Feature","geometry":{"type":"Point","coordinates":[-1.0272241,45.9925489]},"properties":{"category":"repair","osm_id":12574348768}},{"type":"Feature","geometry":{"type":"Point","coordinates":[-1.098328,45.9928025]},"properties":{"category":"repair","osm_id":12574348770}}]}