{"type":"FeatureCollection","features":[{"type":"Feature","geometry":{"type":"Point","coordinates":[5.9350234,45.9008227]},"properties":{"category":"bakery","name":"Au bon levain","opening_hours":"Mo-Sa 06:00-19:30; Su 09:00-18:00","osm_id":1816678412}},{"type":"Feature","geometry":{"type":"Point","coordinates":[5.9983083,45.9287856]},"properties":{"category":"bakery","name":"La Bona Forna","phone":"+33450605924","website":"http://www.labonaforna.com/","osm_id":6048802856}},{"type":"Feature","geometry":{"type":"Point","coordinates":[5.9748144,45.9036338]},"properties":{"category":"bakery","name":"FIER ET CROUSTILLANT","opening_hours":"Mo off; Tu-Sa 06:30-12:30,16:00-19:00; Su 06:30-12:30","phone":"+33 9 51794543","osm_id":9986325249}}]}