{"type":"FeatureCollection","features":[{"type":"Feature","geometry":{"type":"Point","coordinates":[4.7302977,45.9024749]},"properties":{"category":"compressed_air","osm_id":691281088}},{"type":"Feature","geometry":{"type":"Point","coordinates":[4.7147081,45.9443265]},"properties":{"category":"compressed_air","osm_id":1392691755}},{"type":"Feature","geometry":{"type":"Point","coordinates":[4.716988,45.9764885]},"properties":{"category":"shop","name":"Vélonaute","osm_id":1392691760}},{"type":"Feature","geometry":{"type":"Point","coordinates":[4.7029563,45.9132811]},"properties":{"category":"bakery","name":"Aux Pains d'Antan","opening_hours":"Tu-Fr 06:00-13:00,15:30-19:30; Sa 06:00-13:00,16:00-19:00; Su 06:00-12:30","phone":"+33 9 87 09 16 32","osm_id":1392808043}},{"type":"Feature","geometry":{"type":"Point","coordinates":[4.72017,45.9847827]},"properties":{"category":"bakery","name":"Les caprices de Melo","opening_hours":"Mo-Fr 05:00-19:00; Sa 07:00-13:00","osm_id":1778418187}},{"type":"Feature","geometry":{"type":"Point","coordinates":[4.7354326,45.9451245]},"properties":{"category":"bakery","name":"Christophe","opening_hours":"Mo-Fr 07:00-13:00,15:30-19:30; Sa 08:00-13:00","osm_id":1837465430}},{"type":"Feature","geometry":{"type":"Point","coordinates":[4.7144154,45.9331824]},"properties":{"category":"bakery","name":"Corne d'Abond'Anse","opening_hours":"Mo-Su 06:00-19:30","phone":"+33 4 74 60 25 30","osm_id":1855028940}},{"type":"Feature","geometry":{"type":"Point","coordinates":[4.740728,45.9842356]},"properties":{"category":"bakery","name":"Boulangerie Ange","opening_hours":"Mo-Sa 06:30-20:00","osm_id":1947693995}},{"type":"Feature","geometry":{"type":"Point","coordinates":[4.7406971,45.9838129]},"properties":{"category":"bakery","name":"Boulangerie de l'Orient","osm_id":1947693997}},{"type":"Feature","geometry":{"type":"Point","coordinates":[4.7527841,45.9854871]},"properties":{"category":"shop","name":"Cycles Antonin Rolland","phone":"+33474609005","osm_id":1947694089}},{"type":"Feature","geometry":{"type":"Point","coordinates":[4.7579059,45.9860849]},"properties":{"category":"bakery","name":"Henri Thivand","osm_id":1947694138}},{"type":"Feature","geometry":{"type":"Point","coordinates":[4.7577454,45.9848323]},"properties":{"category":"bakery","name":"Les Petits Pains du Riottier","osm_id":1947694198}},{"type":"Feature","geometry":{"type":"Point","coordinates":[4.7535964,45.9853303]},"properties":{"category":"bakery","name":"Pains et Gourmandises","osm_id":1947694252}},{"type":"Feature","geometry":{"type":"Point","coordinates":[4.776057,45.9404672]},"properties":{"category":"bakery","name":"Maison Chazelle","opening_hours":"Mo-Fr 06:30-19:00; Sa 06:30-12:00","osm_id":2362588324}},{"type":"Feature","geometry":{"type":"Point","coordinates":[4.779941,45.9553878]},"properties":{"category":"bakery","name":"Le Fournil de Saint-Did'","osm_id":2592508526}},{"type":"Feature","geometry":{"type":"Point","coordinates":[4.7181818,45.9871192]},"properties":{"category":"bakery","name":"Boulangerie Chez Jules","opening_hours":"Mo-Fr 07:00-19:00","website":"https://boulangeriechezjules.fr/","osm_id":2665451156}},{"type":"Feature","geometry":{"type":"Point","coordinates":[4.7781943,45.9402288]},"properties":{"category":"bakery","name":"Cédric Cormarèche Pâtissier","opening_hours":"Tu-Sa 07:30-12:30, 14:30-19:30; Su 07:30-13:00, 14:30-17:30","osm_id":2987889833}},{"type":"Feature","geometry":{"type":"Point","coordinates":[4.7809203,45.9402432]},"properties":{"category":"bakery","name":"La Huche à Pain","opening_hours":"Mo-Su","osm_id":3015164982}},{"type":"Feature","geometry":{"type":"Point","coordinates":[4.7783652,45.9402037]},"properties":{"category":"bakery","name":"Aux mille douceurs","opening_hours":"Tu-Sa 06:30-19:00","osm_id":3831563101}},{"type":"Feature","geometry":{"type":"Point","coordinates":[4.7155767,45.9416759]},"properties":{"category":"bakery","name":"L'Atelier de Steph","opening_hours":"Mo-Tu,Th-Sa 06:00-19:30; Su 06:00-14:00","phone":"+33474070476","website":"https://order.fyre.app/RvcWhsJYsgTdNATfxPE7","osm_id":4697439361}},{"type":"Feature","geometry":{"type":"Point","coordinates":[4.7400591,45.9800018]},"properties":{"category":"bakery","name":"Marie Blachère","osm_id":5361420511}},{"type":"Feature","geometry":{"type":"Point","coordinates":[4.7809114,45.9402422]},"properties":{"category":"bakery","name":"L'Atelier de Stéph","opening_hours":"Mo, Tu, Th, Fr 06:30-13:30, 15:00-19:30; Sa 07:00-13:30, 16:00-19:30; Su 07:00-13:30","osm_id":5536237190}},{"type":"Feature","geometry":{"type":"Point","coordinates":[4.7192331,45.9953014]},"properties":{"category":"bakery","name":"Instinct Gourmand","phone":"+33 474651378","website":"https://www.nicolaslepatissier.fr/details-instinct+gourmand-19.html","osm_id":5879941455}},{"type":"Feature","geometry":{"type":"Point","coordinates":[4.7181679,45.9847094]},"properties":{"category":"bakery","name":"Nicolas Philippe","opening_hours":"We-Su 06:00-19:30","osm_id":5879942148}},{"type":"Feature","geometry":{"type":"Point","coordinates":[4.7179976,45.9825586]},"properties":{"category":"bakery","name":"Le Pain & Jo","opening_hours":"Tu-Sa 07:30-19:00","phone":"+33 4 27 49 66 99","website":"https://www.lepainetjo.fr/","osm_id":5879942192}},{"type":"Feature","geometry":{"type":"Point","coordinates":[4.7180808,45.9836946]},"properties":{"category":"bakery","name":"Boulangerie Patisserie Patrice Gonon - Festival des pains","opening_hours":"Tu-Sa 06:00-13:00, Tu-Sa 15:30-19:15, Su 06:00-13:00; Mo off","osm_id":5879942227}},{"type":"Feature","geometry":{"type":"Point","coordinates":[4.7994191,45.9701017]},"properties":{"category":"bakery","name":"Le Pain Euphemien","opening_hours":"Mo-Su 05:00-13:30,15:00-19:00","osm_id":5897428332}},{"type":"Feature","geometry":{"type":"Point","coordinates":[4.7067701,45.9751839]},"properties":{"category":"bakery","osm_id":6227750200}},{"type":"Feature","geometry":{"type":"Point","coordinates":[4.7192093,45.9379364]},"properties":{"category":"bakery","name":"Anthony dequenoy","osm_id":6631831172}},{"type":"Feature","geometry":{"type":"Point","coordinates":[4.7242466,45.934225]},"properties":{"category":"bakery","name":"La boulangerie","opening_hours":"Mo-Fr 06:30-19:30; Sa 07:00-13:00","phone":"+33474097563","osm_id":7131858148}},{"type":"Feature","geometry":{"type":"Point","coordinates":[4.7161396,45.9954993]},"properties":{"category":"bakery","name":"L'atelier","osm_id":7156428158}},{"type":"Feature","geometry":{"type":"Point","coordinates":[4.7326653,45.9793638]},"properties":{"category":"bakery","name":"Banette","osm_id":7529713721}},{"type":"Feature","geometry":{"type":"Point","coordinates":[4.7194438,45.9994681]},"properties":{"category":"bakery","name":"Boulangerie Popy","opening_hours":"Mo-Fr 05:30-19:00","osm_id":7554818119}},{"type":"Feature","geometry":{"type":"Point","coordinates":[4.7840961,45.9331016]},"properties":{"category":"repair","opening_hours":"We-Su","osm_id":8922619453}},{"type":"Feature","geometry":{"type":"Point","coordinates":[4.7575345,45.9881342]},"properties":{"category":"bakery","name":"Firmin","osm_id":9988736904}},{"type":"Feature","geometry":{"type":"Point","coordinates":[4.7167143,45.9728154]},"properties":{"category":"bakery","name":"Marie Blachère","osm_id":11196561441}},{"type":"Feature","geometry":{"type":"Point","coordinates":[4.7182492,45.9877672]},"properties":{"category":"bakery","name":"Maison Jeandeau","opening_hours":"Tu-Sa 06:00-19:15","website":"https://maison-jeandeau.fr/","osm_id":11304366630}},{"type":"Feature","geometry":{"type":"Point","coordinates":[4.7192011,45.996041]},"properties":{"category":"bakery","name":"Boulangerie-Pâtisserie Cédric Sangouard","opening_hours":"Mo-Fr 05:30-19:00; Sa 05:30-16:00","osm_id":11346169569}},{"type":"Feature","geometry":{"type":"Point","coordinates":[4.7186961,45.9920642]},"properties":{"category":"bakery","name":"La boulangerie","osm_id":11400056372}},{"type":"Feature","geometry":{"type":"Point","coordinates":[4.7158559,45.9882373]},"properties":{"category":"bakery","name":"La boulangerie des Arts","opening_hours":"Mo-Sa 06:00-19:30; Su 08:00-18:30","osm_id":11410243469}},{"type":"Feature","geometry":{"type":"Point","coordinates":[4.725219,45.9323518]},"properties":{"category":"bakery","name":"Boulangerie du Marché","opening_hours":"Mo-Sa 06:30-20:00; Su 06:30-12:30","phone":"+33427802059","osm_id":11522308821}},{"type":"Feature","geometry":{"type":"Point","coordinates":[4.7189109,45.9952692]},"properties":{"category":"repair","osm_id":11936391353}},{"type":"Feature","geometry":{"type":"Point","coordinates":[4.7149412,45.9894911]},"properties":{"category":"repair","osm_id":11936391354}},{"type":"Feature","geometry":{"type":"Point","coordinates":[4.7209132,45.9849493]},"properties":{"category":"repair","osm_id":11936391355}},{"type":"Feature","geometry":{"type":"Point","coordinates":[4.7182947,45.9881425]},"properties":{"category":"bakery","name":"L'épi de blé","opening_hours":"Mo-Sa 09:00-19:00","osm_id":12376096701}},{"type":"Feature","geometry":{"type":"Point","coordinates":[4.7169118,45.9899026]},"properties":{"category":"bakery","name":"Boulang & Joh","osm_id":12390057701}},{"type":"Feature","geometry":{"type":"Point","coordinates":[4.7296303,45.9982468]},"properties":{"category":"repair","osm_id":12568387286}},{"type":"Feature","geometry":{"type":"Point","coordinates":[4.706501,45.9989991]},"properties":{"category":"repair","osm_id":12593090297}},{"type":"Feature","geometry":{"type":"Point","coordinates":[4.7513345,45.9979191]},"properties":{"category":"repair","osm_id":12598126249}},{"type":"Feature","geometry":{"type":"Point","coordinates":[4.7720416,45.9399813]},"properties":{"category":"repair","osm_id":12604577029}},{"type":"Feature","geometry":{"type":"Point","coordinates":[4.7300044,45.9454757]},"properties":{"category":"repair","osm_id":12749927706}},{"type":"Feature","geometry":{"type":"Point","coordinates":[4.7515447,45.9968885]},"properties":{"category":"repair","osm_id":12795840348}},{"type":"Feature","geometry":{"type":"Point","coordinates":[4.7520925,45.9875049]},"properties":{"category":"repair","osm_id":12795853758}},{"type":"Feature","geometry":{"type":"Point","coordinates":[4.7772346,45.9149115]},"properties":{"category":"bakery","name":"Boulangerie Gastaldi","opening_hours":"Tu-Fr 06:30-19:30; Sa 07:00-19:30; Su 07:00-12:30","phone":"+33 4 72 26 30 46","osm_id":13105240192}},{"type":"Feature","geometry":{"type":"Point","coordinates":[4.7572372,45.9847709]},"properties":{"category":"repair","osm_id":13156137228}},{"type":"Feature","geometry":{"type":"Point","coordinates":[4.7842072,45.9330011]},"properties":{"category":"shop","name":"La Roue Libre - Café-Vélo Trévoux","osm_id":13164679115}},{"type":"Feature","geometry":{"type":"Point","coordinates":[4.7143276,45.9571535]},"properties":{"category":"shop","name":"Esprit Vélo","opening_hours":"Tu-Fr 09:00-12:00,14:00-19:00; Sa 09:00-12:00,14:00-18:00","phone":"+33 4 74 68 09 62","website":"https://www.esprit-velo.com/","osm_id":13200265475}},{"type":"Feature","geometry":{"type":"Point","coordinates":[4.7337631,45.9838999]},"properties":{"category":"bakery","name":"Marie Blachère","osm_id":13236279190}},{"type":"Feature","geometry":{"type":"Point","coordinates":[4.734045,45.9941181]},"properties":{"category":"bakery","name":"Le Pain de Christain","phone":"+33 4 74 09 59 16","osm_id":13244556973}},{"type":"Feature","geometry":{"type":"Point","coordinates":[4.7843745,45.9326344]},"properties":{"category":"repair","osm_id":13951124709}},{"type":"Feature","geometry":{"type":"Point","coordinates":[4.7191635,45.9945281]},"properties":{"category":"bakery","opening_hours":"Mo-We,Fr,Sa 05:30-19:00; Su 05:30-13:00","osm_id":14022608354}},{"type":"Feature","geometry":{"type":"Point","coordinates":[4.7060831,45.975126]},"properties":{"category":"repair","osm_id":14087613806}}]}