{"type":"FeatureCollection","features":[{"type":"Feature","geometry":{"type":"Point","coordinates":[5.8352411,45.9592868]},"properties":{"category":"bakery","name":"Maison Hadrien","opening_hours":"Mo-Tu,Th-Sa 06:45-19:00; We off; Su 06:45-13:00","phone":"+33450592152","osm_id":1222800731}},{"type":"Feature","geometry":{"type":"Point","coordinates":[5.8365383,45.9621971]},"properties":{"category":"bakery","name":"Chevallier","opening_hours":"Mo-Su 08:00-20:00","osm_id":5634802018}},{"type":"Feature","geometry":{"type":"Point","coordinates":[5.8398852,45.9516579]},"properties":{"category":"shop","name":"Atelier cycles Grand Colombier","opening_hours":"Mo-Fr 08:30-12:00,14:00-18:30; Sa,Su,PH off; Jul-Sep: Sa,Su,PH 09:00-12:00,14:00-18:30","phone":"+336 59 89 03 54","website":"https://www.ateliercyclesgrandcolombier.com/","osm_id":12112662774}}]}