{"type":"FeatureCollection","features":[{"type":"Feature","geometry":{"type":"Point","coordinates":[4.5280931,45.9182614]},"properties":{"category":"bakery","osm_id":1827788136}},{"type":"Feature","geometry":{"type":"Point","coordinates":[4.5846251,45.9215858]},"properties":{"category":"bakery","osm_id":2784826793}},{"type":"Feature","geometry":{"type":"Point","coordinates":[4.5307972,45.9498688]},"properties":{"category":"bakery","osm_id":2953191347}},{"type":"Feature","geometry":{"type":"Point","coordinates":[4.574697,45.9070705]},"properties":{"category":"bakery","name":"Le grenier gourmand","osm_id":3966839487}},{"type":"Feature","geometry":{"type":"Point","coordinates":[4.5855005,45.9203034]},"properties":{"category":"bakery","name":"Boulangerie Barosso","osm_id":9043932817}},{"type":"Feature","geometry":{"type":"Point","coordinates":[4.5110559,45.9359521]},"properties":{"category":"shop","name":"Trappeur cycles","website":"http://trappeurcycles.fr/","osm_id":9051295680}},{"type":"Feature","geometry":{"type":"Point","coordinates":[4.5753197,45.9071114]},"properties":{"category":"shop","name":"L'équipier","osm_id":13786899541}}]}