{"type":"FeatureCollection","features":[{"type":"Feature","geometry":{"type":"Point","coordinates":[-0.8924725,45.9182846]},"properties":{"category":"bakery","name":"Aux Gourmandises d'Emma","osm_id":2140047672}},{"type":"Feature","geometry":{"type":"Point","coordinates":[-0.8967703,45.9522267]},"properties":{"category":"bakery","osm_id":6699179533}},{"type":"Feature","geometry":{"type":"Point","coordinates":[-0.8558102,45.9269386]},"properties":{"category":"bakery","osm_id":6707416290}},{"type":"Feature","geometry":{"type":"Point","coordinates":[-0.827292,45.9613635]},"properties":{"category":"bakery","name":"Chez David","osm_id":12227790270}},{"type":"Feature","geometry":{"type":"Point","coordinates":[-0.8620553,45.9276633]},"properties":{"category":"repair","osm_id":12574348772}},{"type":"Feature","geometry":{"type":"Point","coordinates":[-0.8916202,45.9437199]},"properties":{"category":"bakery","name":"Boulangerie de la Barrière","osm_id":13098669635}}]}