{"type":"FeatureCollection","features":[{"type":"Feature","geometry":{"type":"Point","coordinates":[4.3328868,45.972666]},"properties":{"category":"shop","name":"Ampl' vélos","opening_hours":"Tu 08:30-12:00; We-Sa 08:30-12:00,14:30-19:00","phone":"+33 4 74 64 09 16","osm_id":5062603327}},{"type":"Feature","geometry":{"type":"Point","coordinates":[4.3277521,45.9738196]},"properties":{"category":"bakery","name":"Le Four à Bois","osm_id":7807309759}},{"type":"Feature","geometry":{"type":"Point","coordinates":[4.3258397,45.9734498]},"properties":{"category":"bakery","name":"Boulangerie-Pâtisserie Coquard","osm_id":7807309774}},{"type":"Feature","geometry":{"type":"Point","coordinates":[4.3327763,45.9725176]},"properties":{"category":"bakery","name":"Boulangerie Pâtisserie Vermorel","osm_id":12463580031}}]}