{"type":"FeatureCollection","features":[{"type":"Feature","geometry":{"type":"Point","coordinates":[4.3134081,46.0295886]},"properties":{"category":"bakery","name":"Clarin","osm_id":1777462608}},{"type":"Feature","geometry":{"type":"Point","coordinates":[4.3113154,46.0320643]},"properties":{"category":"bakery","name":"Des Sapins","osm_id":1777462780}},{"type":"Feature","geometry":{"type":"Point","coordinates":[4.3017418,46.0345615]},"properties":{"category":"bakery","name":"Patisserie","osm_id":1777486301}},{"type":"Feature","geometry":{"type":"Point","coordinates":[4.3122962,46.0316213]},"properties":{"category":"bakery","name":"Barbeys","osm_id":1778603495}},{"type":"Feature","geometry":{"type":"Point","coordinates":[4.3138401,46.0306539]},"properties":{"category":"bakery","name":"Saint-Jean","osm_id":2012871130}}]}