{"type":"FeatureCollection","features":[{"type":"Feature","geometry":{"type":"Point","coordinates":[6.7247311,46.0833159]},"properties":{"category":"shop","name":"Tout pour le vélo","phone":"+33 4 50 34 93 67","osm_id":1389948031}},{"type":"Feature","geometry":{"type":"Point","coordinates":[6.7243893,46.0831308]},"properties":{"category":"shop","name":"Planète Glisse","phone":"+33 4 50 90 57 69","website":"https://www.skimium.fr/magasin-location-ski/samoens/planete-glisse-samoens","osm_id":1393546671}},{"type":"Feature","geometry":{"type":"Point","coordinates":[6.7237426,46.0846717]},"properties":{"category":"shop","name":"Intersport","osm_id":3610976011}},{"type":"Feature","geometry":{"type":"Point","coordinates":[6.7237567,46.0827103]},"properties":{"category":"shop","name":"Sport 2000","opening_hours":"Mo-Su 08:30-19:00","phone":"+33 4 50 34 42 14","website":"https://passionglisse.sport2000.fr","osm_id":3987097530}},{"type":"Feature","geometry":{"type":"Point","coordinates":[6.7207526,46.0764369]},"properties":{"category":"wash","opening_hours":"summer","osm_id":4256073216}},{"type":"Feature","geometry":{"type":"Point","coordinates":[6.7273898,46.0814542]},"properties":{"category":"shop","name":"Mountain Spirit","website":"https://mountainspirit-sports.com/","osm_id":8121104310}}]}