{"type":"FeatureCollection","features":[{"type":"Feature","geometry":{"type":"Point","coordinates":[-0.3466184,46.0208953]},"properties":{"category":"bakery","name":"O'Donjon des Gourmets","osm_id":6518498771}},{"type":"Feature","geometry":{"type":"Point","coordinates":[-0.3467412,46.020495]},"properties":{"category":"bakery","name":"Boulangerie du Centre","phone":"+33 5 46 33 13 75","osm_id":8989799676}},{"type":"Feature","geometry":{"type":"Point","coordinates":[-0.3484659,46.0209979]},"properties":{"category":"bakery","osm_id":8999408668}},{"type":"Feature","geometry":{"type":"Point","coordinates":[-0.3553809,46.0239985]},"properties":{"category":"bakery","osm_id":11936868631}}]}