{"type":"FeatureCollection","features":[{"type":"Feature","geometry":{"type":"Point","coordinates":[3.2015871,46.0216481]},"properties":{"category":"bakery","name":"Boulangerie Giraud","osm_id":6495022000}},{"type":"Feature","geometry":{"type":"Point","coordinates":[3.2010061,46.0184688]},"properties":{"category":"bakery","name":"Boulangerie Goncalves","osm_id":6495022001}},{"type":"Feature","geometry":{"type":"Point","coordinates":[3.2025429,46.0225927]},"properties":{"category":"bakery","name":"Maison Vernet","opening_hours":"Tu-Su 06:30-19:00","phone":"+33 4 73 63 61 85","osm_id":12290182301}},{"type":"Feature","geometry":{"type":"Point","coordinates":[3.253343,46.0413456]},"properties":{"category":"shop","name":"retour-en-selle","opening_hours":"Mo,Tu,We,Fr 08:30-12:30, 15:00-19:00; Sa 08:30-12:30; Fr Off","phone":"+33615117832","website":"https://linktr.ee/retour_en_selle","osm_id":13065053037}},{"type":"Feature","geometry":{"type":"Point","coordinates":[3.2008721,46.084089]},"properties":{"category":"compressed_air","osm_id":13347658698}}]}