{"type":"FeatureCollection","features":[{"type":"Feature","geometry":{"type":"Point","coordinates":[5.0291961,46.0015976]},"properties":{"category":"bakery","name":"L'épi d'or des Dombes","opening_hours":"Th-Tu,PH 05:30-19:30","osm_id":1779559795}},{"type":"Feature","geometry":{"type":"Point","coordinates":[5.0893569,46.0218758]},"properties":{"category":"bakery","name":"Au Coeur de la Dombes","opening_hours":"Th-Tu 07:00-19:00","phone":"+33474980101","website":"https://aucoeurdeladombes.com/","osm_id":2446111170}},{"type":"Feature","geometry":{"type":"Point","coordinates":[5.0695079,46.0645321]},"properties":{"category":"bakery","name":"Boulangerie Duvignaud","phone":"+33 4 74 42 85 38","osm_id":2588219641}},{"type":"Feature","geometry":{"type":"Point","coordinates":[5.0296055,46.0009496]},"properties":{"category":"bakery","name":"Margand","osm_id":5956443640}},{"type":"Feature","geometry":{"type":"Point","coordinates":[5.0237928,46.0685436]},"properties":{"category":"bakery","name":"La Mie du Paysan","opening_hours":"We-Sa 06:00-13:30, 15:30-19:30; Su 06:00-12:30; Tu 15:30-19:30","phone":"+33427532173","osm_id":10175955759}},{"type":"Feature","geometry":{"type":"Point","coordinates":[5.0362498,46.0064488]},"properties":{"category":"bakery","name":"Artisan boulanger & Banette","osm_id":11392697789}}]}