{"type":"FeatureCollection","features":[{"type":"Feature","geometry":{"type":"Point","coordinates":[4.8516333,46.0972668]},"properties":{"category":"bakery","osm_id":2575018417}},{"type":"Feature","geometry":{"type":"Point","coordinates":[4.898093,46.0722327]},"properties":{"category":"bakery","name":"Gacon","osm_id":3388431693}},{"type":"Feature","geometry":{"type":"Point","coordinates":[4.897763,46.0717685]},"properties":{"category":"bakery","name":"Boulangerie","opening_hours":"Tu-Sa 06:00-13:00,15:00-19:00; Su 06:00-13:00","osm_id":6240140910}},{"type":"Feature","geometry":{"type":"Point","coordinates":[4.8484056,46.00132]},"properties":{"category":"bakery","osm_id":9180032171}}]}