{"type":"FeatureCollection","features":[{"type":"Feature","geometry":{"type":"Point","coordinates":[4.6460135,46.0014194]},"properties":{"category":"repair","opening_hours":"24/7","osm_id":11936378117}},{"type":"Feature","geometry":{"type":"Point","coordinates":[4.6113087,46.0147917]},"properties":{"category":"repair","osm_id":12071023100}},{"type":"Feature","geometry":{"type":"Point","coordinates":[4.6452212,46.0330442]},"properties":{"category":"repair","osm_id":12167866478}},{"type":"Feature","geometry":{"type":"Point","coordinates":[4.6013088,46.0627834]},"properties":{"category":"repair","osm_id":12200043784}},{"type":"Feature","geometry":{"type":"Point","coordinates":[4.6528523,46.0255784]},"properties":{"category":"repair","osm_id":12314101540}},{"type":"Feature","geometry":{"type":"Point","coordinates":[4.6552611,46.0234096]},"properties":{"category":"repair","osm_id":12613527719}},{"type":"Feature","geometry":{"type":"Point","coordinates":[4.6028819,46.0056646]},"properties":{"category":"repair","osm_id":12670113249}}]}