{"type":"FeatureCollection","features":[{"type":"Feature","geometry":{"type":"Point","coordinates":[5.9279377,46.0188391]},"properties":{"category":"bakery","name":"La Frangypane","osm_id":1014366991}},{"type":"Feature","geometry":{"type":"Point","coordinates":[5.9899855,46.0702899]},"properties":{"category":"bakery","name":"Le Fournil Jonzierois","opening_hours":"sunrise-sunset open; We off","phone":"+33 4 50 70 96 71","osm_id":2440580593}},{"type":"Feature","geometry":{"type":"Point","coordinates":[5.9295426,46.0190876]},"properties":{"category":"repair","osm_id":6756053290}},{"type":"Feature","geometry":{"type":"Point","coordinates":[5.9645201,46.0965925]},"properties":{"category":"bakery","name":"Brioche Dorée","opening_hours":"Mo-Su,PH 06:00-22:00","osm_id":8895826435}},{"type":"Feature","geometry":{"type":"Point","coordinates":[5.961475,46.0973668]},"properties":{"category":"compressed_air","osm_id":11903563331}}]}