{"type":"FeatureCollection","features":[{"type":"Feature","geometry":{"type":"Point","coordinates":[6.6754898,46.0838194]},"properties":{"category":"bakery","name":"Tiffanie","website":"https://boulangerie-tiffanie.fr/","osm_id":1846970092}},{"type":"Feature","geometry":{"type":"Point","coordinates":[6.6209174,46.0207083]},"properties":{"category":"bakery","name":"Délices de l'Arve","opening_hours":"Mo-Sa 06:30-13:00, 16:00-19:00","phone":"+33 4 50 34 70 55","osm_id":2039054197}},{"type":"Feature","geometry":{"type":"Point","coordinates":[6.6220922,46.0194195]},"properties":{"category":"bakery","name":"Au Vieux Pétrin","opening_hours":"Mo-Fr 05:00-13:00,15:00-19:15; Sa 05:00-12:45, 15:00-19:15; Su 05:15-12:30","phone":"+33 4 50 34 77 17","osm_id":2039075542}},{"type":"Feature","geometry":{"type":"Point","coordinates":[6.6407918,46.0251877]},"properties":{"category":"bakery","name":"Le Four du Moulin","opening_hours":"Mo-Fr 07:00-13:00,16:30-20:00; Sa,Su 07:00-20:00","osm_id":2722069641}},{"type":"Feature","geometry":{"type":"Point","coordinates":[6.6364661,46.0254314]},"properties":{"category":"bakery","name":"Boulangerie des Campanules","osm_id":2722069660}},{"type":"Feature","geometry":{"type":"Point","coordinates":[6.6330231,46.0422304]},"properties":{"category":"bakery","name":"Le Fournil du Village","opening_hours":"Mo-Su 06:00-20:00","osm_id":3932219446}},{"type":"Feature","geometry":{"type":"Point","coordinates":[6.6394986,46.025735]},"properties":{"category":"bakery","name":"Chez Ballin","opening_hours":"Mo-Su 06:30-19:00","osm_id":7449689894}},{"type":"Feature","geometry":{"type":"Point","coordinates":[6.6110315,46.0384395]},"properties":{"category":"bakery","name":"Ma... Mie","osm_id":13068106896}},{"type":"Feature","geometry":{"type":"Point","coordinates":[6.6791398,46.0865091]},"properties":{"category":"repair","opening_hours":"24/7","osm_id":13657735995}}]}