{"type":"FeatureCollection","features":[{"type":"Feature","geometry":{"type":"Point","coordinates":[4.0750574,46.0384068]},"properties":{"category":"shop","name":"Eric Mulot","phone":"+33 4 77 68 66 21","osm_id":9843447526}},{"type":"Feature","geometry":{"type":"Point","coordinates":[4.0588649,46.0334181]},"properties":{"category":"shop","name":"G2Roues","osm_id":10097039537}},{"type":"Feature","geometry":{"type":"Point","coordinates":[4.0876281,46.0359997]},"properties":{"category":"shop","name":"La Bicyclerie Roannaise","opening_hours":"Mo-Sa 09:00-19:00; Tu off; Th off","osm_id":11881120400}},{"type":"Feature","geometry":{"type":"Point","coordinates":[4.0596503,46.0609805]},"properties":{"category":"shop","name":"Re-cycles 42","website":"https://www.re-cycles42.fr/","osm_id":13993393706}}]}