{"type":"FeatureCollection","features":[{"type":"Feature","geometry":{"type":"Point","coordinates":[-0.9440723,46.1445955]},"properties":{"category":"bakery","osm_id":3235817595}},{"type":"Feature","geometry":{"type":"Point","coordinates":[-0.9348047,46.1157389]},"properties":{"category":"bakery","name":"Le Bonheur est dans le Pain","osm_id":6396162738}},{"type":"Feature","geometry":{"type":"Point","coordinates":[-0.96785,46.1939254]},"properties":{"category":"bakery","name":"Aux Petites Douceurs","phone":"+33546528470","osm_id":7347798385}},{"type":"Feature","geometry":{"type":"Point","coordinates":[-0.9351224,46.1171142]},"properties":{"category":"bakery","name":"La Ferme du Mont d'Or","opening_hours":"We 16:00 - 19:00","osm_id":9612666927}}]}