{"type":"FeatureCollection","features":[{"type":"Feature","geometry":{"type":"Point","coordinates":[-1.4262229,46.1941825]},"properties":{"category":"shop","name":"Cycland","opening_hours":"Mo-Su 09:00-12:30, 14:00-19:00","phone":"+33 5 46 29 06 09","osm_id":1426100231}},{"type":"Feature","geometry":{"type":"Point","coordinates":[-1.4248754,46.19406]},"properties":{"category":"bakery","name":"Maison marin","opening_hours":"Mo-Su 07:00-20:00","phone":"+33 5 46 29 91 52","osm_id":7777364972}},{"type":"Feature","geometry":{"type":"Point","coordinates":[-1.432043,46.192929]},"properties":{"category":"shop","name":"Holland Bikes","phone":"+33 5 46 29 83 30","website":"https://locations.hollandbikes.com/ville/ile-de-re/","osm_id":10214748056}},{"type":"Feature","geometry":{"type":"Point","coordinates":[-1.4365653,46.1983509]},"properties":{"category":"bakery","name":"Pain & Pâtisserie","opening_hours":"Mo-Su 07:00-13:30","osm_id":12394767973}},{"type":"Feature","geometry":{"type":"Point","coordinates":[-1.427367,46.1919519]},"properties":{"category":"bakery","name":"Le Pain Laurent L'Hénaff","opening_hours":"Tu-Su 08:00-13:00","phone":"+33 9 55 28 86 16","website":"https://linktr.ee/lpll","osm_id":13289349806}},{"type":"Feature","geometry":{"type":"Point","coordinates":[-1.4208439,46.1952807]},"properties":{"category":"repair","osm_id":14078899447}}]}