{"type":"FeatureCollection","features":[{"type":"Feature","geometry":{"type":"Point","coordinates":[5.8283061,46.1081879]},"properties":{"category":"bakery","name":"Le Jardin des Délices","opening_hours":"Tu-Sa 07:30-19:30; Su 07:30-13:30","osm_id":1219216093}},{"type":"Feature","geometry":{"type":"Point","coordinates":[5.8171412,46.1944761]},"properties":{"category":"bakery","name":"Le Petit Chézery","opening_hours":"Mo-Fr 06:00-13:00,16:15-19:15; Sa 07:00-12:30,16:15-19:15; Su 07:00-12:00","osm_id":1322051320}},{"type":"Feature","geometry":{"type":"Point","coordinates":[5.8113215,46.1229203]},"properties":{"category":"bakery","name":"Le P'tit Chezery","opening_hours":"Mo-Fr 06:00-19:00","phone":"+33 4 50 56 09 64","website":"http://www.leptitchezery.fr/","osm_id":3285338965}},{"type":"Feature","geometry":{"type":"Point","coordinates":[5.8241269,46.1068586]},"properties":{"category":"bakery","name":"Le Fournil","opening_hours":"Mo-Fr 06:00-19:00; Sa 07:00-19:00","phone":"+33 4 50 56 27 81","osm_id":3287086339}},{"type":"Feature","geometry":{"type":"Point","coordinates":[5.8257792,46.1072265]},"properties":{"category":"bakery","name":"Le P'tit Chezery","osm_id":3287086342}},{"type":"Feature","geometry":{"type":"Point","coordinates":[5.814125,46.1192422]},"properties":{"category":"bakery","name":"Rosa","opening_hours":"Mo-Sa 06:00-19:00; Su 07:00-12:30","phone":"+33 4 50 48 14 86","osm_id":7019598935}},{"type":"Feature","geometry":{"type":"Point","coordinates":[5.8101296,46.1203638]},"properties":{"category":"bakery","name":"Marie Blachère","opening_hours":"Mo-Sa 06:30-19:30","osm_id":7054725957}},{"type":"Feature","geometry":{"type":"Point","coordinates":[5.808924,46.1289218]},"properties":{"category":"shop","name":"Vélo Valserine","phone":"+33 6 81 36 04 62","osm_id":10278485177}},{"type":"Feature","geometry":{"type":"Point","coordinates":[5.8303029,46.1082324]},"properties":{"category":"bakery","name":"Boulanger de France","opening_hours":"Mo-Fr 05:30-12:45, 15:30-19:30; Sa 06:30-12:45, 16:00-19:30; Su 06:30-18:00","osm_id":10582785406}},{"type":"Feature","geometry":{"type":"Point","coordinates":[5.8156272,46.1257159]},"properties":{"category":"compressed_air","opening_hours":"24/7","osm_id":12363389685}},{"type":"Feature","geometry":{"type":"Point","coordinates":[5.8260961,46.1110811]},"properties":{"category":"repair","osm_id":13495995538}}]}