{"type":"FeatureCollection","features":[{"type":"Feature","geometry":{"type":"Point","coordinates":[6.0792451,46.1391707]},"properties":{"category":"shop","name":"Espace Cycles","opening_hours":"Th-Fr 09:00-12:00, 14:00-18:15; Sa 09:30-12:00, 14:30-17:00","phone":"+33 4 50 49 26 07","website":"https://www.espace-cycles.fr/","osm_id":883867535}},{"type":"Feature","geometry":{"type":"Point","coordinates":[6.0800572,46.144534]},"properties":{"category":"bakery","osm_id":1960753324}},{"type":"Feature","geometry":{"type":"Point","coordinates":[6.0371986,46.1170196]},"properties":{"category":"bakery","name":"Boulangerie Pâtisserie du Centre","osm_id":2425422079}},{"type":"Feature","geometry":{"type":"Point","coordinates":[6.0825783,46.1454421]},"properties":{"category":"bakery","name":"La Panière","opening_hours":"Mo-Su 06:00-20:00","osm_id":2995721087}},{"type":"Feature","geometry":{"type":"Point","coordinates":[6.0934924,46.1411488]},"properties":{"category":"bakery","name":"Marie Blachère","opening_hours":"Mo-Sa 07:30-20:00","phone":"+33 4 50 38 82 44","website":"https://boulangeries.marieblachere.com/fr/france-FR/7129/marie-blachere-st-julien-en-genevois/details","osm_id":5641007376}},{"type":"Feature","geometry":{"type":"Point","coordinates":[6.0809957,46.1417514]},"properties":{"category":"bakery","name":"Merveilles de pain","opening_hours":"Mo-Sa 06:30-19:30; Su,PH 07:00-13:30","phone":"+33 4 50 85 25 96","website":"https://merveillesdepain.com/","osm_id":8624885165}},{"type":"Feature","geometry":{"type":"Point","coordinates":[6.0715813,46.1392105]},"properties":{"category":"bakery","name":"L'atelier du pain","opening_hours":"Tu-Sa 06:30-19:00; Su 07:00-13:00","osm_id":8963827192}},{"type":"Feature","geometry":{"type":"Point","coordinates":[6.0855235,46.1428875]},"properties":{"category":"shop","name":"OURS VELOS","opening_hours":"Tu-Fr 09:00-12:00, 14:00-19:00; Sa 10:00-12:00, 14:00-17:00","phone":"+33 762712314","website":"https://oursvelos.com/","osm_id":12246411329}}]}