{"type":"FeatureCollection","features":[{"type":"Feature","geometry":{"type":"Point","coordinates":[5.6057119,46.1543698]},"properties":{"category":"bakery","name":"Le p’tit St Martin","opening_hours":"Mo-Sa 07:30-13:00","osm_id":10221107900}},{"type":"Feature","geometry":{"type":"Point","coordinates":[5.6337246,46.1424192]},"properties":{"category":"bakery","name":"Boulangerie La Notre","opening_hours":"Mo-Th 06:00-13:00,16:00-19:00; We off; Fr 06:00-13:00,16:00-18:30; Sa 06:00-13:00; Su 06:30-12:30","phone":"+33 4 26 61 87 25","website":"https://boulangerielanotre.business.site","osm_id":10693735309}},{"type":"Feature","geometry":{"type":"Point","coordinates":[5.6048826,46.1534845]},"properties":{"category":"bakery","name":"Ronde des Pains","opening_hours":"Mo-Su 07:00-12:30; Mo-Tu,Th,Sa 15:30-18:00","phone":"+33 4 74 75 53 90","osm_id":10694842384}},{"type":"Feature","geometry":{"type":"Point","coordinates":[5.6033723,46.1580674]},"properties":{"category":"compressed_air","osm_id":11919459033}}]}