{"type":"FeatureCollection","features":[{"type":"Feature","geometry":{"type":"Point","coordinates":[5.5738486,46.1699919]},"properties":{"category":"shop","name":"Raf'Cycle","osm_id":1676710400}},{"type":"Feature","geometry":{"type":"Point","coordinates":[5.5702533,46.1664381]},"properties":{"category":"bakery","osm_id":3700666181}},{"type":"Feature","geometry":{"type":"Point","coordinates":[5.5389295,46.129313]},"properties":{"category":"bakery","opening_hours":"Mo-Sa 06:30-13:00,16:00-19:00; Su 06:30-12:30","phone":"+33 4 74 75 74 06","osm_id":4456499798}},{"type":"Feature","geometry":{"type":"Point","coordinates":[5.5513814,46.1097456]},"properties":{"category":"bakery","name":"Boulangerie Dos Santos","osm_id":7101644568}},{"type":"Feature","geometry":{"type":"Point","coordinates":[5.5534199,46.1415198]},"properties":{"category":"bakery","name":"Dumez","website":"https://www.boulangerie-dumez.fr/","osm_id":10133170207}}]}