{"type":"FeatureCollection","features":[{"type":"Feature","geometry":{"type":"Point","coordinates":[-1.0647234,46.1884336]},"properties":{"category":"bakery","name":"Le pain boulanger","osm_id":3326644326}},{"type":"Feature","geometry":{"type":"Point","coordinates":[-1.0150006,46.1882065]},"properties":{"category":"bakery","name":"Boulangerie Burylo","website":"https://boulangerie-burylo.eatbu.com","osm_id":7473124041}},{"type":"Feature","geometry":{"type":"Point","coordinates":[-1.0715693,46.1502659]},"properties":{"category":"bakery","name":"Chez la Mie","osm_id":9064361732}},{"type":"Feature","geometry":{"type":"Point","coordinates":[-1.0100301,46.1282981]},"properties":{"category":"bakery","name":"Le Fournil de la Jarrie","osm_id":9065705960}},{"type":"Feature","geometry":{"type":"Point","coordinates":[-1.096565,46.1551149]},"properties":{"category":"bakery","name":"La pommeraie","opening_hours":"Mo-Fr 06:30-19:30; Sa 07:00-19:00","phone":"+33540441712","osm_id":9065749197}},{"type":"Feature","geometry":{"type":"Point","coordinates":[-1.0671833,46.1288583]},"properties":{"category":"bakery","name":"Le Pain Laurent L'Hénaff","opening_hours":"Tu-Fr 08:00-12:30, 15:30-19:00; Sa-Su 08:00-12:30","phone":"+33 5 16 49 24 03","website":"https://www.lepain-laurentlhenaff.fr/","osm_id":10702069457}},{"type":"Feature","geometry":{"type":"Point","coordinates":[-1.075338,46.1509334]},"properties":{"category":"bakery","name":"L'ami du pain","osm_id":11045901831}},{"type":"Feature","geometry":{"type":"Point","coordinates":[-1.0059316,46.1094299]},"properties":{"category":"bakery","name":"Maison Arduin","osm_id":11059005385}},{"type":"Feature","geometry":{"type":"Point","coordinates":[-1.0688176,46.1712436]},"properties":{"category":"shop","name":"Cycles 17","osm_id":11092481590}},{"type":"Feature","geometry":{"type":"Point","coordinates":[-1.0554858,46.1048026]},"properties":{"category":"shop","name":"L'Atelier de Vélocio","opening_hours":"Mo-Su 09:00-18:00","phone":"+33671027735","osm_id":11904351562}},{"type":"Feature","geometry":{"type":"Point","coordinates":[-1.053072,46.1046548]},"properties":{"category":"bakery","name":"La maison des saveurs","opening_hours":"Tu-Sa 06:30-13:30,15:30-19:00; Su 06:30-18:00","phone":"+33546462142","osm_id":12151927798}},{"type":"Feature","geometry":{"type":"Point","coordinates":[-1.0945595,46.1307319]},"properties":{"category":"bakery","name":"Boulangerie de Belle Aire","opening_hours":"Mo-Sa 06:30-19:00","phone":"+33 5 46 07 19 78","osm_id":12273458831}},{"type":"Feature","geometry":{"type":"Point","coordinates":[-1.0115368,46.1867636]},"properties":{"category":"bakery","name":"Chez Bibiche","osm_id":13695062755}}]}