{"type":"FeatureCollection","features":[{"type":"Feature","geometry":{"type":"Point","coordinates":[2.1850911,46.197764]},"properties":{"category":"bakery","name":"Brioche Dorée","opening_hours":"Mo-Su 07:00-20:00","phone":"+33 5 55 81 80 00","website":"https://www.briochedoree.fr/","osm_id":7565369986}},{"type":"Feature","geometry":{"type":"Point","coordinates":[2.1759199,46.1130359]},"properties":{"category":"bakery","name":"Festival des Pains","opening_hours":"Mo-Su 07:15-12:30; Mo-Sa 16:00-19:00","phone":"+33555623031","osm_id":12277037739}},{"type":"Feature","geometry":{"type":"Point","coordinates":[2.1846241,46.1973536]},"properties":{"category":"compressed_air","osm_id":12726501524}}]}