{"type":"FeatureCollection","features":[{"type":"Feature","geometry":{"type":"Point","coordinates":[3.4267271,46.1264243]},"properties":{"category":"shop","name":"Cycles & Cie","opening_hours":"Tu-Sa 10:00-18:00; May 01-Aug 30: Tu-Su 10:00-18:00","website":"https://www.cyclesetcie.fr/","osm_id":6699803320}},{"type":"Feature","geometry":{"type":"Point","coordinates":[3.4226844,46.1093197]},"properties":{"category":"shop","name":"Cycl'Espresso","opening_hours":"Mo 14:30-19:00; Tu-Fr 09:00-12:00,14:30-19:00; Th,Sa 09:00-12:00","website":"https://www.cyclespresso.fr/","osm_id":7022291006}},{"type":"Feature","geometry":{"type":"Point","coordinates":[3.4605141,46.133716]},"properties":{"category":"shop","name":"Le Comptoir du Cycliste","opening_hours":"Mo-Fr 08:30-12:30,14:30-19:00; We 14:00-19:00; Sa 09:00-16:00; PH off","osm_id":8423633368}},{"type":"Feature","geometry":{"type":"Point","coordinates":[3.4361946,46.1151484]},"properties":{"category":"shop","name":"Le Gang des Dérailleurs","osm_id":8596278654}},{"type":"Feature","geometry":{"type":"Point","coordinates":[3.4126921,46.1427558]},"properties":{"category":"compressed_air","osm_id":11956511568}},{"type":"Feature","geometry":{"type":"Point","coordinates":[3.4307681,46.1258663]},"properties":{"category":"repair","osm_id":12139596125}},{"type":"Feature","geometry":{"type":"Point","coordinates":[3.4144265,46.1430516]},"properties":{"category":"compressed_air","opening_hours":"Mo-Sa 08:00-18:30","osm_id":12552325066}}]}