{"type":"FeatureCollection","features":[{"type":"Feature","geometry":{"type":"Point","coordinates":[5.3238415,46.178836]},"properties":{"category":"bakery","osm_id":1941157569}},{"type":"Feature","geometry":{"type":"Point","coordinates":[5.3245009,46.1788686]},"properties":{"category":"bakery","osm_id":1941157571}},{"type":"Feature","geometry":{"type":"Point","coordinates":[5.3164475,46.1419743]},"properties":{"category":"bakery","name":"Boulangerie Patisserie","opening_hours":"Mo, Tu, Th, Fr 06:30-12:30, 16:00-19:00; Sa 07:00-12:30, 16:00-18:30; Su 07:00-12:30","osm_id":2239005976}},{"type":"Feature","geometry":{"type":"Point","coordinates":[5.3986256,46.1940971]},"properties":{"category":"bakery","name":"O' Traditions Gourmandes","opening_hours":"Tu-Sa 06:30-19:00; Su 06:30-12:00","osm_id":5103913460}}]}