{"type":"FeatureCollection","features":[{"type":"Feature","geometry":{"type":"Point","coordinates":[3.4302783,46.2358958]},"properties":{"category":"bakery","osm_id":7673473031}},{"type":"Feature","geometry":{"type":"Point","coordinates":[3.4331102,46.2032103]},"properties":{"category":"bakery","name":"Les Délices de Saint-Germain","opening_hours":"Mo-Fr 06:00-12:45,15:15-19:15; We off; Sa 06:30-12:45,16:00-19:15; Su 06:30-12:45","phone":"+33 4 70 59 60 70","osm_id":7775729481}},{"type":"Feature","geometry":{"type":"Point","coordinates":[3.4328443,46.205718]},"properties":{"category":"bakery","name":"La Maie du Village","osm_id":7792048270}},{"type":"Feature","geometry":{"type":"Point","coordinates":[3.4302343,46.2359088]},"properties":{"category":"bakery","osm_id":11479095190}},{"type":"Feature","geometry":{"type":"Point","coordinates":[3.4318403,46.2000827]},"properties":{"category":"bakery","name":"L'Instant d'Antan","osm_id":11493062310}}]}