{"type":"FeatureCollection","features":[{"type":"Feature","geometry":{"type":"Point","coordinates":[6.3083439,46.2985017]},"properties":{"category":"bakery","name":"L'épi d'or","osm_id":5732532800}},{"type":"Feature","geometry":{"type":"Point","coordinates":[6.3062356,46.2958796]},"properties":{"category":"shop","name":"Mondovélo","opening_hours":"Tu-Fr 09:00-12:00,14:00-19:00; Sa 09:00-12:00,14:00-18:00","phone":"+33 4 50 94 10 13","website":"https://www.mondovelo.fr/","osm_id":7208340681}},{"type":"Feature","geometry":{"type":"Point","coordinates":[6.3162829,46.2696849]},"properties":{"category":"bakery","osm_id":7591595311}},{"type":"Feature","geometry":{"type":"Point","coordinates":[6.350141,46.2601016]},"properties":{"category":"bakery","name":"Fournil de Langin","phone":"+33614983534","website":"https://www.chablais.bio/","osm_id":8014813110}},{"type":"Feature","geometry":{"type":"Point","coordinates":[6.3666268,46.2633388]},"properties":{"category":"bakery","name":"Boulangerie Alain Chapeau","opening_hours":"Mo-Sa 09:00-19:00; Su off","phone":"+33 4 50 36 14 11","osm_id":9171411364}},{"type":"Feature","geometry":{"type":"Point","coordinates":[6.3317341,46.2519091]},"properties":{"category":"bakery","name":"Boulangerie Patisserie F. Bourguignon","phone":"+33450435170","osm_id":9225269756}},{"type":"Feature","geometry":{"type":"Point","coordinates":[6.3089692,46.2899298]},"properties":{"category":"bakery","name":"L'epi d'or du Chablais","opening_hours":"Mo-Su 06:30-19:00","osm_id":10002807139}},{"type":"Feature","geometry":{"type":"Point","coordinates":[6.3661357,46.2699649]},"properties":{"category":"compressed_air","osm_id":13082011742}},{"type":"Feature","geometry":{"type":"Point","coordinates":[6.3673924,46.2685193]},"properties":{"category":"bakery","name":"L'épi d'or du Chablais","phone":"+33 4 50 36 34 45","osm_id":13739886918}}]}