{"type":"FeatureCollection","features":[{"type":"Feature","geometry":{"type":"Point","coordinates":[5.6458883,46.2573838]},"properties":{"category":"bakery","name":"Boulangerie du Lange","osm_id":6945101460}},{"type":"Feature","geometry":{"type":"Point","coordinates":[5.6591889,46.2610917]},"properties":{"category":"bakery","name":"Floriana père & fils","osm_id":7019463510}},{"type":"Feature","geometry":{"type":"Point","coordinates":[5.6575049,46.2597165]},"properties":{"category":"bakery","name":"Pernet","osm_id":7019463581}},{"type":"Feature","geometry":{"type":"Point","coordinates":[5.6291068,46.2423777]},"properties":{"category":"bakery","osm_id":7900627417}},{"type":"Feature","geometry":{"type":"Point","coordinates":[5.6559547,46.267426]},"properties":{"category":"bakery","name":"Marie Blachère","opening_hours":"Mo-Sa 06:00-19:30","phone":"+33 4 74 77 62 54","website":"https://boulangeries.marieblachere.com/fr/france-FR/5329/marie-blachere-oyonnax/details","osm_id":10699094544}},{"type":"Feature","geometry":{"type":"Point","coordinates":[5.6587467,46.258309]},"properties":{"category":"bakery","name":"Boulangerie Pâtisserie Artisanale AOUDIA","osm_id":13037255329}}]}