{"type":"FeatureCollection","features":[{"type":"Feature","geometry":{"type":"Point","coordinates":[6.4726635,46.2502644]},"properties":{"category":"bakery","name":"Le Tiennolet","opening_hours":"Mo-Su 07:00-13:00,17:00-19:00","phone":"+33 4 50 39 52 18","osm_id":3765237140}},{"type":"Feature","geometry":{"type":"Point","coordinates":[6.4395989,46.2175279]},"properties":{"category":"bakery","name":"Le Refuge des Petits Gourmands","opening_hours":"Mo off; Tu-Su 06:30-13:00, 15:30-19:30","phone":"+33 4 50 39 93 85","osm_id":7625325914}},{"type":"Feature","geometry":{"type":"Point","coordinates":[6.4398289,46.2847234]},"properties":{"category":"bakery","name":"Le Relais Des Délices","osm_id":9767808668}}]}