{"type":"FeatureCollection","features":[{"type":"Feature","geometry":{"type":"Point","coordinates":[1.4845454,46.2367321]},"properties":{"category":"bakery","name":"Boulangerie Patisserie","osm_id":4561070881}},{"type":"Feature","geometry":{"type":"Point","coordinates":[1.4880645,46.2351076]},"properties":{"category":"bakery","name":"La Maison des Pains","opening_hours":"Mo-Sa 07:00-19:00; Su 07:00-12:30","osm_id":5424716840}},{"type":"Feature","geometry":{"type":"Point","coordinates":[1.4282496,46.2147883]},"properties":{"category":"bakery","name":"Aux pains de nos ancêtres","phone":"+33 6 62 22 45 38","website":"https://www.facebook.com/Boulanger.pains.de.nos.ancetres/","osm_id":7843755674}},{"type":"Feature","geometry":{"type":"Point","coordinates":[1.4885185,46.2372691]},"properties":{"category":"bakery","name":"L'Atelier des Saveurs","osm_id":11375503296}},{"type":"Feature","geometry":{"type":"Point","coordinates":[1.4901536,46.2378726]},"properties":{"category":"bakery","name":"Baguépi","osm_id":11375506781}}]}