{"type":"FeatureCollection","features":[{"type":"Feature","geometry":{"type":"Point","coordinates":[6.2559438,46.2693834]},"properties":{"category":"bakery","name":"L'épi d'or du Chablais","osm_id":3066623675}},{"type":"Feature","geometry":{"type":"Point","coordinates":[6.2571042,46.2704113]},"properties":{"category":"bakery","name":"Les Fournils du Lac","osm_id":3066623676}},{"type":"Feature","geometry":{"type":"Point","coordinates":[6.2304426,46.2007374]},"properties":{"category":"bakery","name":"La Panière","opening_hours":"Mo-Sa 06:00-20:00; Su 06:30-19:00","phone":"+33 4 50 37 05 29","osm_id":3986722410}},{"type":"Feature","geometry":{"type":"Point","coordinates":[6.2487026,46.2027467]},"properties":{"category":"bakery","name":"Au Pétrin des Saveurs","opening_hours":"Mo-Sa 06:00-19:30; Su 06:00-14:00","phone":"+33 4 50 37 15 81","osm_id":4673794976}},{"type":"Feature","geometry":{"type":"Point","coordinates":[6.243806,46.2008629]},"properties":{"category":"bakery","name":"Maison Janin","opening_hours":"Mo-Sa 06:00-19:00; Su 06:00-13:00","phone":"+33 4 50 74 10 10","osm_id":4712091913}},{"type":"Feature","geometry":{"type":"Point","coordinates":[6.2848055,46.2065344]},"properties":{"category":"bakery","name":"Au Pétrin des Saveurs","opening_hours":"Mo-Sa 06:00-19:00; Su off","phone":"+33 4 50 06 99 10","osm_id":6908508587}},{"type":"Feature","geometry":{"type":"Point","coordinates":[6.2365831,46.2004327]},"properties":{"category":"repair","osm_id":13084127478}},{"type":"Feature","geometry":{"type":"Point","coordinates":[6.2640674,46.2008014]},"properties":{"category":"compressed_air","osm_id":14041973567}},{"type":"Feature","geometry":{"type":"Point","coordinates":[6.2640162,46.2008048]},"properties":{"category":"compressed_air","osm_id":14041973569}},{"type":"Feature","geometry":{"type":"Point","coordinates":[6.2637869,46.200822]},"properties":{"category":"compressed_air","osm_id":14041973574}}]}