{"type":"FeatureCollection","features":[{"type":"Feature","geometry":{"type":"Point","coordinates":[-1.4932214,46.2492571]},"properties":{"category":"shop","name":"Cycland","osm_id":4254274551}},{"type":"Feature","geometry":{"type":"Point","coordinates":[-1.4372114,46.2239625]},"properties":{"category":"bakery","name":"Place des délices","osm_id":12883973582}},{"type":"Feature","geometry":{"type":"Point","coordinates":[-1.4389195,46.2162596]},"properties":{"category":"repair","osm_id":13733014837}}]}