{"type":"FeatureCollection","features":[{"type":"Feature","geometry":{"type":"Point","coordinates":[5.9423108,46.3040568]},"properties":{"category":"bakery","name":"Séverine et Sylvain","opening_hours":"Su,Mo 07:00-13:00; Tu,Th-Sa 07:00-10:00,15:30-19:00, 2021 Oct 11-24 off","osm_id":4394725709}},{"type":"Feature","geometry":{"type":"Point","coordinates":[5.9136808,46.3711686]},"properties":{"category":"bakery","name":"Boulangerie Patisserie Gaunet","osm_id":6307678724}},{"type":"Feature","geometry":{"type":"Point","coordinates":[5.9640197,46.377925]},"properties":{"category":"shop","name":"BC Shop","phone":"+33 9 75 31 92 01","website":"https://bc-shop.fr","osm_id":11409610004}}]}