{"type":"FeatureCollection","features":[{"type":"Feature","geometry":{"type":"Point","coordinates":[6.0686784,46.3162352]},"properties":{"category":"bakery","name":"Au Pain des Lys","osm_id":1159975451}},{"type":"Feature","geometry":{"type":"Point","coordinates":[6.0567214,46.3294949]},"properties":{"category":"bakery","name":"Ronde des Pains","opening_hours":"Mo-Su 06:00-19:00","osm_id":1268936197}},{"type":"Feature","geometry":{"type":"Point","coordinates":[6.0956449,46.3006972]},"properties":{"category":"bakery","name":"La Flûte D'Or","opening_hours":"Mo-Fr 06:00-13:00,15:15-19:30; Sa 06:00-13:00, 15:30-18:00; Su 06:00-12:00","osm_id":2018436087}},{"type":"Feature","geometry":{"type":"Point","coordinates":[6.0572401,46.3323019]},"properties":{"category":"bakery","name":"Reygrobellet","osm_id":3039031775}},{"type":"Feature","geometry":{"type":"Point","coordinates":[6.0743975,46.3377882]},"properties":{"category":"compressed_air","osm_id":6953919085}},{"type":"Feature","geometry":{"type":"Point","coordinates":[6.0762766,46.3382331]},"properties":{"category":"bakery","name":"Paul","opening_hours":"Mo-Sa 06:30-20:00; Su 06:30-12:30","phone":"+33 4 50 40 81 42","website":"https://www.paul.fr/stores/gex","osm_id":6979073371}},{"type":"Feature","geometry":{"type":"Point","coordinates":[6.0545942,46.3258076]},"properties":{"category":"bakery","name":"La Panière","osm_id":7575404426}},{"type":"Feature","geometry":{"type":"Point","coordinates":[6.0945629,46.3210286]},"properties":{"category":"shop","name":"Cessy Vélos","opening_hours":"Tu-Su 10:00-19:30","phone":"+33642995750","osm_id":11522995842}},{"type":"Feature","geometry":{"type":"Point","coordinates":[6.0970824,46.3027426]},"properties":{"category":"shop","name":"Bike Sheperd","phone":"+33 6 32 08 17 44","website":"https://bike-shepherd.com/","osm_id":13278093765}},{"type":"Feature","geometry":{"type":"Point","coordinates":[6.077932,46.3106271]},"properties":{"category":"repair","osm_id":13367114701}}]}