{"type":"FeatureCollection","features":[{"type":"Feature","geometry":{"type":"Point","coordinates":[3.7946656,46.3504024]},"properties":{"category":"bakery","name":"Boulangerie Gimel Didier","opening_hours":"Tu-Sa 06:30-13:00,15:30-19:00; Su 06:30-12:00","phone":"+33 4 70 99 50 01","osm_id":4736526634}},{"type":"Feature","geometry":{"type":"Point","coordinates":[3.7939728,46.3505614]},"properties":{"category":"bakery","name":"L'Escale","opening_hours":"Mo-Th 06:30-21:00; We off; Fr 06:30-23:00; Sa 06:30-00:00; Su 06:30-14:00,18:30-23:30","phone":"+33 4 70 99 50 57","osm_id":5793409596}}]}