{"type":"FeatureCollection","features":[{"type":"Feature","geometry":{"type":"Point","coordinates":[4.9479493,46.3806558]},"properties":{"category":"bakery","osm_id":1971838323}},{"type":"Feature","geometry":{"type":"Point","coordinates":[4.9295835,46.3081047]},"properties":{"category":"bakery","osm_id":1972985062}},{"type":"Feature","geometry":{"type":"Point","coordinates":[4.9298862,46.3083648]},"properties":{"category":"bakery","osm_id":1972985070}},{"type":"Feature","geometry":{"type":"Point","coordinates":[4.9071154,46.3593875]},"properties":{"category":"bakery","osm_id":12201860806}}]}