{"type":"FeatureCollection","features":[{"type":"Feature","geometry":{"type":"Point","coordinates":[1.4169753,46.3137061]},"properties":{"category":"compressed_air","opening_hours":"24/7","osm_id":5485264968}},{"type":"Feature","geometry":{"type":"Point","coordinates":[1.4195444,46.3139155]},"properties":{"category":"bakery","name":"Paul","opening_hours":"Mo-Su 06:00-22:00","phone":"+33 5 55 76 97 46","website":"https://www.paul.fr/stores/aire_de_bois_mande","osm_id":7278664772}},{"type":"Feature","geometry":{"type":"Point","coordinates":[1.4760902,46.3540125]},"properties":{"category":"bakery","osm_id":7780585785}}]}