{"type":"FeatureCollection","features":[{"type":"Feature","geometry":{"type":"Point","coordinates":[6.454728,46.3600196]},"properties":{"category":"shop","name":"Espace Cycles 74","osm_id":1860374770}},{"type":"Feature","geometry":{"type":"Point","coordinates":[6.4785332,46.3736068]},"properties":{"category":"repair","osm_id":6470820551}},{"type":"Feature","geometry":{"type":"Point","coordinates":[6.4904509,46.3791343]},"properties":{"category":"compressed_air","osm_id":9008217419}},{"type":"Feature","geometry":{"type":"Point","coordinates":[6.4850745,46.370382]},"properties":{"category":"shop","name":"Culture Vélo","opening_hours":"Mo-Fr 09:00-12:00,14:00-19:00; Sa 09:00-18:00; Su off","phone":"+33 4 50 26 12 87","osm_id":11085292794}},{"type":"Feature","geometry":{"type":"Point","coordinates":[6.449726,46.3644541]},"properties":{"category":"repair","osm_id":12050757810}},{"type":"Feature","geometry":{"type":"Point","coordinates":[6.4843889,46.3869553]},"properties":{"category":"repair","osm_id":12228418043}}]}