{"type":"FeatureCollection","features":[{"type":"Feature","geometry":{"type":"Point","coordinates":[6.3899544,46.333991]},"properties":{"category":"bakery","name":"Les Fournils du Lac","opening_hours":"Mo-Su 06:00-19:30","phone":"+33 4 50 72 61 69","osm_id":1816637629}},{"type":"Feature","geometry":{"type":"Point","coordinates":[6.3537228,46.3548359]},"properties":{"category":"bakery","name":"Les Fournils du Lac","phone":"+33 4 50 72 84 45","osm_id":1891086271}},{"type":"Feature","geometry":{"type":"Point","coordinates":[6.309554,46.3074187]},"properties":{"category":"bakery","name":"Boulangerie Marie Blanchère","osm_id":3089094946}},{"type":"Feature","geometry":{"type":"Point","coordinates":[6.3749554,46.332634]},"properties":{"category":"bakery","name":"Les Fournils du Lac","phone":"+33 4 50 72 30 48","osm_id":4624371463}},{"type":"Feature","geometry":{"type":"Point","coordinates":[6.3014567,46.3059385]},"properties":{"category":"bakery","osm_id":5075423170}},{"type":"Feature","geometry":{"type":"Point","coordinates":[6.3116375,46.3092041]},"properties":{"category":"bakery","name":"La Panière","opening_hours":"Mo-Su 06:00-20:00","phone":"+33 4 50 36 71 08","osm_id":7598005637}},{"type":"Feature","geometry":{"type":"Point","coordinates":[6.3260994,46.3697149]},"properties":{"category":"bakery","name":"Ô Paint qui chante","phone":"+33 7 62 50 48 04","osm_id":12085619299}}]}