{"type":"FeatureCollection","features":[{"type":"Feature","geometry":{"type":"Point","coordinates":[5.1294537,46.3359029]},"properties":{"category":"bakery","name":"La Boulangerie d'Olivier","phone":"+33 4 74 30 80 96","osm_id":1786166493}},{"type":"Feature","geometry":{"type":"Point","coordinates":[5.1281448,46.3382715]},"properties":{"category":"bakery","osm_id":1786221640}},{"type":"Feature","geometry":{"type":"Point","coordinates":[5.186985,46.3344758]},"properties":{"category":"bakery","name":"l'Atelier du Pain","osm_id":2854269229}},{"type":"Feature","geometry":{"type":"Point","coordinates":[5.1205094,46.368986]},"properties":{"category":"bakery","name":"La Boulangerie d'Olivier","phone":"+33 4 74 25 65 78","osm_id":3411540296}},{"type":"Feature","geometry":{"type":"Point","coordinates":[5.1236173,46.3493419]},"properties":{"category":"compressed_air","osm_id":5780134676}},{"type":"Feature","geometry":{"type":"Point","coordinates":[5.1286708,46.3368292]},"properties":{"category":"shop","name":"Repar’ain Vélo","phone":"+33474148154","website":"http://repar-ain-velo.fr","osm_id":6677162385}}]}