{"type":"FeatureCollection","features":[{"type":"Feature","geometry":{"type":"Point","coordinates":[4.743503,46.3319723]},"properties":{"category":"bakery","osm_id":1941113519}},{"type":"Feature","geometry":{"type":"Point","coordinates":[4.7209787,46.3453945]},"properties":{"category":"bakery","name":"Le p'tit fournil","osm_id":2414406766}},{"type":"Feature","geometry":{"type":"Point","coordinates":[4.7923961,46.3476797]},"properties":{"category":"bakery","osm_id":2824546371}},{"type":"Feature","geometry":{"type":"Point","coordinates":[4.742235,46.3983406]},"properties":{"category":"bakery","name":"Aux délices de Léo","opening_hours":"Mo-Fr 06:30-12:45,16:00-19:30; We off; Sa 06:30-12:45,16:00-19:00; Su 06:30-12:30","phone":"+33967273857","osm_id":11832678251}}]}