{"type":"FeatureCollection","features":[{"type":"Feature","geometry":{"type":"Point","coordinates":[-0.3439668,46.3518418]},"properties":{"category":"shop","name":"VOLTA Bikes","opening_hours":"Mo-Fr 08:30-12:00,13:00-17:30","phone":"+336 31 76 80 83","osm_id":4977544943}},{"type":"Feature","geometry":{"type":"Point","coordinates":[-0.3772665,46.3423849]},"properties":{"category":"shop","name":"Le Guidon Niortais","opening_hours":"Mo-Sa 09:00-12:00,14:00-19:00","phone":"+33 5 49 34 68 49","website":"https://www.leguidonniortais.fr","osm_id":5843986027}},{"type":"Feature","geometry":{"type":"Point","coordinates":[-0.3947822,46.3402942]},"properties":{"category":"compressed_air","name":"Gonfleur Total Access","opening_hours":"24/7","osm_id":9192802575}},{"type":"Feature","geometry":{"type":"Point","coordinates":[-0.3872848,46.3392697]},"properties":{"category":"shop","name":"Giant","opening_hours":"Tu-Sa 09:30-12:30,14:00-18:30","phone":"+33 5 86 23 00 87","website":"https://www.giant-niort.fr/","osm_id":12941413791}}]}