{"type":"FeatureCollection","features":[{"type":"Feature","geometry":{"type":"Point","coordinates":[6.6339145,46.3994443]},"properties":{"category":"bakery","osm_id":1785716914}},{"type":"Feature","geometry":{"type":"Point","coordinates":[6.6030108,46.3935371]},"properties":{"category":"bakery","osm_id":1796162578}},{"type":"Feature","geometry":{"type":"Point","coordinates":[6.6788654,46.36177]},"properties":{"category":"bakery","name":"Le Boulanger d'Oche","opening_hours":"Mo off; Tu-Sa 06:30-13:00, 15:30-19:00; Su 06:30-13:00","phone":"+33 4 50 73 60 43","osm_id":7107780637}},{"type":"Feature","geometry":{"type":"Point","coordinates":[6.6296296,46.3791157]},"properties":{"category":"bakery","name":"Le Fournil Du Chablais","opening_hours":"Mo-Sa 07:00-19:00; Su 07:00-13:00","phone":"+33 4 28 38 52 63","website":"https://www.lefournilduchablais.com/","osm_id":9700441217}}]}