{"type":"FeatureCollection","features":[{"type":"Feature","geometry":{"type":"Point","coordinates":[2.5375494,46.3144014]},"properties":{"category":"bakery","name":"Yoan Skicicki","osm_id":5168662917}},{"type":"Feature","geometry":{"type":"Point","coordinates":[2.5713426,46.3697371]},"properties":{"category":"bakery","name":"Le Fournil du Cros","osm_id":5873795121}},{"type":"Feature","geometry":{"type":"Point","coordinates":[2.5868943,46.3363782]},"properties":{"category":"bakery","name":"Alix Christophe","opening_hours":"Mo-Fr 07:00-13:00,15:00-18:30; We off; Sa 07:00-13:00; Su 07:00-12:30","phone":"+33470034486","osm_id":10156176608}},{"type":"Feature","geometry":{"type":"Point","coordinates":[2.5337243,46.3608071]},"properties":{"category":"bakery","osm_id":12663407631}},{"type":"Feature","geometry":{"type":"Point","coordinates":[2.5966417,46.3688935]},"properties":{"category":"repair","opening_hours":"24/7","osm_id":13386180184}},{"type":"Feature","geometry":{"type":"Point","coordinates":[2.5675642,46.3374853]},"properties":{"category":"bakery","name":"Marie Blachère","opening_hours":"Mo-Sa 07:30-19:30","phone":"+33 4 70 07 46 86","website":"https://boulangeries.marieblachere.com/fr/france-FR/7034/marie-blachere-premilhat/details","osm_id":13798509525}}]}