{"type":"FeatureCollection","features":[{"type":"Feature","geometry":{"type":"Point","coordinates":[-1.2528657,46.3521235]},"properties":{"category":"bakery","name":"La Mie Chelaise","opening_hours":"Tu-Su 07:30-12:30","osm_id":4387889790}},{"type":"Feature","geometry":{"type":"Point","coordinates":[-1.2501897,46.3528114]},"properties":{"category":"bakery","name":"La Mie Vendéenne","opening_hours":"Tu-Sa 07:00-13:00,16:00-19:00; Su 07:00-12:30","phone":"+33 2 51 27 23 54","osm_id":7007589150}},{"type":"Feature","geometry":{"type":"Point","coordinates":[-1.2541426,46.3542929]},"properties":{"category":"repair","osm_id":12841554667}}]}