{"type":"FeatureCollection","features":[{"type":"Feature","geometry":{"type":"Point","coordinates":[3.3975009,46.314849]},"properties":{"category":"bakery","name":"Douceurs Varennoises","opening_hours":"Mo-Fr 06:30-13:00,15:00-19:00; We off; Sa 07:00-12:30,15:30-18:30; Su 07:00-12:00","phone":"+33 4 70 45 06 25","osm_id":9522366917}},{"type":"Feature","geometry":{"type":"Point","coordinates":[3.3956194,46.3175267]},"properties":{"category":"bakery","name":"B comme baguette","opening_hours":"Mo-Sa 06:30-19:00; Su 07:00-12:30","phone":"+33 4 70 47 44 38","osm_id":10865057611}},{"type":"Feature","geometry":{"type":"Point","coordinates":[3.3984392,46.3145438]},"properties":{"category":"shop","name":"Nomade","phone":"+33 4 70 47 45 86","osm_id":10963444783}}]}