{"type":"FeatureCollection","features":[{"type":"Feature","geometry":{"type":"Point","coordinates":[4.8277287,46.3032768]},"properties":{"category":"shop","name":"Trott & Cycle","opening_hours":"Mo-Sa 10:00-12:30, 14:30-18:30","phone":"+33 3 85 22 10 62","website":"https://www.ebike71.com/","osm_id":7676545883}},{"type":"Feature","geometry":{"type":"Point","coordinates":[4.8442884,46.3358391]},"properties":{"category":"shop","name":"GD Cycles","osm_id":12879890624}},{"type":"Feature","geometry":{"type":"Point","coordinates":[4.8494181,46.3467554]},"properties":{"category":"compressed_air","osm_id":13518942009}}]}