{"type":"FeatureCollection","features":[{"type":"Feature","geometry":{"type":"Point","coordinates":[4.2743078,46.4341885]},"properties":{"category":"bakery","name":"Boulangerie Pâtisserie ALIX","phone":"+33 3 85 24 12 62","osm_id":2217115483}},{"type":"Feature","geometry":{"type":"Point","coordinates":[4.2734308,46.4348101]},"properties":{"category":"bakery","name":"Boulangerie pâtisserie  Dumontet Eric","opening_hours":"Mo,Tu,Th-Sa 06:30-18:00; Su 06:30-12:00","phone":"+33 3 85 24 09 88","osm_id":2239784922}},{"type":"Feature","geometry":{"type":"Point","coordinates":[4.2767397,46.4360544]},"properties":{"category":"bakery","name":"L'EPI de Louis","opening_hours":"PH,We-Mo 05:45-19:30","phone":"+33 3 85 25 11 37","osm_id":2912668187}},{"type":"Feature","geometry":{"type":"Point","coordinates":[4.2750654,46.4347312]},"properties":{"category":"bakery","name":"Pierre-Jacques Barnay","opening_hours":"Tu-Sa 06:30-19:00; Su 06:30-12:00","osm_id":4642602957}},{"type":"Feature","geometry":{"type":"Point","coordinates":[4.2691676,46.4371554]},"properties":{"category":"bakery","name":"De Abreu Laetitia","opening_hours":"Mo-Sa 06:00-19:00","phone":"+33 3 85 25 26 40","osm_id":6387357980}},{"type":"Feature","geometry":{"type":"Point","coordinates":[4.2685573,46.4370459]},"properties":{"category":"compressed_air","osm_id":8656293015}},{"type":"Feature","geometry":{"type":"Point","coordinates":[4.2692517,46.4373172]},"properties":{"category":"shop","name":"Mondovélo","opening_hours":"Tu-Fr 09:00-12:00,14:00-19:00; Sa 09:00-12:00,14:00-18:00; Su-Mo off","phone":"+33 3 85 70 33 08","website":"https://www.mondovelo.fr/magasins/179-mondovelo-charolles","osm_id":9931763005}}]}