{"type":"FeatureCollection","features":[{"type":"Feature","geometry":{"type":"Point","coordinates":[4.8853276,46.4498]},"properties":{"category":"bakery","name":"Pâte à Choux","osm_id":2587864404}},{"type":"Feature","geometry":{"type":"Point","coordinates":[4.8656532,46.4196478]},"properties":{"category":"bakery","name":"Paul","osm_id":7256888831}},{"type":"Feature","geometry":{"type":"Point","coordinates":[4.8649478,46.4197805]},"properties":{"category":"bakery","name":"Paul","osm_id":12782580399}}]}