{"type":"FeatureCollection","features":[{"type":"Feature","geometry":{"type":"Point","coordinates":[-0.8201137,46.4221195]},"properties":{"category":"bakery","name":"Aux Saveurs Croustillantes","osm_id":342490542}},{"type":"Feature","geometry":{"type":"Point","coordinates":[-0.8081034,46.4666964]},"properties":{"category":"bakery","name":"La Lutine - Boulangerie Pâtisserie","opening_hours":"Mo-Sa 06:30-20:00; Su 06:30-13:00","phone":"+33228130026","osm_id":2470202793}},{"type":"Feature","geometry":{"type":"Point","coordinates":[-0.8017217,46.4645951]},"properties":{"category":"bakery","osm_id":5613230901}},{"type":"Feature","geometry":{"type":"Point","coordinates":[-0.8036019,46.4643439]},"properties":{"category":"shop","name":"Bernaudeau Cycles","osm_id":5614528153}},{"type":"Feature","geometry":{"type":"Point","coordinates":[-0.8030279,46.464209]},"properties":{"category":"bakery","name":"La Mie Câline","website":"https://www.lamiecaline.com/boutiques/fontenay-le-comte/","osm_id":5614528158}},{"type":"Feature","geometry":{"type":"Point","coordinates":[-0.8194685,46.4678854]},"properties":{"category":"bakery","name":"Roger Sicard","osm_id":5621200603}},{"type":"Feature","geometry":{"type":"Point","coordinates":[-0.8080235,46.4516416]},"properties":{"category":"bakery","name":"Les 2 Hiboux","osm_id":12221958337}},{"type":"Feature","geometry":{"type":"Point","coordinates":[-0.8069526,46.4488476]},"properties":{"category":"bakery","name":"Au marché du pain","osm_id":13388637901}}]}