{"type":"FeatureCollection","features":[{"type":"Feature","geometry":{"type":"Point","coordinates":[0.1846774,46.4847452]},"properties":{"category":"bakery","name":"La Belle àmie d'Or","osm_id":2166689410}},{"type":"Feature","geometry":{"type":"Point","coordinates":[0.1218236,46.4353727]},"properties":{"category":"bakery","name":"Le Fournil Gourmand","osm_id":3592615811}},{"type":"Feature","geometry":{"type":"Point","coordinates":[0.1128834,46.4275249]},"properties":{"category":"bakery","name":"Atelier 58","opening_hours":"Mo-Sa 07:00-19:00; Su 07:00-13:00","phone":"+33 5 49 42 02 19","website":"https://www.atelier58lusignan.com/","osm_id":7816719266}}]}