{"type":"FeatureCollection","features":[{"type":"Feature","geometry":{"type":"Point","coordinates":[-1.1448846,46.4590376]},"properties":{"category":"bakery","name":"Sicard","osm_id":954761970}},{"type":"Feature","geometry":{"type":"Point","coordinates":[-1.1699105,46.4551031]},"properties":{"category":"bakery","name":"La Pétrie","osm_id":1928243576}},{"type":"Feature","geometry":{"type":"Point","coordinates":[-1.1121513,46.4812334]},"properties":{"category":"bakery","name":"Le Grain de Blé","opening_hours":"Mo-Su 06:30-19:00","phone":"+33 2 51 27 03 12","osm_id":3906372214}},{"type":"Feature","geometry":{"type":"Point","coordinates":[-1.1740257,46.4558252]},"properties":{"category":"bakery","name":"Cloutour","osm_id":6253288110}},{"type":"Feature","geometry":{"type":"Point","coordinates":[-1.1494218,46.4575556]},"properties":{"category":"bakery","name":"Le Fournil Gourmand","osm_id":6262175771}},{"type":"Feature","geometry":{"type":"Point","coordinates":[-1.1621623,46.4552635]},"properties":{"category":"bakery","name":"Romeur","osm_id":6265494058}},{"type":"Feature","geometry":{"type":"Point","coordinates":[-1.1723262,46.4636646]},"properties":{"category":"bakery","name":"Marie Blachère","opening_hours":"Mo-Sa 06:30-19:30; Su off","phone":"+33 2 49 58 81 20","website":"https://boulangeries.marieblachere.com/fr/france-FR/5526/marie-blachere-lucon/details","osm_id":12741588979}}]}