{"type":"FeatureCollection","features":[{"type":"Feature","geometry":{"type":"Point","coordinates":[-0.0076881,46.4933792]},"properties":{"category":"bakery","osm_id":3732012635}},{"type":"Feature","geometry":{"type":"Point","coordinates":[-0.0164872,46.4517572]},"properties":{"category":"bakery","name":"La Mie Câline","osm_id":5365954543}},{"type":"Feature","geometry":{"type":"Point","coordinates":[-0.057058,46.4970154]},"properties":{"category":"bakery","name":"Au Méni'pain","osm_id":5548741888}},{"type":"Feature","geometry":{"type":"Point","coordinates":[-0.0183995,46.4528467]},"properties":{"category":"bakery","name":"Brioche Dorée","osm_id":12987688018}}]}