{"type":"FeatureCollection","features":[{"type":"Feature","geometry":{"type":"Point","coordinates":[0.7243911,46.4028664]},"properties":{"category":"bakery","name":"Pain patisserie","opening_hours":"Tu-Su 06:30-20:00","osm_id":850066136}},{"type":"Feature","geometry":{"type":"Point","coordinates":[0.7258741,46.4026431]},"properties":{"category":"bakery","name":"L'atelier de Richard","opening_hours":"Tu-Sa 07:00-13:30,15:30-18:00; Su 07:30-13:00","osm_id":13711465569}},{"type":"Feature","geometry":{"type":"Point","coordinates":[0.7247187,46.4842106]},"properties":{"category":"bakery","osm_id":14094189360}}]}