{"type":"FeatureCollection","features":[{"type":"Feature","geometry":{"type":"Point","coordinates":[3.3625628,46.4410164]},"properties":{"category":"bakery","osm_id":9223109393}},{"type":"Feature","geometry":{"type":"Point","coordinates":[3.3121848,46.4063098]},"properties":{"category":"bakery","name":"La Planche à Pain","opening_hours":"Mo off; Tu-Fr 06:30-12:30; Su 06:30-12:30","phone":"+33470441127","osm_id":11047774700}},{"type":"Feature","geometry":{"type":"Point","coordinates":[3.361925,46.4972918]},"properties":{"category":"compressed_air","osm_id":11396933999}}]}