{"type":"FeatureCollection","features":[{"type":"Feature","geometry":{"type":"Point","coordinates":[6.0234954,46.5184085]},"properties":{"category":"bakery","name":"Boulangerie Les Trois Lions","opening_hours":"Mo, Tu, Th, Fr 05:00-13:00, 15:00-19:00; Sa, Su 06:00-13:00","osm_id":3783457599}},{"type":"Feature","geometry":{"type":"Point","coordinates":[6.0231457,46.5208601]},"properties":{"category":"bakery","name":"Le Petit Palais","osm_id":3783457600}},{"type":"Feature","geometry":{"type":"Point","coordinates":[6.0157834,46.5347214]},"properties":{"category":"bakery","name":"Monnier","opening_hours":"Mo-Sa 05:00-19:00","osm_id":4438721525}},{"type":"Feature","geometry":{"type":"Point","coordinates":[6.0129247,46.5568103]},"properties":{"category":"shop","name":"Velo & Oxygen","osm_id":4438769799}},{"type":"Feature","geometry":{"type":"Point","coordinates":[6.0228094,46.5568872]},"properties":{"category":"repair","osm_id":8425708217}},{"type":"Feature","geometry":{"type":"Point","coordinates":[6.0216333,46.5248575]},"properties":{"category":"shop","name":"Vélo Dime","osm_id":12596077595}}]}