{"type":"FeatureCollection","features":[{"type":"Feature","geometry":{"type":"Point","coordinates":[-1.4506996,46.5598387]},"properties":{"category":"bakery","osm_id":6882380039}},{"type":"Feature","geometry":{"type":"Point","coordinates":[-1.4531382,46.5971231]},"properties":{"category":"bakery","name":"Paquier","osm_id":10858683633}},{"type":"Feature","geometry":{"type":"Point","coordinates":[-1.4529211,46.5959326]},"properties":{"category":"bakery","name":"La Maison Paul","opening_hours":"Mo-Sa 07:00-14:00,16:00-20:30; Su 07:00-14:00","osm_id":11078370364}},{"type":"Feature","geometry":{"type":"Point","coordinates":[-1.4841158,46.5143704]},"properties":{"category":"bakery","name":"Au vieux four","osm_id":11202510098}}]}