{"type":"FeatureCollection","features":[{"type":"Feature","geometry":{"type":"Point","coordinates":[-1.777673,46.506393]},"properties":{"category":"bakery","name":"Sicard","osm_id":2992421533}},{"type":"Feature","geometry":{"type":"Point","coordinates":[-1.7373857,46.5044614]},"properties":{"category":"bakery","name":"Maison Virtel","opening_hours":"Mo-Su,PH 06:00-13:30, Mo-Sa 15:00-19:30","osm_id":2993242806}},{"type":"Feature","geometry":{"type":"Point","coordinates":[-1.77019,46.5068783]},"properties":{"category":"bakery","name":"Au marché du pain","opening_hours":"Mo-Sa 07:00-19:30","osm_id":3871407707}},{"type":"Feature","geometry":{"type":"Point","coordinates":[-1.7817076,46.5615399]},"properties":{"category":"bakery","name":"Le Fournil de l'Île","osm_id":3933598783}},{"type":"Feature","geometry":{"type":"Point","coordinates":[-1.7652688,46.5150247]},"properties":{"category":"shop","name":"Sun Rider","osm_id":3968892017}},{"type":"Feature","geometry":{"type":"Point","coordinates":[-1.7773206,46.5087063]},"properties":{"category":"shop","name":"Cyclable","osm_id":4047308785}},{"type":"Feature","geometry":{"type":"Point","coordinates":[-1.7771834,46.5102779]},"properties":{"category":"bakery","name":"Boulangerie Baba É'Clair","osm_id":4047308787}},{"type":"Feature","geometry":{"type":"Point","coordinates":[-1.7149224,46.564062]},"properties":{"category":"bakery","name":"Besson Christian","osm_id":4056770789}},{"type":"Feature","geometry":{"type":"Point","coordinates":[-1.7783558,46.5028786]},"properties":{"category":"bakery","name":"La Bonne Brioche","osm_id":4096871784}},{"type":"Feature","geometry":{"type":"Point","coordinates":[-1.7994926,46.502779]},"properties":{"category":"bakery","name":"Boulangery","opening_hours":"Mo-Su 06:45-20:00","osm_id":5308388439}},{"type":"Feature","geometry":{"type":"Point","coordinates":[-1.7717887,46.5336182]},"properties":{"category":"compressed_air","osm_id":7735983680}},{"type":"Feature","geometry":{"type":"Point","coordinates":[-1.772272,46.5051157]},"properties":{"category":"bakery","name":"Au Moulin Gourmand","osm_id":9363931217}},{"type":"Feature","geometry":{"type":"Point","coordinates":[-1.7890319,46.5137459]},"properties":{"category":"repair","osm_id":10815227563}},{"type":"Feature","geometry":{"type":"Point","coordinates":[-1.7596061,46.5144229]},"properties":{"category":"bakery","name":"Au Fil de la Tradition","phone":"+33251213256","osm_id":10815227578}},{"type":"Feature","geometry":{"type":"Point","coordinates":[-1.7761587,46.5128283]},"properties":{"category":"bakery","name":"Boulangerie PLANCHOT","osm_id":11132404108}},{"type":"Feature","geometry":{"type":"Point","coordinates":[-1.7173906,46.5635306]},"properties":{"category":"compressed_air","osm_id":11553444822}},{"type":"Feature","geometry":{"type":"Point","coordinates":[-1.7800312,46.561904]},"properties":{"category":"compressed_air","osm_id":11553444824}},{"type":"Feature","geometry":{"type":"Point","coordinates":[-1.7779122,46.5138317]},"properties":{"category":"compressed_air","osm_id":12378408336}},{"type":"Feature","geometry":{"type":"Point","coordinates":[-1.7386564,46.5045537]},"properties":{"category":"repair","opening_hours":"24/7","osm_id":13094529894}},{"type":"Feature","geometry":{"type":"Point","coordinates":[-1.7748606,46.5422355]},"properties":{"category":"repair","osm_id":13098676871}},{"type":"Feature","geometry":{"type":"Point","coordinates":[-1.7746478,46.529618]},"properties":{"category":"bakery","name":"Renaud - Lafaix","website":"https://www.facebook.com/profile.php?id=100057594363798","osm_id":13123695578}}]}