{"type":"FeatureCollection","features":[{"type":"Feature","geometry":{"type":"Point","coordinates":[1.9379295,46.5403126]},"properties":{"category":"bakery","name":"Boulangerie","osm_id":5277702254}},{"type":"Feature","geometry":{"type":"Point","coordinates":[1.9889071,46.5846744]},"properties":{"category":"bakery","name":"Boulangerie Auroy Villatte","opening_hours":"Tu-Sa 07:00-12:45,15:00-19:00","phone":"+33 2 54 48 13 56","osm_id":13796416229}},{"type":"Feature","geometry":{"type":"Point","coordinates":[1.9870723,46.5811977]},"properties":{"category":"bakery","name":"Chez Kelly et William","opening_hours":"Mo-Fr 07:30-19:00; Sa 07:00-19:00","phone":"+33 2 54 48 18 26","osm_id":13801619713}}]}