{"type":"FeatureCollection","features":[{"type":"Feature","geometry":{"type":"Point","coordinates":[5.6044373,46.5330811]},"properties":{"category":"shop","name":"Jura Moto'Cycles","opening_hours":"Mo-Sa 08:30-18:30","phone":"+33 3 84 25 45 97","osm_id":7415224729}},{"type":"Feature","geometry":{"type":"Point","coordinates":[5.6084049,46.5273409]},"properties":{"category":"shop","name":"Stan Cycles Orgelet","opening_hours":"Tu-Th 08:30-12:00,13:00-18:00; Fr 08:30-18:00; Sa 08:30-12:30","phone":"+33 3 84 43 44 49","osm_id":10961414584}}]}