{"type":"FeatureCollection","features":[{"type":"Feature","geometry":{"type":"Point","coordinates":[1.7488194,46.5438708]},"properties":{"category":"bakery","name":"Campaillet Artisan Boulanger - M. Fleuret","opening_hours":"Mo-Tu,Th-Sa 07:00-13:00,15:30-19:00; Su 07:00-12:30","phone":"+33 2 54 31 20 05","website":"https://www.facebook.com/103651514366203/","osm_id":13696055935}},{"type":"Feature","geometry":{"type":"Point","coordinates":[1.7489181,46.5447729]},"properties":{"category":"bakery","name":"Maison Allorent","opening_hours":"Tu,Th-Sa 07:00-13:30,16:00-19:00; We 06:30-13:30,15:30-19:00; Su 07:00-12:30","phone":"+33 2 54 31 20 61","osm_id":13696055947}}]}