{"type":"FeatureCollection","features":[{"type":"Feature","geometry":{"type":"Point","coordinates":[4.6830052,46.53593]},"properties":{"category":"bakery","name":"Le pain d'Antonin","opening_hours":"Mo 16:00-18:00; Fr 15:00-19:00; Sa 08:30-12:00","osm_id":8963753151}},{"type":"Feature","geometry":{"type":"Point","coordinates":[4.6867649,46.5443074]},"properties":{"category":"bakery","name":"Maison Pelletier","opening_hours":"Tu-Sa 06:30-13:00,15:00-19:00; Su 06:30-12:30","website":"https://www.facebook.com/p/Maison-Pelletier-100087009413374/","osm_id":9423625185}}]}