{"type":"FeatureCollection","features":[{"type":"Feature","geometry":{"type":"Point","coordinates":[1.065382,46.6328481]},"properties":{"category":"bakery","name":"Boulangerie-Pâtisserie Dublineau","osm_id":10894774738}},{"type":"Feature","geometry":{"type":"Point","coordinates":[1.0625868,46.6313644]},"properties":{"category":"repair","opening_hours":"Mo-Fr 09:00-18:00","osm_id":11073342100}},{"type":"Feature","geometry":{"type":"Point","coordinates":[1.0626134,46.6313136]},"properties":{"category":"shop","name":"Cycle et Sport","phone":"+33 2 54 38 83 58","osm_id":12925637639}},{"type":"Feature","geometry":{"type":"Point","coordinates":[1.0209154,46.6561379]},"properties":{"category":"bakery","name":"Boulangerie de Benavent","osm_id":13783578149}}]}