{"type":"FeatureCollection","features":[{"type":"Feature","geometry":{"type":"Point","coordinates":[0.423696,46.6218865]},"properties":{"category":"bakery","name":"L'angélus","opening_hours":"Mo,Tu,Th-Sa 06:30-13:00, Mo,Tu,Th,Fr 16:00-19:30, Sa 16:00-19:00; Su 06:30-13:00","osm_id":2296297137}},{"type":"Feature","geometry":{"type":"Point","coordinates":[0.4285523,46.6986014]},"properties":{"category":"bakery","name":"Le Fournil de Dissay","opening_hours":"Tu-Sa 07:00-13:30,15:30-19:30; Su 07:00-13:00","osm_id":5717132321}},{"type":"Feature","geometry":{"type":"Point","coordinates":[0.4037738,46.6675296]},"properties":{"category":"bakery","name":"Boulangerie Soreau","osm_id":6855360003}},{"type":"Feature","geometry":{"type":"Point","coordinates":[0.4148546,46.6123358]},"properties":{"category":"bakery","name":"Boulangerie des Lys","opening_hours":"Mo-Sa 06:30-20:00","phone":"+33 5 49 44 90 41","osm_id":7352750949}}]}