{"type":"FeatureCollection","features":[{"type":"Feature","geometry":{"type":"Point","coordinates":[0.2372259,46.6060537]},"properties":{"category":"bakery","osm_id":1380931405}},{"type":"Feature","geometry":{"type":"Point","coordinates":[0.2771299,46.6057537]},"properties":{"category":"bakery","opening_hours":"Mo-Sa 07:15-13:30","osm_id":2284862717}},{"type":"Feature","geometry":{"type":"Point","coordinates":[0.24455,46.6849543]},"properties":{"category":"bakery","name":"Gilles et Sylvie Renaud","osm_id":5261851545}},{"type":"Feature","geometry":{"type":"Point","coordinates":[0.2276056,46.6452655]},"properties":{"category":"bakery","name":"Aguillon Ferret","phone":"+33 5 49 54 40 97","osm_id":9456853650}},{"type":"Feature","geometry":{"type":"Point","coordinates":[0.2743442,46.6867979]},"properties":{"category":"bakery","name":"La Briole","osm_id":12081329469}},{"type":"Feature","geometry":{"type":"Point","coordinates":[0.2553497,46.6846241]},"properties":{"category":"compressed_air","osm_id":13072774192}},{"type":"Feature","geometry":{"type":"Point","coordinates":[0.2551934,46.6846321]},"properties":{"category":"wash","osm_id":13072803770}}]}