{"type":"FeatureCollection","features":[{"type":"Feature","geometry":{"type":"Point","coordinates":[1.976591,46.6501641]},"properties":{"category":"bakery","name":"Ô Fournil de Nico & Steph","opening_hours":"Tu-Fr 07:00-13:00,16:00-19:15; Sa-Su 07:00-13:00","phone":"+33 2 54 31 06 36","osm_id":10291393132}},{"type":"Feature","geometry":{"type":"Point","coordinates":[1.9233347,46.6004833]},"properties":{"category":"bakery","name":"La Tartine Berrichonne","phone":"+33 2 54 48 54 61","website":"https://m.facebook.com/100057573574649/?locale=fr_FR","osm_id":13157730287}}]}