{"type":"FeatureCollection","features":[{"type":"Feature","geometry":{"type":"Point","coordinates":[-1.050609,46.6869238]},"properties":{"category":"bakery","name":"Artisan du Pain","osm_id":1788527137}},{"type":"Feature","geometry":{"type":"Point","coordinates":[-1.0526666,46.690501]},"properties":{"category":"bakery","name":"La Pétrie","osm_id":1813995015}},{"type":"Feature","geometry":{"type":"Point","coordinates":[-1.0494922,46.6852922]},"properties":{"category":"bakery","name":"Briocherie Sicard","osm_id":1813995024}},{"type":"Feature","geometry":{"type":"Point","coordinates":[-1.0508858,46.6913951]},"properties":{"category":"bakery","name":"Le Fournil du Paledou","osm_id":4116020617}},{"type":"Feature","geometry":{"type":"Point","coordinates":[-1.0483344,46.6800743]},"properties":{"category":"shop","name":"Roland Vélo","osm_id":6457339553}},{"type":"Feature","geometry":{"type":"Point","coordinates":[-1.0566305,46.6960191]},"properties":{"category":"bakery","name":"Marie Blachère","website":"https://boulangeries.marieblachere.com/fr/france-FR/5209/marie-blachere-chantonnay/details","osm_id":6466133214}}]}