{"type":"FeatureCollection","features":[{"type":"Feature","geometry":{"type":"Point","coordinates":[-1.5103983,46.6850738]},"properties":{"category":"bakery","name":"La Petrie","opening_hours":"Mo-Fr 06:30-13:00,15:30-19:00; Sa 06:30-13:00,16:00-19:00; Su 06:30-13:00","osm_id":3955539950}},{"type":"Feature","geometry":{"type":"Point","coordinates":[-1.5696415,46.6586797]},"properties":{"category":"bakery","name":"Le Renard Gourmand","opening_hours":"Mo-Tu,Fr-Sa 06:45-13:00,15:30-19:00; We-Th off; Su 07:00-12:30","osm_id":6551375195}},{"type":"Feature","geometry":{"type":"Point","coordinates":[-1.5093528,46.6302458]},"properties":{"category":"bakery","name":"La Pétrie","osm_id":6684209470}},{"type":"Feature","geometry":{"type":"Point","coordinates":[-1.5810755,46.6112087]},"properties":{"category":"bakery","name":"Le Bonheur des Papilles","opening_hours":"Mo off; Tu-Sa 06:45-13:30,16:00-19:30; Su 06:45-13:00","phone":"+33 2 51 05 07 21","website":"https://boulangerie-le-bonheur-des-papilles.eatbu.com/","osm_id":6982123450}},{"type":"Feature","geometry":{"type":"Point","coordinates":[-1.5085849,46.6291076]},"properties":{"category":"bakery","name":"Rêves de Gosses","osm_id":7559573146}}]}