{"type":"FeatureCollection","features":[{"type":"Feature","geometry":{"type":"Point","coordinates":[5.4951966,46.6757892]},"properties":{"category":"bakery","name":"Callens","opening_hours":"Mo-Fr 06:30-13:30,15:30-19:00; Sa 06:30-13:00,15:30-19:00; We off","phone":"+33 3 84 43 08 97","osm_id":6598211010}},{"type":"Feature","geometry":{"type":"Point","coordinates":[5.4738385,46.6099841]},"properties":{"category":"bakery","name":"La Fournée du Revermont","opening_hours":"Fr-We 06:30-13:00, Mo-We,Fr,Sa 16:00-19:00","osm_id":8522305458}},{"type":"Feature","geometry":{"type":"Point","coordinates":[5.4586923,46.6643085]},"properties":{"category":"repair","opening_hours":"24/7","osm_id":8933593295}}]}