{"type":"FeatureCollection","features":[{"type":"Feature","geometry":{"type":"Point","coordinates":[-1.2919365,46.6726115]},"properties":{"category":"bakery","name":"O'Pain Gourmand","osm_id":3330187197}},{"type":"Feature","geometry":{"type":"Point","coordinates":[-1.2933728,46.6729814]},"properties":{"category":"bakery","name":"Boulangerie Guignard","phone":"+33 2 51 05 72 84","osm_id":6400707759}},{"type":"Feature","geometry":{"type":"Point","coordinates":[-1.2323543,46.6593696]},"properties":{"category":"bakery","osm_id":6481549926}}]}