{"type":"FeatureCollection","features":[{"type":"Feature","geometry":{"type":"Point","coordinates":[3.7724969,46.6192535]},"properties":{"category":"shop","osm_id":2347221311}},{"type":"Feature","geometry":{"type":"Point","coordinates":[3.7740037,46.6254291]},"properties":{"category":"bakery","osm_id":2347221313}},{"type":"Feature","geometry":{"type":"Point","coordinates":[3.7519038,46.6252118]},"properties":{"category":"bakery","name":"Maison Bruneau","osm_id":5043159222}},{"type":"Feature","geometry":{"type":"Point","coordinates":[3.736949,46.6301247]},"properties":{"category":"bakery","name":"Marie Blachère","opening_hours":"Mo-Sa 07:00-19:30","phone":"+33 3 85 85 28 96","osm_id":13825586727}}]}