{"type":"FeatureCollection","features":[{"type":"Feature","geometry":{"type":"Point","coordinates":[4.4247723,46.7957082]},"properties":{"category":"bakery","name":"L. Petitjean","osm_id":4722347641}},{"type":"Feature","geometry":{"type":"Point","coordinates":[4.4694775,46.7489228]},"properties":{"category":"bakery","name":"Rémy Perraudin","phone":"+33358415786","osm_id":5044730229}},{"type":"Feature","geometry":{"type":"Point","coordinates":[4.4679586,46.7507971]},"properties":{"category":"bakery","osm_id":5044730241}},{"type":"Feature","geometry":{"type":"Point","coordinates":[4.4827156,46.7260101]},"properties":{"category":"bakery","osm_id":6606446212}},{"type":"Feature","geometry":{"type":"Point","coordinates":[4.4370335,46.7861844]},"properties":{"category":"bakery","name":"May Gourmandises","osm_id":11208891570}},{"type":"Feature","geometry":{"type":"Point","coordinates":[4.4953399,46.7444489]},"properties":{"category":"repair","osm_id":12782461902}},{"type":"Feature","geometry":{"type":"Point","coordinates":[4.4936675,46.7478012]},"properties":{"category":"compressed_air","osm_id":13705001286}}]}