{"type":"FeatureCollection","features":[{"type":"Feature","geometry":{"type":"Point","coordinates":[4.3886272,46.7898861]},"properties":{"category":"bakery","name":"La Banettière","phone":"+33 3 85 55 79 56","osm_id":2683573086}},{"type":"Feature","geometry":{"type":"Point","coordinates":[4.3860806,46.7933648]},"properties":{"category":"shop","name":"ETJ Réparation","opening_hours":"Mo-Sa 08:30-18:30","osm_id":3703314716}},{"type":"Feature","geometry":{"type":"Point","coordinates":[4.3889452,46.7009009]},"properties":{"category":"bakery","name":"Chez Rizet","osm_id":13819947654}}]}