{"type":"FeatureCollection","features":[{"type":"Feature","geometry":{"type":"Point","coordinates":[-1.8377559,46.761314]},"properties":{"category":"bakery","name":"Le Fournil de Commequiers","osm_id":4584499604}},{"type":"Feature","geometry":{"type":"Point","coordinates":[-1.8998835,46.7963974]},"properties":{"category":"bakery","name":"Aux saveurs du marais","opening_hours":"Tu-Sa 06:30-19:00; Su 06:30-13:30","osm_id":6178365485}},{"type":"Feature","geometry":{"type":"Point","coordinates":[-1.8372488,46.7620273]},"properties":{"category":"bakery","name":"Abillard","osm_id":6781268814}},{"type":"Feature","geometry":{"type":"Point","coordinates":[-1.8366481,46.7632045]},"properties":{"category":"shop","name":"Le Garage à Bicl'Oune","osm_id":9035807743}},{"type":"Feature","geometry":{"type":"Point","coordinates":[-1.8310489,46.749091]},"properties":{"category":"shop","name":"Le Garage À Bicl’Oune","osm_id":11497251588}}]}