{"type":"FeatureCollection","features":[{"type":"Feature","geometry":{"type":"Point","coordinates":[2.5095018,46.7237634]},"properties":{"category":"bakery","name":"Aux 3 choux","opening_hours":"Mo-Fr 07:00-13:30,15:30-19:00; Sa 07:00-18:00; Su off","osm_id":1900677666}},{"type":"Feature","geometry":{"type":"Point","coordinates":[2.5077641,46.7220537]},"properties":{"category":"bakery","name":"Cédric & Céline","opening_hours":"Mo-Fr 07:00-12:45,15:30-18:45; Sa 07:00-12:45","phone":"+33 2 48 96 10 09","osm_id":2126339775}},{"type":"Feature","geometry":{"type":"Point","coordinates":[2.5041296,46.7213531]},"properties":{"category":"bakery","name":"Boulangerie-Pâtisserie La Chaumière","osm_id":2126348678}},{"type":"Feature","geometry":{"type":"Point","coordinates":[2.5019044,46.7232115]},"properties":{"category":"bakery","name":"Franck Cosyns","opening_hours":"Tu-Sa 07:00-13:00,14:30-19:15; Su 07:30-12:15","osm_id":2127862119}},{"type":"Feature","geometry":{"type":"Point","coordinates":[2.5060835,46.7828446]},"properties":{"category":"bakery","osm_id":2132466834}},{"type":"Feature","geometry":{"type":"Point","coordinates":[2.5040822,46.7216975]},"properties":{"category":"shop","name":"Cyckes-Sports 18","opening_hours":"Tu-Fr 09:00-12:00,14:00-19:00; Sa 09:00-12:00,14:00-18:00","phone":"+33 2 48 96 53 73","osm_id":12925637640}},{"type":"Feature","geometry":{"type":"Point","coordinates":[2.5005333,46.722893]},"properties":{"category":"bakery","name":"Les Châtaignes","opening_hours":"Mo-Fr 07:00-13:00,15:30-19:00; Sa 07:00-12:45","osm_id":13238872881}},{"type":"Feature","geometry":{"type":"Point","coordinates":[2.5020531,46.7182529]},"properties":{"category":"repair","osm_id":13240382445}}]}