{"type":"FeatureCollection","features":[{"type":"Feature","geometry":{"type":"Point","coordinates":[-56.174706,46.7811891]},"properties":{"category":"bakery","name":"Guillard Gourmandises","osm_id":2441420746}},{"type":"Feature","geometry":{"type":"Point","coordinates":[-56.1730657,46.7793568]},"properties":{"category":"bakery","name":"Chez Girardin","opening_hours":"Mo, Tu, Th, Fr 06:30-12:30, 14:00-17:00; We 06:30-17:00; Sa 06:30-12:30","osm_id":5022316000}},{"type":"Feature","geometry":{"type":"Point","coordinates":[-56.17436,46.779336]},"properties":{"category":"bakery","name":"Boulangerie et Pâtisserie Beck","opening_hours":"Mo-Fr 06:00-12:00, 13:30-17:30; Sa 06:00-12:00","osm_id":6754384912}},{"type":"Feature","geometry":{"type":"Point","coordinates":[-56.1703501,46.7742914]},"properties":{"category":"bakery","name":"Boulangerie-Pâtisserie des Graves","osm_id":6762321458}}]}