{"type":"FeatureCollection","features":[{"type":"Feature","geometry":{"type":"Point","coordinates":[1.7353892,46.7951146]},"properties":{"category":"shop","name":"Vélo Élec","phone":"+33 2 54 22 24 37","website":"https://velo-elec.net/","osm_id":12925637628}},{"type":"Feature","geometry":{"type":"Point","coordinates":[1.7329431,46.7948153]},"properties":{"category":"shop","name":"Bistrovello","phone":"+33 2 59 16 07 71","website":"https://www.bistrovelo.fr/","osm_id":12925637629}},{"type":"Feature","geometry":{"type":"Point","coordinates":[1.7334124,46.7941074]},"properties":{"category":"shop","name":"Cycl'One","phone":"+33 254600616","website":"https://www.cyclonecycles.fr/","osm_id":12954832508}}]}