{"type":"FeatureCollection","features":[{"type":"Feature","geometry":{"type":"Point","coordinates":[1.691956,46.7949627]},"properties":{"category":"bakery","name":"Aux Gourmands","osm_id":12843792283}},{"type":"Feature","geometry":{"type":"Point","coordinates":[1.6613985,46.7893122]},"properties":{"category":"bakery","name":"Boulangerie Feuillette","opening_hours":"Mo-Su,PH 06:30-20:00","phone":"+33 219004145","website":"https://boulangerie.feuillette.fr/centre-val-de-loire/indre/saint-maur/boulangerie-feuillette-71","osm_id":12886609662}},{"type":"Feature","geometry":{"type":"Point","coordinates":[1.6507602,46.7854311]},"properties":{"category":"shop","name":"CYCL'ONE","phone":"+33 2 54 60 06 16","osm_id":12925637630}}]}