{"type":"FeatureCollection","features":[{"type":"Feature","geometry":{"type":"Point","coordinates":[5.7986476,46.7821656]},"properties":{"category":"bakery","name":"Le P'tit Pierre","phone":"+33 3 84 51 72 72","website":"https://www.leptitpierre.fr","osm_id":7375395735}},{"type":"Feature","geometry":{"type":"Point","coordinates":[5.7827769,46.7278332]},"properties":{"category":"bakery","name":"La Gustative","opening_hours":"Mo-Sa 06:30-13:00,15:00-19:00; Su 06:30-13:00; Th off","phone":"+33 3 84 52 50 11","osm_id":9812977055}}]}