{"type":"FeatureCollection","features":[{"type":"Feature","geometry":{"type":"Point","coordinates":[-1.3846987,46.7389529]},"properties":{"category":"bakery","name":"Au Four & Au Moulin","osm_id":3325526262}},{"type":"Feature","geometry":{"type":"Point","coordinates":[-1.3129271,46.7147963]},"properties":{"category":"bakery","name":"Pense au pain","opening_hours":"Mo-Fr 06:30-19:30; Sa,Su,PH 07:00-13:30,15:30-19:00","osm_id":4041815644}},{"type":"Feature","geometry":{"type":"Point","coordinates":[-1.314277,46.7136706]},"properties":{"category":"bakery","name":"NFRA","osm_id":4041815648}},{"type":"Feature","geometry":{"type":"Point","coordinates":[-1.3851088,46.7371658]},"properties":{"category":"bakery","name":"Le Fournil d'en Bas","osm_id":6426655512}}]}