{"type":"FeatureCollection","features":[{"type":"Feature","geometry":{"type":"Point","coordinates":[-1.4303984,46.7068686]},"properties":{"category":"shop","name":"Bernaudeau Cycles","phone":"+33 2 51 06 47 87","website":"https://www.country-sports.fr/","osm_id":2733732256}},{"type":"Feature","geometry":{"type":"Point","coordinates":[-1.4311632,46.7138909]},"properties":{"category":"compressed_air","osm_id":4017845543}},{"type":"Feature","geometry":{"type":"Point","coordinates":[-1.4603327,46.7201097]},"properties":{"category":"bakery","name":"Tartine et Gourmandise","osm_id":5640384367}},{"type":"Feature","geometry":{"type":"Point","coordinates":[-1.4592612,46.7206264]},"properties":{"category":"bakery","name":"Les Délices d'Hugo","osm_id":5764635718}},{"type":"Feature","geometry":{"type":"Point","coordinates":[-1.4268547,46.7115052]},"properties":{"category":"shop","name":"Espace Vélo","osm_id":5766197140}},{"type":"Feature","geometry":{"type":"Point","coordinates":[-1.4308473,46.7827626]},"properties":{"category":"bakery","name":"Les Blés d'Or","opening_hours":"Tu-Fr 07:00-13:15, Tu-Fr 16:00-19:00, Sa,Su,PH 07:00-13:00","osm_id":6418831809}},{"type":"Feature","geometry":{"type":"Point","coordinates":[-1.4308244,46.7811724]},"properties":{"category":"bakery","name":"Madeleine","opening_hours":"Mo,Tu,Th,Fr 06:30-19:00; Sa,Su,PH 07:00-13:00","osm_id":6418831840}},{"type":"Feature","geometry":{"type":"Point","coordinates":[-1.4940475,46.7641244]},"properties":{"category":"bakery","name":"Maison Baudillon","opening_hours":"Mo-Fr 06:30-19:30; Sa 07:00-14:00; Su 07:00-13:00","osm_id":7555539779}},{"type":"Feature","geometry":{"type":"Point","coordinates":[-1.4997063,46.7739216]},"properties":{"category":"repair","opening_hours":"24/7","osm_id":11193010062}},{"type":"Feature","geometry":{"type":"Point","coordinates":[-1.4345368,46.7881671]},"properties":{"category":"compressed_air","osm_id":11890867028}}]}