{"type":"FeatureCollection","features":[{"type":"Feature","geometry":{"type":"Point","coordinates":[-0.8383566,46.7820021]},"properties":{"category":"bakery","name":"Boulangerie Gobin","phone":"+33 2 51 91 92 40","osm_id":7637299989}},{"type":"Feature","geometry":{"type":"Point","coordinates":[-0.8500966,46.7919506]},"properties":{"category":"bakery","name":"Les Moulins du Terrier Marteau","website":"https://www.les-moulins-du-terrier-marteau.com","osm_id":7706566972}},{"type":"Feature","geometry":{"type":"Point","coordinates":[-0.8436003,46.7746573]},"properties":{"category":"bakery","name":"Les Folies du roy","osm_id":10683328874}}]}