{"type":"FeatureCollection","features":[{"type":"Feature","geometry":{"type":"Point","coordinates":[0.4930337,46.7616328]},"properties":{"category":"bakery","name":"Les Douceurs De Maz'","opening_hours":"Mo-We, Fr 06:30-14:00, 15:30-19:30; Sa 06:30-14:00; Su 07:00-13:00, 16:00-19:00","osm_id":7344465730}},{"type":"Feature","geometry":{"type":"Point","coordinates":[0.4465331,46.7337908]},"properties":{"category":"bakery","name":"Boulangerie Pâtisserie Perrin","osm_id":7663389016}},{"type":"Feature","geometry":{"type":"Point","coordinates":[0.4864218,46.7609253]},"properties":{"category":"bakery","name":"Lanoue' Gâtine","opening_hours":"Mo, Tu, Th-Sa 07:00-13:30, 15:30-19:30; Su 07:30-13:30","phone":"+33 9 83 64 22 33","osm_id":7887496810}},{"type":"Feature","geometry":{"type":"Point","coordinates":[0.4559048,46.7151085]},"properties":{"category":"bakery","name":"Le Pain Gourmand","opening_hours":"Mo,Tu,Th,Fr 07:00-13:00,15:30-18:45; Sa,Su 07:00-13:00","osm_id":8542877308}},{"type":"Feature","geometry":{"type":"Point","coordinates":[0.4919229,46.7613913]},"properties":{"category":"bakery","name":"Boulangerie","osm_id":9258424618}},{"type":"Feature","geometry":{"type":"Point","coordinates":[0.4094703,46.7093198]},"properties":{"category":"bakery","name":"Boulangerie","opening_hours":"Mo, Tu 07:00-13:30, 15:00-19:00; Th, Fr 07:00-13:30, 15:00-19:00; Sa 07:00-13:30","osm_id":9258436617}}]}