{"type":"FeatureCollection","features":[{"type":"Feature","geometry":{"type":"Point","coordinates":[-1.5068315,46.7673992]},"properties":{"category":"bakery","name":"Boulangerie Ordonneau","opening_hours":"Mo-We,Fr 06:30-19:30; Sa 07:00-19:00; Su 07:00-13:00","osm_id":5762044627}},{"type":"Feature","geometry":{"type":"Point","coordinates":[-1.5129456,46.725602]},"properties":{"category":"bakery","name":"Farandole des Gourmandises","osm_id":7764464248}},{"type":"Feature","geometry":{"type":"Point","coordinates":[-1.5104697,46.7684957]},"properties":{"category":"bakery","osm_id":12496254394}}]}