{"type":"FeatureCollection","features":[{"type":"Feature","geometry":{"type":"Point","coordinates":[5.4937018,46.7446249]},"properties":{"category":"bakery","name":"La tuile gourmande","osm_id":4975134229}},{"type":"Feature","geometry":{"type":"Point","coordinates":[5.4636224,46.7368089]},"properties":{"category":"bakery","name":"Chez Antho et Sarah","opening_hours":"closed","phone":"+33 3 84 85 04 37","osm_id":8063036760}},{"type":"Feature","geometry":{"type":"Point","coordinates":[5.4523534,46.7456717]},"properties":{"category":"bakery","name":"La Familiale","opening_hours":"Tu-Sa 06:00-19:00; Su 06:00-12:00","phone":"+33 3 70 06 88 53","osm_id":9113775514}},{"type":"Feature","geometry":{"type":"Point","coordinates":[5.4538228,46.746001]},"properties":{"category":"bakery","name":"Le Pain Boulanger","opening_hours":"Mo,Th,Fr 05:00-18:30; Tu 05:00-17:00; Sa 05:00-18:00; Su 05:00-12:30","phone":"+33 3 84 85 12 18","osm_id":9113811108}},{"type":"Feature","geometry":{"type":"Point","coordinates":[5.4543002,46.7462447]},"properties":{"category":"bakery","name":"Boulangerie Fumey","opening_hours":"Mo,Tu,Th-Sa 06:15-12:30,15:00-19:00; Su 06:30-12:30","phone":"+33 3 84 85 00 70","website":"https://boulangerie-fumey-39.fr","osm_id":9166809096}},{"type":"Feature","geometry":{"type":"Point","coordinates":[5.4530646,46.7459816]},"properties":{"category":"bakery","name":"La Fournée du Revermont","opening_hours":"Mo-We,Fr,Sa 06:30-13:00; Su 06:30-12:30","phone":"+33 3 84 47 71 54","osm_id":9205352774}},{"type":"Feature","geometry":{"type":"Point","coordinates":[5.4562567,46.7506544]},"properties":{"category":"compressed_air","osm_id":11753145849}}]}