{"type":"FeatureCollection","features":[{"type":"Feature","geometry":{"type":"Point","coordinates":[6.356455,46.7694583]},"properties":{"category":"shop","name":"Adrenalin Sport","opening_hours":"Mo-Su 09:00-18:00","phone":"+33 3 81 89 56 22","website":"https://magasin-sport-metabief.com/","osm_id":5913251686}},{"type":"Feature","geometry":{"type":"Point","coordinates":[6.3566558,46.767698]},"properties":{"category":"repair","osm_id":13013210980}},{"type":"Feature","geometry":{"type":"Point","coordinates":[6.3485719,46.7658014]},"properties":{"category":"repair","osm_id":13013227899}}]}