{"type":"FeatureCollection","features":[{"type":"Feature","geometry":{"type":"Point","coordinates":[4.4324805,46.8395953]},"properties":{"category":"bakery","name":"Boulangerie-Pâtisserie L'Atelier des Pains","opening_hours":"Tu,We,Fr 06:30-19:00, Su,Th 06:30-12:30, Sa 06:30-17:30","phone":"+33 3 85 67 95 64","website":"https://www.boulangerielatelierdespains.fr/","osm_id":4914850253}},{"type":"Feature","geometry":{"type":"Point","coordinates":[4.4440496,46.8007922]},"properties":{"category":"bakery","osm_id":7395994673}},{"type":"Feature","geometry":{"type":"Point","coordinates":[4.4181203,46.801962]},"properties":{"category":"bakery","name":"Boulangerie Pâtisserie Florentin","osm_id":7396109380}},{"type":"Feature","geometry":{"type":"Point","coordinates":[4.439082,46.8046891]},"properties":{"category":"bakery","osm_id":7396109414}},{"type":"Feature","geometry":{"type":"Point","coordinates":[4.4386883,46.804782]},"properties":{"category":"bakery","osm_id":7396109416}},{"type":"Feature","geometry":{"type":"Point","coordinates":[4.4170535,46.8058695]},"properties":{"category":"bakery","name":"Maison Durque","phone":"+33385557051","website":"https://www.maisondurque.fr/","osm_id":11125820093}},{"type":"Feature","geometry":{"type":"Point","coordinates":[4.4132853,46.8033033]},"properties":{"category":"shop","name":"Cycles 3C","osm_id":11186541621}}]}