{"type":"FeatureCollection","features":[{"type":"Feature","geometry":{"type":"Point","coordinates":[1.6938521,46.8117564]},"properties":{"category":"bakery","name":"Pat à Pain","opening_hours":"PH,Mo-Su 07:00-20:00","osm_id":3269236357}},{"type":"Feature","geometry":{"type":"Point","coordinates":[1.6968609,46.814332]},"properties":{"category":"bakery","name":"Ch.BEAU","osm_id":3269236359}},{"type":"Feature","geometry":{"type":"Point","coordinates":[1.6380872,46.8046897]},"properties":{"category":"bakery","name":"Caprice d'Amandine","osm_id":3531286922}},{"type":"Feature","geometry":{"type":"Point","coordinates":[1.6370263,46.8058691]},"properties":{"category":"bakery","osm_id":3531286957}},{"type":"Feature","geometry":{"type":"Point","coordinates":[1.692203,46.8115403]},"properties":{"category":"bakery","name":"Le Fournil Saint-André","osm_id":5908834863}},{"type":"Feature","geometry":{"type":"Point","coordinates":[1.6924222,46.8108394]},"properties":{"category":"bakery","name":"La Grigne Bio","opening_hours":"Tu-Sa 07:00-19:20; PH unknown","osm_id":11277792321}},{"type":"Feature","geometry":{"type":"Point","coordinates":[1.685316,46.8099595]},"properties":{"category":"bakery","name":"Le Fournil de Camille","osm_id":12516920272}},{"type":"Feature","geometry":{"type":"Point","coordinates":[1.6767749,46.8073694]},"properties":{"category":"bakery","name":"Boulangerie Autissier","osm_id":12831833152}},{"type":"Feature","geometry":{"type":"Point","coordinates":[1.6926026,46.8005763]},"properties":{"category":"bakery","name":"Boulangerie Dirand","osm_id":12843792289}},{"type":"Feature","geometry":{"type":"Point","coordinates":[1.6947538,46.811532]},"properties":{"category":"bakery","name":"Le Fournil de Camille","osm_id":12846583833}},{"type":"Feature","geometry":{"type":"Point","coordinates":[1.6849218,46.8166204]},"properties":{"category":"bakery","name":"Aux Pains D'autrefois","osm_id":12887011428}},{"type":"Feature","geometry":{"type":"Point","coordinates":[1.6995994,46.8122438]},"properties":{"category":"bakery","name":"A la Boul'ange Koel","osm_id":12901550617}},{"type":"Feature","geometry":{"type":"Point","coordinates":[1.6970068,46.8202188]},"properties":{"category":"bakery","name":"Pat A Pain","osm_id":13289810658}},{"type":"Feature","geometry":{"type":"Point","coordinates":[1.6973864,46.8180759]},"properties":{"category":"bakery","name":"Le Fournil Saint-André","opening_hours":"Mo-Sa 06:00-20:00; Su 07:30-19:30","website":"https://www.fournilsaintandre.fr/boulangerie/1/le-fournil-saint-andre-chateauroux-belle-isle-","osm_id":13289810659}},{"type":"Feature","geometry":{"type":"Point","coordinates":[1.6919978,46.8124115]},"properties":{"category":"bakery","name":"Aux Délices","opening_hours":"We,Fr 07:30-19:00; Th 07:30-13:00,14:00-19:00; Sa 07:00-19:00; Su 07:30-13:00","osm_id":13293687512}},{"type":"Feature","geometry":{"type":"Point","coordinates":[1.6344604,46.8998756]},"properties":{"category":"bakery","name":"Les Caprices d'Amandine","osm_id":13866693962}}]}