{"type":"FeatureCollection","features":[{"type":"Feature","geometry":{"type":"Point","coordinates":[4.9468834,46.8768378]},"properties":{"category":"bakery","name":"Le Secret des Pains","opening_hours":"Tu-Sa 06:30-12:30,15:30-19:15; Su,PH 07:00-13:00; Mo off","osm_id":1938326558}},{"type":"Feature","geometry":{"type":"Point","coordinates":[4.990268,46.833651]},"properties":{"category":"bakery","osm_id":3007696300}},{"type":"Feature","geometry":{"type":"Point","coordinates":[4.967741,46.8199903]},"properties":{"category":"bakery","osm_id":8594538578}},{"type":"Feature","geometry":{"type":"Point","coordinates":[4.9225783,46.830427]},"properties":{"category":"bakery","name":"boulangerie mathis","osm_id":9667546675}}]}