{"type":"FeatureCollection","features":[{"type":"Feature","geometry":{"type":"Point","coordinates":[3.4524416,46.8386782]},"properties":{"category":"bakery","name":"Boulangerie Perotti","opening_hours":"Tu-Sa 06:00-13:30,15:30-19:30; Su 06:30-13:00","osm_id":2185851810}},{"type":"Feature","geometry":{"type":"Point","coordinates":[3.4555487,46.8229225]},"properties":{"category":"repair","opening_hours":"24/7","osm_id":7242252123}},{"type":"Feature","geometry":{"type":"Point","coordinates":[3.4650798,46.8891879]},"properties":{"category":"bakery","osm_id":9049463873}},{"type":"Feature","geometry":{"type":"Point","coordinates":[3.4653808,46.8898226]},"properties":{"category":"bakery","name":"Sylvie et Bruno Ravery","osm_id":9049463878}},{"type":"Feature","geometry":{"type":"Point","coordinates":[3.462338,46.8306751]},"properties":{"category":"repair","opening_hours":"24/7","osm_id":9421244895}},{"type":"Feature","geometry":{"type":"Point","coordinates":[3.4623707,46.8288212]},"properties":{"category":"bakery","name":"L'Atelier du Pain","opening_hours":"Tu-Sa 06:30-19:00; Su 06:30-12:30","phone":"+33 3 74 67 17 90","osm_id":13107828993}},{"type":"Feature","geometry":{"type":"Point","coordinates":[3.4679506,46.8306565]},"properties":{"category":"bakery","name":"Boulangerie Roussel","opening_hours":"Mo-Sa 06:00-20:30; Su 06:00-20:00","phone":"+33 9 83 66 61 64","osm_id":13107902227}},{"type":"Feature","geometry":{"type":"Point","coordinates":[3.4653831,46.8328242]},"properties":{"category":"bakery","name":"Céréal's Bar","opening_hours":"Mo-Fr 05:30-19:00","osm_id":13109008071}}]}