{"type":"FeatureCollection","features":[{"type":"Feature","geometry":{"type":"Point","coordinates":[6.1595751,46.8562404]},"properties":{"category":"bakery","name":"Aux saveurs Frasnoises","phone":"+33 3 81 45 42 46","osm_id":6302353403}},{"type":"Feature","geometry":{"type":"Point","coordinates":[6.1623105,46.8569297]},"properties":{"category":"bakery","name":"Desmousseaux","opening_hours":"Tu-Fr 05:00-14:00; Sa 05:00-17:00","phone":"+33 3 81 46 54 68","osm_id":7399925799}},{"type":"Feature","geometry":{"type":"Point","coordinates":[6.1515011,46.8527597]},"properties":{"category":"compressed_air","osm_id":9194509192}},{"type":"Feature","geometry":{"type":"Point","coordinates":[6.1579657,46.8571194]},"properties":{"category":"shop","website":"https://www.frasnedrugeon-cfd.fr/la-decouverte-du-territoire-activites-et-animations/le-long-de-nos-liaisons-douces/location-de-velos-a-assistance-electrique/","osm_id":10711708808}}]}