{"type":"FeatureCollection","features":[{"type":"Feature","geometry":{"type":"Point","coordinates":[2.3719681,46.801053]},"properties":{"category":"bakery","name":"L’Art du Bon Pain","opening_hours":"Mo-Tu,Th-Fr 07:30-13:00,16:30-18:00; We 07:30-13:00; Sa 07:45-12:30","phone":"+33 9 81 27 66 66","osm_id":1871363863}},{"type":"Feature","geometry":{"type":"Point","coordinates":[2.3193353,46.8577884]},"properties":{"category":"bakery","name":"Boulangerie Ligot","phone":"+33 2 48 60 65 98","osm_id":8756205663}}]}