{"type":"FeatureCollection","features":[{"type":"Feature","geometry":{"type":"Point","coordinates":[-0.9327261,46.891615]},"properties":{"category":"bakery","name":"Pains - Brioches","osm_id":5339727328}},{"type":"Feature","geometry":{"type":"Point","coordinates":[-0.9001806,46.8835908]},"properties":{"category":"bakery","name":"Aux Délices des Puys","osm_id":6807377792}},{"type":"Feature","geometry":{"type":"Point","coordinates":[-0.9921903,46.8223784]},"properties":{"category":"bakery","name":"Planchot","osm_id":12365985882}},{"type":"Feature","geometry":{"type":"Point","coordinates":[-0.9256384,46.8626082]},"properties":{"category":"repair","osm_id":13394605146}},{"type":"Feature","geometry":{"type":"Point","coordinates":[-0.9303537,46.8946334]},"properties":{"category":"compressed_air","osm_id":13986042097}}]}