{"type":"FeatureCollection","features":[{"type":"Feature","geometry":{"type":"Point","coordinates":[-1.2499384,46.8933024]},"properties":{"category":"bakery","name":"Huchet","osm_id":3446141816}},{"type":"Feature","geometry":{"type":"Point","coordinates":[-1.272289,46.8290885]},"properties":{"category":"bakery","osm_id":5279345993}},{"type":"Feature","geometry":{"type":"Point","coordinates":[-1.2509132,46.8928738]},"properties":{"category":"bakery","name":"La Fabrique à Pains","osm_id":5551427215}}]}