{"type":"FeatureCollection","features":[{"type":"Feature","geometry":{"type":"Point","coordinates":[6.3652079,46.8925987]},"properties":{"category":"bakery","name":"Au Fournil du Larmont","opening_hours":"Mo-Fr 04:45-20:00; Sa,Su 06:00-20:00","phone":"+33 3 81 49 59 35","website":"https://www.auxdouxfournils.fr/nos-fournils/fournil-du-larmont","osm_id":688837633}},{"type":"Feature","geometry":{"type":"Point","coordinates":[6.3330673,46.8497876]},"properties":{"category":"bakery","name":"Le Fournil du Lac","opening_hours":"Tu-Fr 05:00-13:00,16:00-19:30; Sa 05:00-13:00,14:30-19:30; Su 05:45-12:30","phone":"+33 3 81 89 42 75","website":"https://www.auxdouxfournils.fr/nos-fournils/fournil-du-lac","osm_id":1439052726}},{"type":"Feature","geometry":{"type":"Point","coordinates":[6.3360295,46.8991847]},"properties":{"category":"compressed_air","osm_id":6856179248}},{"type":"Feature","geometry":{"type":"Point","coordinates":[6.3770029,46.8729687]},"properties":{"category":"bakery","name":"La miche du Frambourg","opening_hours":"Tu-Fr 05:30-19:30; Sa 06:30-18:00; Su 07:00-12:30","osm_id":7403527771}},{"type":"Feature","geometry":{"type":"Point","coordinates":[6.3659615,46.8878577]},"properties":{"category":"bakery","name":"Boulangerie Ange","osm_id":14107375904}}]}