{"type":"FeatureCollection","features":[{"type":"Feature","geometry":{"type":"Point","coordinates":[-2.1764814,46.9398668]},"properties":{"category":"bakery","name":"La Fournée du Gois","opening_hours":"Mo-Su 07:00-20:00","phone":"+33251398059","osm_id":1638500404}},{"type":"Feature","geometry":{"type":"Point","coordinates":[-2.1784419,46.9420859]},"properties":{"category":"bakery","name":"Artisan Boulanger Pâtisser","opening_hours":"Mo-Su 07:00-20:00","phone":"+33251393552","osm_id":5426464092}},{"type":"Feature","geometry":{"type":"Point","coordinates":[-2.1789314,46.9426678]},"properties":{"category":"shop","name":"Vél'Hop","opening_hours":"Mo-Su 10:00-12:30,14:00-18:00","osm_id":5624258610}},{"type":"Feature","geometry":{"type":"Point","coordinates":[-2.185646,46.9452505]},"properties":{"category":"repair","osm_id":14071133914}}]}