{"type":"FeatureCollection","features":[{"type":"Feature","geometry":{"type":"Point","coordinates":[5.7732482,46.9032529]},"properties":{"category":"bakery","name":"Boulangerie Viennet","phone":"+33 3 84 66 57 18","osm_id":2325884361}},{"type":"Feature","geometry":{"type":"Point","coordinates":[5.770253,46.9053637]},"properties":{"category":"bakery","name":"Boulangerie Pâtisserie Horbach","opening_hours":"Tu-Sa 06:30-12:30,14:00-19:00; Su 07:00-12:30","phone":"+33 3 84 66 11 58","osm_id":5071126573}},{"type":"Feature","geometry":{"type":"Point","coordinates":[5.7932264,46.9017568]},"properties":{"category":"bakery","name":"Boulangerie Martin Michel","osm_id":10876023408}},{"type":"Feature","geometry":{"type":"Point","coordinates":[5.7988275,46.9765544]},"properties":{"category":"bakery","name":"La boulangerie des co'pains","opening_hours":"Mo,Tu,Tu,Fr,Sa 06:00-12:45,15:00-19:00; Su 06:00-12:30","phone":"+33950192385","osm_id":11274692043}},{"type":"Feature","geometry":{"type":"Point","coordinates":[5.7649213,46.9123505]},"properties":{"category":"shop","name":"A Tour de Roues","phone":"+33 7 57 18 75 73","website":"https://atourderoues.com","osm_id":11635958202}},{"type":"Feature","geometry":{"type":"Point","coordinates":[5.7468873,46.999183]},"properties":{"category":"bakery","osm_id":12170539037}},{"type":"Feature","geometry":{"type":"Point","coordinates":[5.7564966,46.9145502]},"properties":{"category":"shop","name":"Romu Sport","osm_id":13164632315}},{"type":"Feature","geometry":{"type":"Point","coordinates":[5.703637,46.9329005]},"properties":{"category":"bakery","name":"La brique blanche","opening_hours":"Su 08:00-11:00","osm_id":13841647939}}]}