{"type":"FeatureCollection","features":[{"type":"Feature","geometry":{"type":"Point","coordinates":[3.8401506,46.9052954]},"properties":{"category":"bakery","name":"Au Pain du Bois","opening_hours":"Mo-Sa 07:00-12:30, 16:00-19:00; Su, PH 07:00-12:30","osm_id":2296385406}},{"type":"Feature","geometry":{"type":"Point","coordinates":[3.8517712,46.9217662]},"properties":{"category":"bakery","name":"Boulangerie + Café","osm_id":4406722449}},{"type":"Feature","geometry":{"type":"Point","coordinates":[3.8116861,46.9871141]},"properties":{"category":"bakery","name":"Fabienne et Sébastien Guérin","osm_id":6418142217}},{"type":"Feature","geometry":{"type":"Point","coordinates":[3.8108986,46.9865036]},"properties":{"category":"bakery","name":"Alain Odoul","osm_id":6418144072}}]}