{"type":"FeatureCollection","features":[{"type":"Feature","geometry":{"type":"Point","coordinates":[5.1468561,46.9982827]},"properties":{"category":"bakery","osm_id":4154996446}},{"type":"Feature","geometry":{"type":"Point","coordinates":[5.1471386,46.9961902]},"properties":{"category":"bakery","name":"Le Fournil d'Emilie","osm_id":5804114300}},{"type":"Feature","geometry":{"type":"Point","coordinates":[5.146497,46.999236]},"properties":{"category":"bakery","name":"Au Délice du Bon Pain","opening_hours":"Mo, Tu, Th-Sa 06:00-19:00","osm_id":6662386026}},{"type":"Feature","geometry":{"type":"Point","coordinates":[5.1469975,46.9984951]},"properties":{"category":"bakery","osm_id":8868422202}},{"type":"Feature","geometry":{"type":"Point","coordinates":[5.1467459,46.9984332]},"properties":{"category":"bakery","osm_id":8868447955}}]}