{"type":"FeatureCollection","features":[{"type":"Feature","geometry":{"type":"Point","coordinates":[-1.7365172,46.9976166]},"properties":{"category":"bakery","name":"La Petite Meuline","opening_hours":"Tu-Sa 06:30-13:30,15:30-19:30; Su 06:30-13:30","phone":"+33 2 40 26 42 01","osm_id":11125182909}},{"type":"Feature","geometry":{"type":"Point","coordinates":[-1.7533624,46.9620376]},"properties":{"category":"bakery","name":"Le fournil de Paulx","opening_hours":"Tu-Fr 07:00-13:00,15:30-19:15; Sa 07:00-14:00; Su 07:00-13:00","osm_id":13802744590}}]}