{"type":"FeatureCollection","features":[{"type":"Feature","geometry":{"type":"Point","coordinates":[-1.2299205,46.9847785]},"properties":{"category":"bakery","name":"Les Amoureux du Pain","osm_id":4446723147}},{"type":"Feature","geometry":{"type":"Point","coordinates":[-1.2492798,46.965552]},"properties":{"category":"bakery","osm_id":4910110045}},{"type":"Feature","geometry":{"type":"Point","coordinates":[-1.2901694,46.9077487]},"properties":{"category":"bakery","name":"Pain Biologique","osm_id":5582137294}},{"type":"Feature","geometry":{"type":"Point","coordinates":[-1.2964787,46.9474917]},"properties":{"category":"bakery","name":"Céline & Stéphane","osm_id":8423081904}},{"type":"Feature","geometry":{"type":"Point","coordinates":[-1.2957713,46.9475884]},"properties":{"category":"bakery","name":"Eveillard","osm_id":8423121701}}]}