{"type":"FeatureCollection","features":[{"type":"Feature","geometry":{"type":"Point","coordinates":[4.9823812,46.9053453]},"properties":{"category":"bakery","name":"La Petite Boulange","osm_id":4154997885}},{"type":"Feature","geometry":{"type":"Point","coordinates":[4.9349212,46.9070129]},"properties":{"category":"repair","opening_hours":"24/7","osm_id":9462844502}},{"type":"Feature","geometry":{"type":"Point","coordinates":[4.9081039,46.9475866]},"properties":{"category":"bakery","name":"Le 7ème Péché","phone":"+33 3 85 41 03 74","osm_id":12350810695}}]}