{"type":"FeatureCollection","features":[{"type":"Feature","geometry":{"type":"Point","coordinates":[2.9456737,46.9492823]},"properties":{"category":"bakery","osm_id":2153277269}},{"type":"Feature","geometry":{"type":"Point","coordinates":[2.9474305,46.9501301]},"properties":{"category":"bakery","name":"Patisserie","osm_id":2153295541}},{"type":"Feature","geometry":{"type":"Point","coordinates":[2.9670885,46.9562591]},"properties":{"category":"bakery","name":"Le fournil du gravier","osm_id":12159932001}}]}