{"type":"FeatureCollection","features":[{"type":"Feature","geometry":{"type":"Point","coordinates":[-2.2473877,46.9962175]},"properties":{"category":"shop","name":"L'île à Vélo","osm_id":1618087863}},{"type":"Feature","geometry":{"type":"Point","coordinates":[-2.2686667,46.9793967]},"properties":{"category":"shop","osm_id":1635768614}},{"type":"Feature","geometry":{"type":"Point","coordinates":[-2.2654433,46.9797297]},"properties":{"category":"shop","name":"No‘ Vélo","website":"https://www.locnovelo.com/","osm_id":11076539907}},{"type":"Feature","geometry":{"type":"Point","coordinates":[-2.2414094,46.9756933]},"properties":{"category":"compressed_air","osm_id":13787215202}}]}