{"type":"FeatureCollection","features":[{"type":"Feature","geometry":{"type":"Point","coordinates":[4.6994112,46.9110195]},"properties":{"category":"bakery","osm_id":2405982441}},{"type":"Feature","geometry":{"type":"Point","coordinates":[4.6324029,46.9523334]},"properties":{"category":"bakery","osm_id":3396487837}},{"type":"Feature","geometry":{"type":"Point","coordinates":[4.6336638,46.9523402]},"properties":{"category":"bakery","name":"Salon de The","osm_id":4406810974}},{"type":"Feature","geometry":{"type":"Point","coordinates":[4.6341796,46.9522214]},"properties":{"category":"bakery","name":"Boulangerie Pâtisserie Maison Cochard","opening_hours":"Mo-We,Fr-Sa 06:00-19:30; Th off; Su 06:00-19:00","phone":"+33 3 80 21 71 43","osm_id":7775419985}}]}