{"type":"FeatureCollection","features":[{"type":"Feature","geometry":{"type":"Point","coordinates":[-1.411943,46.9348034]},"properties":{"category":"bakery","name":"Alexandra et Pascal Sorin","phone":"+33 2 51 34 69 24","osm_id":1987147580}},{"type":"Feature","geometry":{"type":"Point","coordinates":[-1.4299366,46.9718747]},"properties":{"category":"bakery","name":"Au Fournil de Vieillevigne","opening_hours":"Mo-Fr 06:30-14:00,16:00-19:30; Th off; Sa 07:00-13:30,16:00-19:30; Su 07:30-13:30,16:00-19:30","osm_id":2400717370}},{"type":"Feature","geometry":{"type":"Point","coordinates":[-1.4514995,46.9064967]},"properties":{"category":"bakery","name":"3 Lieu","osm_id":7942954569}},{"type":"Feature","geometry":{"type":"Point","coordinates":[-1.4354196,46.9711464]},"properties":{"category":"compressed_air","osm_id":12463445336}}]}