{"type":"FeatureCollection","features":[{"type":"Feature","geometry":{"type":"Point","coordinates":[-0.9521008,46.9928526]},"properties":{"category":"bakery","name":"Lefort","osm_id":1840084357}},{"type":"Feature","geometry":{"type":"Point","coordinates":[-0.9540667,46.9919578]},"properties":{"category":"bakery","osm_id":2295172840}},{"type":"Feature","geometry":{"type":"Point","coordinates":[-0.9531528,46.9951788]},"properties":{"category":"bakery","name":"Saveurs et Tradition","osm_id":2852666196}},{"type":"Feature","geometry":{"type":"Point","coordinates":[-0.9960934,46.960973]},"properties":{"category":"bakery","name":"L'atelier du pain","opening_hours":"Su,PH 07:00-13:00; Mo-Sa 06:30-13:30,15:45-19:30","osm_id":3463695574}},{"type":"Feature","geometry":{"type":"Point","coordinates":[-0.9529461,46.9178607]},"properties":{"category":"shop","name":"JP Racing Bike1","osm_id":7082444462}},{"type":"Feature","geometry":{"type":"Point","coordinates":[-0.9510306,46.9906904]},"properties":{"category":"shop","name":"Otantik Cycles","opening_hours":"Mo-Fr 09:30-12:30,14:30-18:30; Sa 10:00-12:00,14:00-17:00","phone":"+33788182001","osm_id":11957914044}}]}