{"type":"FeatureCollection","features":[{"type":"Feature","geometry":{"type":"Point","coordinates":[-1.2830882,47.0869858]},"properties":{"category":"shop","name":"Talbicyclette","opening_hours":"Tu, We, Fr 10:00-12:30, 14:00-18:30; Th 10:00-13:00; Sa 10:00-12:30, 14:00-18:00","phone":"+33 2 28 21 64 99","website":"https://talbicyclette.fr/","osm_id":8147146413}},{"type":"Feature","geometry":{"type":"Point","coordinates":[-1.2814278,47.0994278]},"properties":{"category":"compressed_air","osm_id":9909087226}}]}