{"type":"FeatureCollection","features":[{"type":"Feature","geometry":{"type":"Point","coordinates":[-0.9463429,47.0274029]},"properties":{"category":"bakery","name":"Nauleau","osm_id":1728182827}},{"type":"Feature","geometry":{"type":"Point","coordinates":[-0.9102204,47.0919075]},"properties":{"category":"bakery","osm_id":1778464608}},{"type":"Feature","geometry":{"type":"Point","coordinates":[-0.9443547,47.0290841]},"properties":{"category":"bakery","name":"Allegros Philippe","osm_id":6240050387}},{"type":"Feature","geometry":{"type":"Point","coordinates":[-0.9417475,47.0548952]},"properties":{"category":"bakery","name":"La Mie Câline","osm_id":8384325506}},{"type":"Feature","geometry":{"type":"Point","coordinates":[-0.9401392,47.0624814]},"properties":{"category":"bakery","osm_id":8969053595}},{"type":"Feature","geometry":{"type":"Point","coordinates":[-0.9403513,47.0622204]},"properties":{"category":"bakery","name":"La tarte au vin","osm_id":8969077017}},{"type":"Feature","geometry":{"type":"Point","coordinates":[-0.9156585,47.0923925]},"properties":{"category":"bakery","name":"Maison Boulay","phone":"+33 2 41 71 11 74","osm_id":11219418619}}]}