{"type":"FeatureCollection","features":[{"type":"Feature","geometry":{"type":"Point","coordinates":[-1.1863803,47.043499]},"properties":{"category":"bakery","name":"Sécher","osm_id":4658757147}},{"type":"Feature","geometry":{"type":"Point","coordinates":[-1.1256132,47.0973164]},"properties":{"category":"bakery","name":"La Grange aux Pains","osm_id":5983708975}},{"type":"Feature","geometry":{"type":"Point","coordinates":[-1.1884077,47.0999283]},"properties":{"category":"bakery","name":"Boulangerie Grimaud-Deray","opening_hours":"We off;Su 07:00-13:00;Mo-Sa 06:30-13:00,16:30-19:00","phone":"+33 2 41 70 42 60","osm_id":7331445737}},{"type":"Feature","geometry":{"type":"Point","coordinates":[-1.1128137,47.013666]},"properties":{"category":"bakery","name":"Le Grignon d'Pain","opening_hours":"Tu-Sa 07:00-13:30,16:00-19:00; Su 07:30-13:30","website":"http://legrignondpain.fr/","osm_id":9835826065}},{"type":"Feature","geometry":{"type":"Point","coordinates":[-1.1971811,47.0127607]},"properties":{"category":"bakery","name":"La MI DO RE","osm_id":13533084708}}]}