{"type":"FeatureCollection","features":[{"type":"Feature","geometry":{"type":"Point","coordinates":[-1.3383961,47.0828207]},"properties":{"category":"shop","name":"Pratik’Cycle","phone":"+33757773391","osm_id":10078953081}},{"type":"Feature","geometry":{"type":"Point","coordinates":[-1.3034686,47.0682239]},"properties":{"category":"shop","name":"Nose Turn","opening_hours":"Mo-Fr 13:00-18:30; Sa 09:00-12:00","phone":"+33658873611","osm_id":10783783219}},{"type":"Feature","geometry":{"type":"Point","coordinates":[-1.3415142,47.0034221]},"properties":{"category":"compressed_air","osm_id":13031061399}}]}