{"type":"FeatureCollection","features":[{"type":"Feature","geometry":{"type":"Point","coordinates":[2.3887541,47.0969919]},"properties":{"category":"compressed_air","osm_id":1900212593}},{"type":"Feature","geometry":{"type":"Point","coordinates":[2.3986165,47.0862862]},"properties":{"category":"bakery","name":"Le Fournil Saint-Bonnet","osm_id":3340167516}},{"type":"Feature","geometry":{"type":"Point","coordinates":[2.3954249,47.0870303]},"properties":{"category":"bakery","name":"La Mie Dorée","osm_id":3580385269}},{"type":"Feature","geometry":{"type":"Point","coordinates":[2.3995633,47.0874277]},"properties":{"category":"bakery","name":"Le Fournil Saint-Honoré","osm_id":3874524844}},{"type":"Feature","geometry":{"type":"Point","coordinates":[2.398255,47.0636312]},"properties":{"category":"bakery","name":"Briocherie du Lac","osm_id":4059435489}},{"type":"Feature","geometry":{"type":"Point","coordinates":[2.3976491,47.0644573]},"properties":{"category":"bakery","osm_id":4059436989}},{"type":"Feature","geometry":{"type":"Point","coordinates":[2.3956544,47.0726759]},"properties":{"category":"compressed_air","osm_id":4612959821}},{"type":"Feature","geometry":{"type":"Point","coordinates":[2.3821524,47.0975637]},"properties":{"category":"bakery","name":"Pât à Pain","opening_hours":"Mo-Su 06:30-20:30","phone":"+33 2 48 70 31 73","website":"https://www.patapain.com/saint-doulchard-r-681.html","osm_id":4907439929}},{"type":"Feature","geometry":{"type":"Point","coordinates":[2.3947946,47.0848894]},"properties":{"category":"bakery","name":"Pât à Pain","opening_hours":"Mo-Sa 06:30-20:00; Su 08:00-20:00","phone":"+33 2 48 65 39 71","osm_id":4907602321}},{"type":"Feature","geometry":{"type":"Point","coordinates":[2.3573179,47.009386]},"properties":{"category":"bakery","name":"Copaline","osm_id":5145174986}},{"type":"Feature","geometry":{"type":"Point","coordinates":[2.3864277,47.06297]},"properties":{"category":"bakery","name":"Stéphanie Bardou","opening_hours":"Mo,Tu,Th-Su 06:30-13:30","osm_id":5602679136}},{"type":"Feature","geometry":{"type":"Point","coordinates":[2.3971542,47.0551081]},"properties":{"category":"repair","opening_hours":"24/7","osm_id":6387187048}},{"type":"Feature","geometry":{"type":"Point","coordinates":[2.392256,47.0811949]},"properties":{"category":"bakery","name":"Boulangerie Pâtisserie Lefranc","opening_hours":"Tu-Sa 07:00-19:15; PH 07:00-13:00","phone":"+33 2 34 64 81 23","osm_id":6799312253}},{"type":"Feature","geometry":{"type":"Point","coordinates":[2.3954378,47.0844124]},"properties":{"category":"bakery","name":"La Mie Câline","opening_hours":"Mo-Sa 07:00-19:30","osm_id":7738188959}},{"type":"Feature","geometry":{"type":"Point","coordinates":[2.3933064,47.0889811]},"properties":{"category":"bakery","name":"Les Pains de Simon","opening_hours":"Tu-Fr 07:30-13:30, 15:30-19:30; Sa 07:30-13:30","website":"https://www.instagram.com/les_pains_de_simon/","osm_id":8817215701}},{"type":"Feature","geometry":{"type":"Point","coordinates":[2.3903663,47.0763421]},"properties":{"category":"shop","name":"La Bicylette","opening_hours":"Tu-Fr 09:00-12:00,14:00-19:00; Sa 10:00-18:00; PH off","phone":"+33 7 69 27 15 92","website":"https://labicyclettebourges.wixsite.com/my-site","osm_id":8938650388}},{"type":"Feature","geometry":{"type":"Point","coordinates":[2.3926718,47.0612571]},"properties":{"category":"shop","name":"Calaise Bicycle","website":"https://www.calaisebicycle.com/","osm_id":10578733533}},{"type":"Feature","geometry":{"type":"Point","coordinates":[2.390904,47.0801433]},"properties":{"category":"bakery","name":"Au Fournil d’Auron","opening_hours":"Mo-We 07:00-19:30; Fr-Su 07:00-19:30","phone":"+33 6 58 99 98 81","osm_id":10601168231}},{"type":"Feature","geometry":{"type":"Point","coordinates":[2.3952616,47.0940969]},"properties":{"category":"repair","osm_id":11926034660}},{"type":"Feature","geometry":{"type":"Point","coordinates":[2.390039,47.079102]},"properties":{"category":"repair","osm_id":12558987907}},{"type":"Feature","geometry":{"type":"Point","coordinates":[2.3638389,47.08107]},"properties":{"category":"bakery","name":"Marie Blachère","opening_hours":"Mo-Sa 07:00-19:30","phone":"+33 2 48 59 28 59","website":"https://boulangeries.marieblachere.com/fr/france-FR/7230/marie-blachere-bourges/details","osm_id":13111251352}},{"type":"Feature","geometry":{"type":"Point","coordinates":[2.3960629,47.0867506]},"properties":{"category":"repair","opening_hours":"24/7","osm_id":13153094175}},{"type":"Feature","geometry":{"type":"Point","coordinates":[2.3776603,47.0710919]},"properties":{"category":"bakery","name":"La Mie Dorée","osm_id":13249813056}},{"type":"Feature","geometry":{"type":"Point","coordinates":[2.3942008,47.0932013]},"properties":{"category":"bakery","name":"Chez Papa","osm_id":14006062401}}]}