{"type":"FeatureCollection","features":[{"type":"Feature","geometry":{"type":"Point","coordinates":[-1.6414411,47.0383422]},"properties":{"category":"bakery","osm_id":3334120820}},{"type":"Feature","geometry":{"type":"Point","coordinates":[-1.6417459,47.0361147]},"properties":{"category":"bakery","name":"Les Saveurs de Robin","osm_id":3334151993}},{"type":"Feature","geometry":{"type":"Point","coordinates":[-1.6423314,47.0364548]},"properties":{"category":"bakery","name":"La Carolingienne","osm_id":3334151995}},{"type":"Feature","geometry":{"type":"Point","coordinates":[-1.6355768,47.0483227]},"properties":{"category":"bakery","name":"La Carolingienne","osm_id":3596194917}},{"type":"Feature","geometry":{"type":"Point","coordinates":[-1.6422863,47.0367491]},"properties":{"category":"shop","name":"Cycles Expert St Phil","osm_id":3772700335}},{"type":"Feature","geometry":{"type":"Point","coordinates":[-1.6121132,47.0941331]},"properties":{"category":"bakery","name":"Boulangerie éKureuil","opening_hours":"Mo-Tu 06:30-13:30,15:30-19:00; Th-Sa 06:30-13:30,15:30-19:00; Su 06:30-13:00","phone":"+33259284127","osm_id":3809911257}},{"type":"Feature","geometry":{"type":"Point","coordinates":[-1.6122496,47.0935868]},"properties":{"category":"bakery","name":"Boulangerie du Lac","opening_hours":"Tu-Fr 06:45-13:45, 15:30-19:00; Sa 06:45-13:45; Su 06:45-13:00","osm_id":4045610930}},{"type":"Feature","geometry":{"type":"Point","coordinates":[-1.6391583,47.0471807]},"properties":{"category":"compressed_air","osm_id":5248426201}}]}