{"type":"FeatureCollection","features":[{"type":"Feature","geometry":{"type":"Point","coordinates":[0.5761134,47.1085634]},"properties":{"category":"bakery","osm_id":4608335925}},{"type":"Feature","geometry":{"type":"Point","coordinates":[0.5372759,47.1448856]},"properties":{"category":"bakery","name":"Le Fournil Saint-Épinois","osm_id":4852591692}},{"type":"Feature","geometry":{"type":"Point","coordinates":[0.5772389,47.110769]},"properties":{"category":"repair","osm_id":13205482769}},{"type":"Feature","geometry":{"type":"Point","coordinates":[0.5399652,47.1440918]},"properties":{"category":"repair","osm_id":13536907500}}]}