{"type":"FeatureCollection","features":[{"type":"Feature","geometry":{"type":"Point","coordinates":[2.218635,47.145078]},"properties":{"category":"shop","name":"Cycle Strebelle","opening_hours":"Tu-Fr 10:00-12:00,14:00-18:00","phone":"+33 6 34 15 19 74","website":"https://www.cycles-strebelle.fr/","osm_id":11245331533}},{"type":"Feature","geometry":{"type":"Point","coordinates":[2.207274,47.1397027]},"properties":{"category":"repair","osm_id":12578386078}},{"type":"Feature","geometry":{"type":"Point","coordinates":[2.2134946,47.14128]},"properties":{"category":"repair","name":"La Petite Reine","opening_hours":"Apr-Oct","osm_id":13653161826}},{"type":"Feature","geometry":{"type":"Point","coordinates":[2.2154442,47.1431649]},"properties":{"category":"repair","name":"Accueil Vélo","osm_id":13684237339}}]}