{"type":"FeatureCollection","features":[{"type":"Feature","geometry":{"type":"Point","coordinates":[-1.9144638,47.1221151]},"properties":{"category":"bakery","name":"La Croquiserie","opening_hours":"Mo,Tu,Th,Fr 06:30-19:00; We off; Sa 07:00-19:00; Su 07:00-13:00","osm_id":3761274095}},{"type":"Feature","geometry":{"type":"Point","coordinates":[-1.9493226,47.1149001]},"properties":{"category":"bakery","name":"Boulangerie","osm_id":3762312961}},{"type":"Feature","geometry":{"type":"Point","coordinates":[-1.985009,47.1513127]},"properties":{"category":"bakery","name":"Boulangerie Pâtisserie Rouxel","opening_hours":"Tu-Sa 07:00-13:30,15:30-19:30; Su 07:00-13:00","phone":"+33 9 86 67 96 84","osm_id":5854818986}},{"type":"Feature","geometry":{"type":"Point","coordinates":[-1.9380875,47.1140959]},"properties":{"category":"bakery","osm_id":11245945890}}]}