{"type":"FeatureCollection","features":[{"type":"Feature","geometry":{"type":"Point","coordinates":[5.0795246,47.1932057]},"properties":{"category":"bakery","name":"A la gloire de mon pere","osm_id":4749823477}},{"type":"Feature","geometry":{"type":"Point","coordinates":[5.0555266,47.1147448]},"properties":{"category":"bakery","name":"Au gré du levain","opening_hours":"Mo,Th,Fr 16:00-19:00","osm_id":9963906392}},{"type":"Feature","geometry":{"type":"Point","coordinates":[5.0805665,47.1705107]},"properties":{"category":"bakery","name":"Au Pain de Vie","opening_hours":"Mo-Th 06:45-13:00,16:00-19:30; Sa 06:45-12:30,16:00-19:00; Su 06:45-12:30; PH 06:45-12:30; Fr off","osm_id":12206462106}}]}