{"type":"FeatureCollection","features":[{"type":"Feature","geometry":{"type":"Point","coordinates":[-1.3995127,47.1547184]},"properties":{"category":"bakery","name":"Laeticia et Romuald Baudry","opening_hours":"Tu-Sa 06:30-13:30,15:00-20:00; Su 07:00-14:00; Aug 03-24 off","osm_id":4041840418}},{"type":"Feature","geometry":{"type":"Point","coordinates":[-1.3990661,47.154329]},"properties":{"category":"bakery","name":"Le four du bois Geffray","osm_id":4041840419}},{"type":"Feature","geometry":{"type":"Point","coordinates":[-1.3417897,47.1416367]},"properties":{"category":"bakery","name":"Julien Arnaud","osm_id":4226781537}},{"type":"Feature","geometry":{"type":"Point","coordinates":[-1.3351997,47.1380138]},"properties":{"category":"bakery","name":"L'instant Gourmand","opening_hours":"Mo-Tu,Th-Fr 06:30-13:45,15:00-19:30; Sa 07:00-13:00,15:30-19:00; Su 07:00-13:00","phone":"+33 2 40 80 41 59","osm_id":7316084517}},{"type":"Feature","geometry":{"type":"Point","coordinates":[-1.3409181,47.1780225]},"properties":{"category":"bakery","name":"Boulangerie Monsieur B","opening_hours":"Mo-Sa 06:30-19:00","phone":"+33 2 40 06 74 20","osm_id":7388454620}},{"type":"Feature","geometry":{"type":"Point","coordinates":[-1.3306464,47.1346854]},"properties":{"category":"repair","osm_id":10004656062}},{"type":"Feature","geometry":{"type":"Point","coordinates":[-1.3504843,47.1481211]},"properties":{"category":"bakery","name":"Le fournil d'Alex","opening_hours":"We 08:00-13:00; Sa 08:00-12:00","phone":"+33 6 21 01 53 28","website":"https://www.lefournildalex.fr/","osm_id":12544223802}}]}