{"type":"FeatureCollection","features":[{"type":"Feature","geometry":{"type":"Point","coordinates":[-2.2196198,47.1280338]},"properties":{"category":"bakery","name":"Boulangerie de la Pointe","opening_hours":"Tu-Fr 07:00-13:00, 16:00-19:30; Sa-Su 07:00-13:00, 15:30-19:30","phone":"+33 2 40 21 60 66","osm_id":4041992825}},{"type":"Feature","geometry":{"type":"Point","coordinates":[-2.2179236,47.1291792]},"properties":{"category":"bakery","name":"Fournil du Centre","opening_hours":"Mo-Sa 07:30-13:00, 15:45-19:00; Su 07:30-13:00","phone":"+33 2 40 64 52 82","osm_id":5843704986}},{"type":"Feature","geometry":{"type":"Point","coordinates":[-2.2453007,47.1351535]},"properties":{"category":"compressed_air","osm_id":13806556518}}]}