{"type":"FeatureCollection","features":[{"type":"Feature","geometry":{"type":"Point","coordinates":[-1.6867738,47.1434433]},"properties":{"category":"bakery","name":"Rosa","opening_hours":"Mo-Fr 06:30-19:00; We off; Sa 07:00-19:00","phone":"+33 2 40 65 48 50","website":"https://rosa-boulangerie.com/boulangerie-rosa-bouaye/","osm_id":1112937940}},{"type":"Feature","geometry":{"type":"Point","coordinates":[-1.6725764,47.1994826]},"properties":{"category":"bakery","name":"Les Délices d'Indre","opening_hours":"Tu-Fr 06:30-13:30,15:30-19:30; Sa 07:00-13:30; Su 07:00-13:00","osm_id":1657319952}},{"type":"Feature","geometry":{"type":"Point","coordinates":[-1.6925158,47.1440115]},"properties":{"category":"bakery","osm_id":1874209894}},{"type":"Feature","geometry":{"type":"Point","coordinates":[-1.6441592,47.1679545]},"properties":{"category":"compressed_air","osm_id":2311968813}},{"type":"Feature","geometry":{"type":"Point","coordinates":[-1.6238459,47.1796621]},"properties":{"category":"bakery","name":"Boulangerie Bouchtarat","opening_hours":"Tu-Su 07:45-19:30","osm_id":3305542068}},{"type":"Feature","geometry":{"type":"Point","coordinates":[-1.6236473,47.1794276]},"properties":{"category":"bakery","name":"Boulangerie Pâtisserie Nicolas Lesout","opening_hours":"Mo-Sa 06:45-19:30; PH,Su 07:00-13:30; We off","phone":"+33 2 40 65 01 87","website":"https://boulangerie-lesout-bouguenais.com/","osm_id":3305544579}},{"type":"Feature","geometry":{"type":"Point","coordinates":[-1.6913479,47.1893573]},"properties":{"category":"bakery","name":"Une montagne de gourmandises","opening_hours":"Mo-Tu,Th-Fr 06:30-19:00; Sa-Su 07:30-12:30 || \"Horaires variables pendant les vacances, à voir sur place ou sur la page Facebook\"","phone":"+33 2 40 65 70 52","osm_id":3307282152}},{"type":"Feature","geometry":{"type":"Point","coordinates":[-1.6872965,47.1872402]},"properties":{"category":"bakery","name":"Maison Nicolas","opening_hours":"Tu-Fr 06:30-14:00,15:00-19:00; Sa 06:30-14:00; Su 07:00-12:30","phone":"+33240029697","osm_id":3764658558}},{"type":"Feature","geometry":{"type":"Point","coordinates":[-1.6812945,47.1382386]},"properties":{"category":"compressed_air","osm_id":4337214007,"has_compressed_air":true}},{"type":"Feature","geometry":{"type":"Point","coordinates":[-1.6068261,47.1980923]},"properties":{"category":"bakery","name":"Tartapain","osm_id":5977905895}},{"type":"Feature","geometry":{"type":"Point","coordinates":[-1.6862863,47.1443844]},"properties":{"category":"bakery","name":"Recréation Sucrée Salée","opening_hours":"Tu-Sa 06:15-20:00; Su 06:15-19:15","website":"https://recreation-sucree-salee.fr/","osm_id":12737663696}},{"type":"Feature","geometry":{"type":"Point","coordinates":[-1.6791712,47.1640126]},"properties":{"category":"bakery","name":"Arsène Boulangerie Bio","website":"https://arseneboulangerbio.fr/","osm_id":12987371332}}]}