{"type":"FeatureCollection","features":[{"type":"Feature","geometry":{"type":"Point","coordinates":[0.4016266,47.145474]},"properties":{"category":"repair","osm_id":13536945404}},{"type":"Feature","geometry":{"type":"Point","coordinates":[0.4249088,47.1200165]},"properties":{"category":"repair","osm_id":13536945411}},{"type":"Feature","geometry":{"type":"Point","coordinates":[0.4843097,47.1490654]},"properties":{"category":"repair","osm_id":13536945413}},{"type":"Feature","geometry":{"type":"Point","coordinates":[0.4488543,47.1570395]},"properties":{"category":"repair","osm_id":13536945414}}]}