{"type":"FeatureCollection","features":[{"type":"Feature","geometry":{"type":"Point","coordinates":[-0.5350812,47.1454197]},"properties":{"category":"bakery","name":"Boulangerie Patisserie Maison Poitou","phone":"+33 2 41 75 82 49","osm_id":7650620871}},{"type":"Feature","geometry":{"type":"Point","coordinates":[-0.5364529,47.145401]},"properties":{"category":"bakery","name":"Artisan Boulanger Pâtissier Cellier","phone":"+33 2 41 75 81 03","osm_id":7993436368}},{"type":"Feature","geometry":{"type":"Point","coordinates":[-0.5213211,47.1469655]},"properties":{"category":"compressed_air","osm_id":8096804361}}]}