{"type":"FeatureCollection","features":[{"type":"Feature","geometry":{"type":"Point","coordinates":[5.9633609,47.1836422]},"properties":{"category":"bakery","name":"Le Pain de la Diligence","osm_id":1468012084}},{"type":"Feature","geometry":{"type":"Point","coordinates":[5.9082118,47.1825167]},"properties":{"category":"bakery","name":"Boulangerie Fougeray Alain","osm_id":1669953211}},{"type":"Feature","geometry":{"type":"Point","coordinates":[5.9079926,47.1819779]},"properties":{"category":"compressed_air","osm_id":10899367043}},{"type":"Feature","geometry":{"type":"Point","coordinates":[5.990197,47.1845821]},"properties":{"category":"bakery","name":"Au fournil de Nico","osm_id":11824752806}},{"type":"Feature","geometry":{"type":"Point","coordinates":[5.9017243,47.1568993]},"properties":{"category":"bakery","name":"La tradition du loup","phone":"+33 3 81 56 51 71","osm_id":13731827101}}]}