{"type":"FeatureCollection","features":[{"type":"Feature","geometry":{"type":"Point","coordinates":[-1.1243325,47.1191108]},"properties":{"category":"bakery","name":"Boulangerie Bourget","osm_id":5964835703}},{"type":"Feature","geometry":{"type":"Point","coordinates":[-1.1641746,47.1441495]},"properties":{"category":"bakery","name":"Boulangerie L'Épi d'Or","opening_hours":"Mo off; Tu-Fr 06:30-13:00,15:30-20:00; Sa 06:30-13:00; Su 07:00-13:00","phone":"+33 9 75 39 89 82","osm_id":7333022601}},{"type":"Feature","geometry":{"type":"Point","coordinates":[-1.1112209,47.1812433]},"properties":{"category":"bakery","name":"Boulangerie Barbot","opening_hours":"We off; Mo-Sa 06:30-13:30,15:30-19:30; Su 06:30-13:00","phone":"+33 2 41 56 62 60","website":"https://www.banette.fr/boulangerie/barbot-david-geste.html","osm_id":7375236558}}]}