{"type":"FeatureCollection","features":[{"type":"Feature","geometry":{"type":"Point","coordinates":[6.0279103,47.2594771]},"properties":{"category":"bakery","name":"La Valentine","osm_id":411377613}},{"type":"Feature","geometry":{"type":"Point","coordinates":[6.037267,47.2295138]},"properties":{"category":"bakery","name":"Le Pétrin Ribeïrou","website":"https://www.petrin-ribeirou.com/","osm_id":531362765}},{"type":"Feature","geometry":{"type":"Point","coordinates":[6.0314033,47.2286965]},"properties":{"category":"bakery","name":"Aux Saveurs d'autrefois","opening_hours":"Mo-Su 07:00-20:00","osm_id":709313230}},{"type":"Feature","geometry":{"type":"Point","coordinates":[6.0220896,47.2371014]},"properties":{"category":"bakery","name":"Au Fournil Comtois","opening_hours":"Mo-Fr 07:00-19:30; Sa 07:30-19:30","phone":"+33381821883","osm_id":709313962}},{"type":"Feature","geometry":{"type":"Point","coordinates":[6.0650476,47.2265077]},"properties":{"category":"bakery","name":"Paillot","phone":"+33 3 81 61 90 03","osm_id":740599940}},{"type":"Feature","geometry":{"type":"Point","coordinates":[6.0196209,47.2176386]},"properties":{"category":"shop","name":"La Bicyclerie de Casamène","opening_hours":"Tu-We 09:00-19:00; Fr-Sa 09:00-19:00","phone":"+33 3 81 25 70 66","osm_id":895746021}},{"type":"Feature","geometry":{"type":"Point","coordinates":[6.0204479,47.2410188]},"properties":{"category":"bakery","name":"Le Moulin de Battant","opening_hours":"Tu-Sa 06:30-19:00; Su 06:30-13:00","phone":"+33 3 81 53 12 15","osm_id":1157260159}},{"type":"Feature","geometry":{"type":"Point","coordinates":[6.0211306,47.2476609]},"properties":{"category":"compressed_air","osm_id":1307534396}},{"type":"Feature","geometry":{"type":"Point","coordinates":[6.0433602,47.2579455]},"properties":{"category":"bakery","name":"La Craquante","osm_id":1349631201}},{"type":"Feature","geometry":{"type":"Point","coordinates":[6.023908,47.2380522]},"properties":{"category":"bakery","name":"Brioche Dorée","opening_hours":"Mo-Sa 07:30-19:30","phone":"+33 3 81 82 21 40","website":"https://www.briochedoree.fr/","osm_id":1376125528}},{"type":"Feature","geometry":{"type":"Point","coordinates":[6.0170889,47.2461039]},"properties":{"category":"bakery","name":"Boulangerie Cédric et Maryline","opening_hours":"Mo-Fr 07:00-13:00,15:30-19:00; Su 07:00-12:30","phone":"+33 3 81 51 54 89","website":"https://www.boulangerie-cedricetmaryline.fr","osm_id":1412898225}},{"type":"Feature","geometry":{"type":"Point","coordinates":[6.0269972,47.2374163]},"properties":{"category":"bakery","name":"La Fabuleuse Eclair","opening_hours":"Tu-Sa 07:30-20:00","phone":"+33 3 81 48 02 99","osm_id":1419626721}},{"type":"Feature","geometry":{"type":"Point","coordinates":[6.039922,47.2548112]},"properties":{"category":"bakery","name":"Bernadot","osm_id":1446106321}},{"type":"Feature","geometry":{"type":"Point","coordinates":[6.0076225,47.2421263]},"properties":{"category":"shop","name":"Vélo Passion 25","phone":"+33 3 81 41 13 34","osm_id":1509237961}},{"type":"Feature","geometry":{"type":"Point","coordinates":[6.0349485,47.2385466]},"properties":{"category":"bakery","name":"Boulangerie","opening_hours":"Mo-Fr 06:30-19:00; Su 07:30-12:30","osm_id":1620929471}},{"type":"Feature","geometry":{"type":"Point","coordinates":[6.0725393,47.280085]},"properties":{"category":"bakery","osm_id":1644079655}},{"type":"Feature","geometry":{"type":"Point","coordinates":[6.0797288,47.2834278]},"properties":{"category":"bakery","osm_id":1644079682}},{"type":"Feature","geometry":{"type":"Point","coordinates":[6.0074984,47.2335259]},"properties":{"category":"shop","name":"Event Bike","opening_hours":"Mo,Su off; Tu-Sa 09:00-12:00, 14:00-19:00","website":"http://www.eventbike.fr/","osm_id":1665795719}},{"type":"Feature","geometry":{"type":"Point","coordinates":[6.0261032,47.2361729]},"properties":{"category":"bakery","name":"Boulangerie des Carmes","opening_hours":"Mo-Fr 06:00-19:00","phone":"+33 3 81 81 00 85","osm_id":2187099736}},{"type":"Feature","geometry":{"type":"Point","coordinates":[6.0307394,47.2486641]},"properties":{"category":"bakery","name":"Granvoinnet","opening_hours":"Mo-Sa 08:00-19:30; Su 08:00-13:30","osm_id":2423370582}},{"type":"Feature","geometry":{"type":"Point","coordinates":[6.0290596,47.2537116]},"properties":{"category":"bakery","name":"Boulangerie Christe","osm_id":2423370624}},{"type":"Feature","geometry":{"type":"Point","coordinates":[6.0273791,47.2473326]},"properties":{"category":"bakery","name":"Au Pain d'Antan","opening_hours":"Tu-Su 06:00-19:00","phone":"+33381662546","osm_id":2423370637}},{"type":"Feature","geometry":{"type":"Point","coordinates":[6.0262372,47.2378475]},"properties":{"category":"shop","name":"myCycle","opening_hours":"Tu-Fr 10:00-13:00,15:00-19:00; Sa 10:00-13:00,14:00-18:00","phone":"+33 3 59 61 62 62","website":"https://my-cycle.fr/fr/magasins/besancon-centre/","osm_id":2789395748}},{"type":"Feature","geometry":{"type":"Point","coordinates":[6.0321153,47.2350151]},"properties":{"category":"bakery","name":"A mie chemin","opening_hours":"Tu-Sa 06:00-13:30,15:30-19:30; Su 07:30-13:30","phone":"+33 3 81 62 48 22","osm_id":2813263410}},{"type":"Feature","geometry":{"type":"Point","coordinates":[6.0089925,47.2342363]},"properties":{"category":"bakery","name":"La Grignandise","opening_hours":"Su 06:30-13:00; Tu-Sa 06:30-19:30","osm_id":2820701726}},{"type":"Feature","geometry":{"type":"Point","coordinates":[6.0243297,47.2403727]},"properties":{"category":"bakery","name":"Atelier du pain","opening_hours":"Tu-Fr 07:00-19:30; Mo,Sa 07:30-19:30","osm_id":3078079758}},{"type":"Feature","geometry":{"type":"Point","coordinates":[6.0253524,47.2406378]},"properties":{"category":"shop","name":"Cyclable","phone":"+33 3 10 45 31 34","website":"https://besancon.cyclable.com","osm_id":3078098032}},{"type":"Feature","geometry":{"type":"Point","coordinates":[6.0370636,47.2482881]},"properties":{"category":"bakery","name":"Le Moulin des Pains","osm_id":3082962197}},{"type":"Feature","geometry":{"type":"Point","coordinates":[6.030875,47.261513]},"properties":{"category":"bakery","name":"Maison Christe","osm_id":3086109406}},{"type":"Feature","geometry":{"type":"Point","coordinates":[6.0168904,47.2524887]},"properties":{"category":"bakery","name":"Maison Christe","opening_hours":"Mo, We-Sa 06:45-19:00; Su 06:45-19:00","osm_id":3841811333}},{"type":"Feature","geometry":{"type":"Point","coordinates":[6.0513816,47.2492016]},"properties":{"category":"bakery","osm_id":4331052392}},{"type":"Feature","geometry":{"type":"Point","coordinates":[6.0135036,47.2421483]},"properties":{"category":"shop","name":"Besançon Services Cycles","opening_hours":"Mo,Th 14:00-19:00; Tu,We,Fr 09:30-13:00,14:00-19:00; Sa 09:30-18:30","phone":"+33 3 81 61 76 22","website":"https://www.besancon-services-cycles.fr/","osm_id":4351487691}},{"type":"Feature","geometry":{"type":"Point","coordinates":[6.0156053,47.2541442]},"properties":{"category":"bakery","name":"Cabane à Pain","opening_hours":"24/7","osm_id":4454493492}},{"type":"Feature","geometry":{"type":"Point","coordinates":[6.037346,47.2294155]},"properties":{"category":"shop","name":"Veloland","osm_id":4559131917}},{"type":"Feature","geometry":{"type":"Point","coordinates":[6.018193,47.2408905]},"properties":{"category":"bakery","osm_id":4590754189}},{"type":"Feature","geometry":{"type":"Point","coordinates":[6.0115967,47.2448562]},"properties":{"category":"bakery","name":"Boulangerie Quentin Rabier","opening_hours":"Tu-Su 06:30-18:00","phone":"+33 3 81 26 46 83","osm_id":4632114490}},{"type":"Feature","geometry":{"type":"Point","coordinates":[6.0302101,47.2435341]},"properties":{"category":"bakery","name":"Festival des pains","opening_hours":"Mo-Fr 06:30-19:00; Sa 06:30-13:00","phone":"+33 381880537","osm_id":5001142625}},{"type":"Feature","geometry":{"type":"Point","coordinates":[6.0054437,47.244095]},"properties":{"category":"bakery","name":"Aux caprices de Charlotte","opening_hours":"Mo-Fr 06:30-19:00; Su 07:00-12:30","osm_id":5236936062}},{"type":"Feature","geometry":{"type":"Point","coordinates":[6.0265813,47.2335771]},"properties":{"category":"bakery","name":"La Grignardise","opening_hours":"Mo-Th 07:30-13:30,16:00-19:00; Fr-Sa 07:30-13:30","osm_id":5422941923}},{"type":"Feature","geometry":{"type":"Point","coordinates":[6.0286681,47.2476071]},"properties":{"category":"bakery","name":"Moulin des pains","opening_hours":"Mo-Su 06:00-19:30; Sa off","osm_id":5477653500}},{"type":"Feature","geometry":{"type":"Point","coordinates":[6.0283599,47.2352048]},"properties":{"category":"bakery","name":"Maison Amiot","opening_hours":"Tu-Sa 06:00-19:20","osm_id":5523632497}},{"type":"Feature","geometry":{"type":"Point","coordinates":[6.0204142,47.2414518]},"properties":{"category":"shop","name":"Les Manivelles","opening_hours":"Tu 18:00-21:00; We 14:00-17:00; Th 12:00-14:00; Sa 10:00-13:00","phone":"+33 7 69 38 07 49","website":"https://lesmanivelles.org/","osm_id":5664722787}},{"type":"Feature","geometry":{"type":"Point","coordinates":[6.0222453,47.235872]},"properties":{"category":"repair","osm_id":5947952339}},{"type":"Feature","geometry":{"type":"Point","coordinates":[6.0295054,47.2422193]},"properties":{"category":"repair","osm_id":5950816704}},{"type":"Feature","geometry":{"type":"Point","coordinates":[6.0226577,47.2464902]},"properties":{"category":"compressed_air","osm_id":5950821899}},{"type":"Feature","geometry":{"type":"Point","coordinates":[6.0153035,47.254208]},"properties":{"category":"bakery","name":"Maison Fivel","opening_hours":"Tu-Sa 06:00-19:00; Su 06:00-12:30; Mo off","phone":"+33 3 81 50 27 84","website":"https://www.boulangerie-fivel.fr","osm_id":6290772691}},{"type":"Feature","geometry":{"type":"Point","coordinates":[6.0278432,47.2373909]},"properties":{"category":"bakery","name":"Maison Fivel","opening_hours":"Tu-Sa 07:30-19:00","website":"https://www.boulangerie-fivel.fr","osm_id":6293245503}},{"type":"Feature","geometry":{"type":"Point","coordinates":[6.0276574,47.235554]},"properties":{"category":"shop","name":"L'Atelier Ginko vélo","opening_hours":"Tu-Sa 10:00-13:00; Apr-Oct Tu-Fr 15:00-19:00; Nov-Mar 15:00-18:00","website":"https://www.ginko.voyage/se-deplacer/velo/ginko-velo/","osm_id":6293391161}},{"type":"Feature","geometry":{"type":"Point","coordinates":[6.0241971,47.2391549]},"properties":{"category":"bakery","name":"1904 à nos Jours","opening_hours":"Mo-Sa 07:00-19:00","osm_id":6300799676}},{"type":"Feature","geometry":{"type":"Point","coordinates":[6.0520449,47.2638655]},"properties":{"category":"shop","name":"Lapierre Besançon","opening_hours":"Tu-Fr 09:30-12:30,14:00-19:00; Sa 09:30-12:30,14:00-18:00","website":"https://www.lapierrebesancon.com/","osm_id":6318323414}},{"type":"Feature","geometry":{"type":"Point","coordinates":[6.0625345,47.2617537]},"properties":{"category":"bakery","name":"Marie Blachère","opening_hours":"Mo-Sa 07:00-19:30","phone":"+33 3 81 26 41 65","website":"https://boulangeries.marieblachere.com/fr/france-FR/5272/marie-blachere-chalezeule/details","osm_id":6343197109}},{"type":"Feature","geometry":{"type":"Point","coordinates":[6.0133017,47.2315549]},"properties":{"category":"bakery","name":"Le Four à Pains","opening_hours":"Mo,Sa 07:30-14:00; Su 07:30-12:30; We-Fr 07:30-13:30,16:00-19:30","osm_id":6413768534}},{"type":"Feature","geometry":{"type":"Point","coordinates":[6.0008948,47.2487303]},"properties":{"category":"bakery","name":"Le Fournil du P'tit Dép","osm_id":6425272485}},{"type":"Feature","geometry":{"type":"Point","coordinates":[6.0007425,47.2096208]},"properties":{"category":"bakery","name":"O delices de Beure","osm_id":6691143085}},{"type":"Feature","geometry":{"type":"Point","coordinates":[6.0043922,47.2071771]},"properties":{"category":"bakery","name":"O Fournil de Beure","phone":"+33 3 81 88 02 29","website":"https://www.ofournildebeure.fr/","osm_id":6970343495}},{"type":"Feature","geometry":{"type":"Point","coordinates":[6.0609557,47.2618363]},"properties":{"category":"compressed_air","opening_hours":"24/7","osm_id":7075228992}},{"type":"Feature","geometry":{"type":"Point","coordinates":[6.0246891,47.2388279]},"properties":{"category":"bakery","name":"Nathalie Pequignot","osm_id":7075445954}},{"type":"Feature","geometry":{"type":"Point","coordinates":[6.0364941,47.2311801]},"properties":{"category":"repair","osm_id":7075882149}},{"type":"Feature","geometry":{"type":"Point","coordinates":[6.0214705,47.2389455]},"properties":{"category":"bakery","name":"Poulaillon","opening_hours":"Mo-Sa 08:30-19:00","phone":"+33381508323","website":"https://www.poulaillon.fr/","osm_id":7165997759}},{"type":"Feature","geometry":{"type":"Point","coordinates":[6.0233168,47.2392872]},"properties":{"category":"shop","name":"Bicy","osm_id":7193416437}},{"type":"Feature","geometry":{"type":"Point","coordinates":[6.0313445,47.2355476]},"properties":{"category":"bakery","name":"Delaire","osm_id":7272378538}},{"type":"Feature","geometry":{"type":"Point","coordinates":[6.0363599,47.2526242]},"properties":{"category":"bakery","name":"Le Fournil des Chaprais","opening_hours":"Tu-Sa 07:15-13:00; Su 07:15-12:30","osm_id":7331060541}},{"type":"Feature","geometry":{"type":"Point","coordinates":[6.04562,47.2606932]},"properties":{"category":"shop","name":"Petite Reine de l’Est Bisontin","opening_hours":"Sa 14:00-18:00","phone":"+33 6 43 09 03 60","osm_id":7825491534}},{"type":"Feature","geometry":{"type":"Point","coordinates":[6.0801186,47.2355317]},"properties":{"category":"bakery","name":"Le relais des saveurs","opening_hours":"Mo off; Tu-Sa 05:00-13:00,16:00-19:00; Su 05:00-12:30","phone":"+33 3 63 35 28 56","website":"https://www.facebook.com/boulangerie.montfaucon/","osm_id":8220187390}},{"type":"Feature","geometry":{"type":"Point","coordinates":[6.0235004,47.2405653]},"properties":{"category":"bakery","name":"Le Moulin des Pains","opening_hours":"Tu-Th 08:00-12:30, Fr-Su 08:00-13:00, Fr,Sa 15:30-18:30","phone":"+33 6 18 44 07 54","osm_id":9042629058}},{"type":"Feature","geometry":{"type":"Point","coordinates":[6.0058443,47.2471338]},"properties":{"category":"bakery","osm_id":10750424074}},{"type":"Feature","geometry":{"type":"Point","coordinates":[6.0350915,47.256882]},"properties":{"category":"bakery","name":"Maison Christe","opening_hours":"Tu-Sa 07:00-12:30,16:00-19:00; Su 07:00-12:30","osm_id":11414655545}},{"type":"Feature","geometry":{"type":"Point","coordinates":[6.0720441,47.279712]},"properties":{"category":"bakery","name":"Boulangerie Dufay","osm_id":11730669354}},{"type":"Feature","geometry":{"type":"Point","coordinates":[6.0322864,47.249381]},"properties":{"category":"compressed_air","osm_id":11916533730}},{"type":"Feature","geometry":{"type":"Point","coordinates":[6.0334452,47.2501456]},"properties":{"category":"compressed_air","osm_id":11973548558}},{"type":"Feature","geometry":{"type":"Point","coordinates":[6.0276366,47.2365697]},"properties":{"category":"shop","name":"Quentin vélocycle","opening_hours":"\"by appointment\"","phone":"+33695733249","website":"https://quentin-velocycle.com/","osm_id":13238531798}},{"type":"Feature","geometry":{"type":"Point","coordinates":[6.0190085,47.2392015]},"properties":{"category":"bakery","name":"La P'tite Boulange","opening_hours":"Mo-Sa 07:00-19:30","phone":"+33 9 51 09 17 40","website":"https://la-ptite-boulange.eatbu.com/","osm_id":13634315070}},{"type":"Feature","geometry":{"type":"Point","coordinates":[6.0009606,47.2099496]},"properties":{"category":"bakery","name":"Ramel","osm_id":13910030441}},{"type":"Feature","geometry":{"type":"Point","coordinates":[6.0191459,47.239627]},"properties":{"category":"bakery","name":"L’amandine","osm_id":13994940661}}]}