{"type":"FeatureCollection","features":[{"type":"Feature","geometry":{"type":"Point","coordinates":[-2.0440814,47.2063373]},"properties":{"category":"bakery","name":"Le Temple du Pain","opening_hours":"Tu-Fr 07:00-13:00, 15:30-19:30; Su 07:30-13:00; Sa 07:30-13:00, 15:30-18:30","phone":"+33 2 40 21 70 75","osm_id":2274071032}},{"type":"Feature","geometry":{"type":"Point","coordinates":[-2.0259243,47.2883482]},"properties":{"category":"bakery","name":"Blanchard","osm_id":2368144008}},{"type":"Feature","geometry":{"type":"Point","coordinates":[-2.0327985,47.2896785]},"properties":{"category":"bakery","name":"Begnic","opening_hours":"Mo-Sa 06:30-19:00; We off; Su 07:00-13:00","osm_id":2368144009}},{"type":"Feature","geometry":{"type":"Point","coordinates":[-2.0167506,47.2546526]},"properties":{"category":"bakery","name":"Les Gourmandises Vitaliennes","osm_id":4583133459}},{"type":"Feature","geometry":{"type":"Point","coordinates":[-2.0402391,47.2904053]},"properties":{"category":"repair","osm_id":13908223874}},{"type":"Feature","geometry":{"type":"Point","coordinates":[-2.0408114,47.2901134]},"properties":{"category":"repair","osm_id":13909854686}}]}