{"type":"FeatureCollection","features":[{"type":"Feature","geometry":{"type":"Point","coordinates":[1.770082,47.2928723]},"properties":{"category":"bakery","osm_id":2129513407}},{"type":"Feature","geometry":{"type":"Point","coordinates":[1.7522771,47.2065657]},"properties":{"category":"bakery","name":"Boulangerie - Pâtisserie - Multiservices","osm_id":13194715311}},{"type":"Feature","geometry":{"type":"Point","coordinates":[1.7716145,47.2927351]},"properties":{"category":"bakery","name":"Boulangerie Aubert","opening_hours":"Tu-Fr 06:30-13:00, 16:00-19:00; Sa 07:00-13:00, 15:30-19:00; Su 07:00-19:00","osm_id":13734509979}}]}