{"type":"FeatureCollection","features":[{"type":"Feature","geometry":{"type":"Point","coordinates":[4.282158,47.2064278]},"properties":{"category":"bakery","name":"Boulangerie","opening_hours":"Tu-Sa 07:00-13:00,15:30-20:00; Su 07:00-13:00","osm_id":3993738559}},{"type":"Feature","geometry":{"type":"Point","coordinates":[4.2303311,47.2785728]},"properties":{"category":"bakery","name":"Boulangerie Pâtisserie Rabuteau","osm_id":4400927294}},{"type":"Feature","geometry":{"type":"Point","coordinates":[4.2278159,47.2784647]},"properties":{"category":"bakery","name":"Mireille et Philippe","osm_id":6723288217}}]}