{"type":"FeatureCollection","features":[{"type":"Feature","geometry":{"type":"Point","coordinates":[-2.34097,47.2665851]},"properties":{"category":"shop","name":"MondoVélo City","osm_id":1754201047}},{"type":"Feature","geometry":{"type":"Point","coordinates":[-2.3997406,47.2850589]},"properties":{"category":"shop","name":"Cycles Jaffre","osm_id":4701627247}},{"type":"Feature","geometry":{"type":"Point","coordinates":[-2.3704136,47.2793018]},"properties":{"category":"shop","name":"Veloc'Ouest","osm_id":5106221355}},{"type":"Feature","geometry":{"type":"Point","coordinates":[-2.3414628,47.2668633]},"properties":{"category":"shop","name":"Les cycles de la baie","osm_id":5825011254}},{"type":"Feature","geometry":{"type":"Point","coordinates":[-2.3937079,47.2854688]},"properties":{"category":"compressed_air","osm_id":8666973520}},{"type":"Feature","geometry":{"type":"Point","coordinates":[-2.3451025,47.2703316]},"properties":{"category":"repair","opening_hours":"24/7","osm_id":9595790625}},{"type":"Feature","geometry":{"type":"Point","coordinates":[-2.33578,47.2608104]},"properties":{"category":"repair","opening_hours":"24/7","osm_id":11009756573}},{"type":"Feature","geometry":{"type":"Point","coordinates":[-2.3450437,47.2652868]},"properties":{"category":"repair","opening_hours":"24/7","osm_id":12101887750}},{"type":"Feature","geometry":{"type":"Point","coordinates":[-2.3707418,47.2794404]},"properties":{"category":"shop","name":"La maison du vélo","osm_id":12121885012}},{"type":"Feature","geometry":{"type":"Point","coordinates":[-2.3897044,47.2882695]},"properties":{"category":"repair","osm_id":12149774029}},{"type":"Feature","geometry":{"type":"Point","coordinates":[-2.3979338,47.2927466]},"properties":{"category":"repair","osm_id":13645420245}}]}