{"type":"FeatureCollection","features":[{"type":"Feature","geometry":{"type":"Point","coordinates":[5.5639215,47.2790825]},"properties":{"category":"bakery","osm_id":3102805473}},{"type":"Feature","geometry":{"type":"Point","coordinates":[5.5053165,47.2833763]},"properties":{"category":"bakery","name":"L'écho des Blés","phone":"+33 3 80 55 04 24","osm_id":6039401003}},{"type":"Feature","geometry":{"type":"Point","coordinates":[5.5630323,47.2796992]},"properties":{"category":"bakery","name":"Boulangerie Musy","osm_id":7485415178}}]}