{"type":"FeatureCollection","features":[{"type":"Feature","geometry":{"type":"Point","coordinates":[0.8375999,47.2678854]},"properties":{"category":"bakery","name":"Boulangerie Aux Véritables Macarons","osm_id":1126031122}},{"type":"Feature","geometry":{"type":"Point","coordinates":[0.8349293,47.2690298]},"properties":{"category":"bakery","name":"Boulangerie Raimbert","osm_id":1126031146}},{"type":"Feature","geometry":{"type":"Point","coordinates":[0.8341849,47.2150994]},"properties":{"category":"bakery","name":"H.Girondeau","osm_id":2976221307}},{"type":"Feature","geometry":{"type":"Point","coordinates":[0.8344796,47.214732]},"properties":{"category":"bakery","name":"Moreau Alain","osm_id":6335838244}},{"type":"Feature","geometry":{"type":"Point","coordinates":[0.8283641,47.27747]},"properties":{"category":"bakery","name":"Au Pain Doré","osm_id":9653230132}},{"type":"Feature","geometry":{"type":"Point","coordinates":[0.8283619,47.2774678]},"properties":{"category":"bakery","name":"Au Pain Doré","osm_id":9729833517}},{"type":"Feature","geometry":{"type":"Point","coordinates":[0.842512,47.2562976]},"properties":{"category":"compressed_air","osm_id":13104545700}},{"type":"Feature","geometry":{"type":"Point","coordinates":[0.8028509,47.2993536]},"properties":{"category":"compressed_air","osm_id":13142736756}},{"type":"Feature","geometry":{"type":"Point","coordinates":[0.8342542,47.2625328]},"properties":{"category":"repair","osm_id":13165325840}}]}