{"type":"FeatureCollection","features":[{"type":"Feature","geometry":{"type":"Point","coordinates":[0.2138726,47.2961409]},"properties":{"category":"bakery","osm_id":4428195245}},{"type":"Feature","geometry":{"type":"Point","coordinates":[0.2278161,47.2827354]},"properties":{"category":"bakery","osm_id":7651379566}},{"type":"Feature","geometry":{"type":"Point","coordinates":[0.2521275,47.2330079]},"properties":{"category":"bakery","opening_hours":"Tu-Sa 07:00-13:00,15:45-19:00; Su 07:30-13:00; Jun 15-Aug 31 Tu-Sa 07:00-13:00,15:45-19:30","osm_id":10038069343}},{"type":"Feature","geometry":{"type":"Point","coordinates":[0.221696,47.2481033]},"properties":{"category":"bakery","osm_id":11123355586}}]}