{"type":"FeatureCollection","features":[{"type":"Feature","geometry":{"type":"Point","coordinates":[5.1337755,47.2987827]},"properties":{"category":"bakery","name":"La Halte Gourmande","opening_hours":"Tu,Th,Fr 06:30-19:00; We 06:00-19:00; Sa 06:30-12:45,15:00-19:00; Su 06:30-12:30","osm_id":6375402717}},{"type":"Feature","geometry":{"type":"Point","coordinates":[5.1346861,47.2993977]},"properties":{"category":"bakery","name":"Maison Roger","osm_id":6375809853}},{"type":"Feature","geometry":{"type":"Point","coordinates":[5.1320396,47.2192408]},"properties":{"category":"bakery","name":"LE FOURNIL DE THOREY EN PLAINE","opening_hours":"Mo,Tu,Th,Fr 06:30-14:00,15:30-19:00; Su 06:30-12:45","phone":"+33 9 73 37 20 39","osm_id":11736778981}},{"type":"Feature","geometry":{"type":"Point","coordinates":[5.1007948,47.2913758]},"properties":{"category":"bakery","name":"L'Atelier du Ptit Louis","opening_hours":"Mo-Fr 06:00-19:00; Sa 07:00-13:00","phone":"+33 3 80 73 30 07","osm_id":12338118296}}]}