{"type":"FeatureCollection","features":[{"type":"Feature","geometry":{"type":"Point","coordinates":[0.0094279,47.2318302]},"properties":{"category":"bakery","name":"Boulangerie de Parnay","opening_hours":"Tu-Sa 07:00-19:00; Su 07:00-13:00","phone":"+33 2 41 03 10 97","osm_id":4793864411}},{"type":"Feature","geometry":{"type":"Point","coordinates":[0.0562461,47.2167443]},"properties":{"category":"bakery","name":"Boulangerie Besnard","opening_hours":"Mo, We-Sa 07:00-19:00; Su 07:00-13:30","osm_id":4795309721}},{"type":"Feature","geometry":{"type":"Point","coordinates":[0.0539337,47.238152]},"properties":{"category":"bakery","name":"Pyrè","osm_id":8909625187}},{"type":"Feature","geometry":{"type":"Point","coordinates":[0.0601727,47.2161687]},"properties":{"category":"shop","name":"La Petite Reine","opening_hours":"Mo-Su 09:30-18:30","phone":"+33 7 85 83 64 93","website":"https://www.lapetitereine.eu/","osm_id":9176888158}},{"type":"Feature","geometry":{"type":"Point","coordinates":[0.0554031,47.2170221]},"properties":{"category":"repair","opening_hours":"24/7","osm_id":11704705595}}]}