{"type":"FeatureCollection","features":[{"type":"Feature","geometry":{"type":"Point","coordinates":[5.7020709,47.2492268]},"properties":{"category":"bakery","name":"Le Panier de Pain","phone":"+33 9 83 38 30 66","osm_id":10303005704}},{"type":"Feature","geometry":{"type":"Point","coordinates":[5.7716737,47.2897949]},"properties":{"category":"bakery","name":"Colle Sylvain","opening_hours":"Mo,Tu 06:00-19:30; Th-Sa 06:00-19:30; Su 06:00-13:00","phone":"+33 3 84 31 73 40","website":"https://boulangerie-patisserie-colle.fr/","osm_id":13072352081}},{"type":"Feature","geometry":{"type":"Point","coordinates":[5.7718304,47.2898676]},"properties":{"category":"bakery","name":"Boulangerie Pâtisserie Gusto","opening_hours":"Tu-Sa 06:30-13:00; Su 06:30-12:30","phone":"+33 9 50 90 81 26","osm_id":13072441450}}]}