{"type":"FeatureCollection","features":[{"type":"Feature","geometry":{"type":"Point","coordinates":[0.5795999,47.2233996]},"properties":{"category":"bakery","name":"Tiano Jean-Paul","osm_id":10002366362}},{"type":"Feature","geometry":{"type":"Point","coordinates":[0.5428375,47.2464114]},"properties":{"category":"bakery","name":"La Gourmandine","osm_id":10602370352}},{"type":"Feature","geometry":{"type":"Point","coordinates":[0.5442897,47.2479809]},"properties":{"category":"repair","osm_id":13507444211}},{"type":"Feature","geometry":{"type":"Point","coordinates":[0.5990789,47.2734609]},"properties":{"category":"bakery","name":"A la Graine Sauvage","osm_id":13622039228}}]}