{"type":"FeatureCollection","features":[{"type":"Feature","geometry":{"type":"Point","coordinates":[-2.4396869,47.2749379]},"properties":{"category":"shop","name":"cycles de l'atlantique","osm_id":2016718562}},{"type":"Feature","geometry":{"type":"Point","coordinates":[-2.4289273,47.2783054]},"properties":{"category":"shop","name":"Bikevasion","phone":"+33 2 40 24 09 10","website":"https://www.bikevasion.com/","osm_id":3423610739}},{"type":"Feature","geometry":{"type":"Point","coordinates":[-2.4807657,47.2772961]},"properties":{"category":"repair","osm_id":13012065443}},{"type":"Feature","geometry":{"type":"Point","coordinates":[-2.4253453,47.2720341]},"properties":{"category":"repair","osm_id":13516275246}},{"type":"Feature","geometry":{"type":"Point","coordinates":[-2.4328207,47.2826201]},"properties":{"category":"repair","osm_id":13516328138}}]}