{"type":"FeatureCollection","features":[{"type":"Feature","geometry":{"type":"Point","coordinates":[3.6827153,47.2565725]},"properties":{"category":"bakery","name":"Jérôme Pignalet","osm_id":1300780838}},{"type":"Feature","geometry":{"type":"Point","coordinates":[3.6801117,47.2548329]},"properties":{"category":"bakery","name":"Du Pain sur la Planche","osm_id":4114498086}},{"type":"Feature","geometry":{"type":"Point","coordinates":[3.6815013,47.2553836]},"properties":{"category":"bakery","name":"Chez Pêtre","opening_hours":"Mo-Fr 06:30-11:00,14:00-17:00","osm_id":4114517129}},{"type":"Feature","geometry":{"type":"Point","coordinates":[3.6820676,47.2558061]},"properties":{"category":"shop","name":"Cycles Letellier","phone":"+33 3 86 20 07 96","website":"https://www.cycles-letellier.fr/","osm_id":6972107573}}]}