{"type":"FeatureCollection","features":[{"type":"Feature","geometry":{"type":"Point","coordinates":[1.4940736,47.2752155]},"properties":{"category":"bakery","osm_id":5117074555}},{"type":"Feature","geometry":{"type":"Point","coordinates":[1.4964279,47.2497031]},"properties":{"category":"bakery","osm_id":10032917653}},{"type":"Feature","geometry":{"type":"Point","coordinates":[1.4747339,47.2253525]},"properties":{"category":"bakery","name":"Boulangerie De Lye","phone":"+33 2 54 41 04 98","osm_id":10603586005}}]}