{"type":"FeatureCollection","features":[{"type":"Feature","geometry":{"type":"Point","coordinates":[-1.6450604,47.2189348]},"properties":{"category":"shop","name":"ATAO Vélos","opening_hours":"Mo-Fr 08:00-11:30; Tu 08:00-11:30,13:00-15:30","phone":"+33 2 40 92 87 05","osm_id":1329745732}},{"type":"Feature","geometry":{"type":"Point","coordinates":[-1.6357568,47.256594]},"properties":{"category":"shop","name":"Specialized","opening_hours":"Mo 14:00-19:00; Tu-Fr 10:00-12:30,14:00-19:00; Sa 10:00-19:00","phone":"+33 2 51786713","osm_id":1980178121}},{"type":"Feature","geometry":{"type":"Point","coordinates":[-1.656054,47.2599542]},"properties":{"category":"shop","name":"Véloland - Jegou Sport Concept","opening_hours":"Mo 14:00-19:00; Tu \"appointment\"; We-Sa 09:30-12:30,14:00-19:00","phone":"+33 2 40 40 32 62","osm_id":1980178140}},{"type":"Feature","geometry":{"type":"Point","coordinates":[-1.6176606,47.2457231]},"properties":{"category":"compressed_air","osm_id":3626829347}},{"type":"Feature","geometry":{"type":"Point","coordinates":[-1.6077138,47.2474725]},"properties":{"category":"compressed_air","osm_id":4409803014}},{"type":"Feature","geometry":{"type":"Point","coordinates":[-1.6450819,47.2188703]},"properties":{"category":"shop","name":"ATAO Autos","opening_hours":"Mo,We,Th,Fr 08:00-11:30; Tu 08:00-11:30,13:00-15:30","phone":"+33 2 40 92 87 05","osm_id":6581485386}},{"type":"Feature","geometry":{"type":"Point","coordinates":[-1.6061513,47.2145448]},"properties":{"category":"compressed_air","osm_id":8878404441}},{"type":"Feature","geometry":{"type":"Point","coordinates":[-1.6047808,47.2049352]},"properties":{"category":"shop","name":"La Cabane à vélo","opening_hours":"We 14:30-18:30","website":"https://collectif-planb.org","osm_id":13952114402}}]}