{"type":"FeatureCollection","features":[{"type":"Feature","geometry":{"type":"Point","coordinates":[-2.511945,47.3483637]},"properties":{"category":"bakery","name":"Maison Trois","opening_hours":"Mo,We-Sa 07:00-13:00,15:30-19:30; Su 07:00-13:15,15:30-19:00","phone":"+33 2 40 23 31 26","osm_id":2892448119}},{"type":"Feature","geometry":{"type":"Point","coordinates":[-2.5467747,47.3788787]},"properties":{"category":"bakery","name":"Maison Olivier","opening_hours":"Sep-Jun 07:30-13:00; Jul-Aug 07:30-19:30","phone":"+33 2 40 23 55 86","osm_id":5041755904}},{"type":"Feature","geometry":{"type":"Point","coordinates":[-2.5091646,47.3523502]},"properties":{"category":"bakery","name":"Les Artisans du Pain","opening_hours":"Mo-Sa 07:00-20:00; We off; Su 07:00-14:00","phone":"+33 9 52 16 13 46","osm_id":6750638050}},{"type":"Feature","geometry":{"type":"Point","coordinates":[-2.5457878,47.3807243]},"properties":{"category":"bakery","name":"Frantz Conrad","opening_hours":"Mo-Su 07:30-13:30,15:30-19:30","osm_id":6755754833}},{"type":"Feature","geometry":{"type":"Point","coordinates":[-2.5101833,47.347197]},"properties":{"category":"shop","name":"Océan Cycles","opening_hours":"Mo-Su 09:00-12:30, 14:00-19:00","phone":"+33950045032","website":"https://www.ocean-cycles.com/","osm_id":7775440780}}]}