{"type":"FeatureCollection","features":[{"type":"Feature","geometry":{"type":"Point","coordinates":[0.7090846,47.3753055]},"properties":{"category":"compressed_air","osm_id":8042676783}},{"type":"Feature","geometry":{"type":"Point","coordinates":[0.78777,47.395071]},"properties":{"category":"compressed_air","opening_hours":"Mo-Sa 08:30-19:00","osm_id":11901689969}},{"type":"Feature","geometry":{"type":"Point","coordinates":[0.7244454,47.385649]},"properties":{"category":"repair","osm_id":12075509278}},{"type":"Feature","geometry":{"type":"Point","coordinates":[0.7164888,47.3860757]},"properties":{"category":"compressed_air","osm_id":12927596382}},{"type":"Feature","geometry":{"type":"Point","coordinates":[0.7115373,47.3851254]},"properties":{"category":"repair","osm_id":12973772067}},{"type":"Feature","geometry":{"type":"Point","coordinates":[0.7115373,47.3851254]},"properties":{"category":"repair","osm_id":12973801516}},{"type":"Feature","geometry":{"type":"Point","coordinates":[0.702731,47.3557477]},"properties":{"category":"repair","osm_id":13081953647}},{"type":"Feature","geometry":{"type":"Point","coordinates":[0.7230996,47.3869591]},"properties":{"category":"repair","osm_id":13586430634}},{"type":"Feature","geometry":{"type":"Point","coordinates":[0.7021537,47.3854636]},"properties":{"category":"repair","osm_id":13606220312}}]}