{"type":"FeatureCollection","features":[{"type":"Feature","geometry":{"type":"Point","coordinates":[-2.2123695,47.3024872]},"properties":{"category":"shop","name":"Intersport","opening_hours":"Mo-Sa 09:00-19:00","website":"http://magasins.intersport.fr/fr_fr/magasin-de-sport/trignac/intersport/00841-000","osm_id":1617817671}},{"type":"Feature","geometry":{"type":"Point","coordinates":[-2.200366,47.3824443]},"properties":{"category":"bakery","name":"Le P'tit Briéron","opening_hours":"Mo-Su 06:30-19:00","osm_id":6762153986}},{"type":"Feature","geometry":{"type":"Point","coordinates":[-2.2007367,47.3830142]},"properties":{"category":"shop","name":"Les cycles de la Brière","osm_id":6762153987}},{"type":"Feature","geometry":{"type":"Point","coordinates":[-2.2870519,47.3399483]},"properties":{"category":"repair","opening_hours":"24/7","osm_id":13992525711}}]}