{"type":"FeatureCollection","features":[{"type":"Feature","geometry":{"type":"Point","coordinates":[1.5391014,47.3109452]},"properties":{"category":"bakery","name":"Boulangerie Gasnier","opening_hours":"Tu-Sa 07:00-13:00, 15:30-19:00; Su 07:00-13:00","phone":"+33 2 54 97 42 07","osm_id":13830528902}},{"type":"Feature","geometry":{"type":"Point","coordinates":[1.583479,47.3448222]},"properties":{"category":"bakery","name":"Les Gourmandises de Gy","opening_hours":"Mo-Tu 07:00-13:00,15:30-19:00; Th-Sa 07:00-13:00,15:30-19:00; Su 07:00-13:00","phone":"+33 7 59 57 42 37","osm_id":13860431402}}]}