{"type":"FeatureCollection","features":[{"type":"Feature","geometry":{"type":"Point","coordinates":[-0.7626747,47.3532209]},"properties":{"category":"bakery","name":"Boulangerie","osm_id":2516689400}},{"type":"Feature","geometry":{"type":"Point","coordinates":[-0.7611386,47.3521889]},"properties":{"category":"bakery","name":"Boulangerie Berny","osm_id":4115039896}},{"type":"Feature","geometry":{"type":"Point","coordinates":[-0.7637713,47.3527973]},"properties":{"category":"bakery","name":"Aux Délices du Pain","opening_hours":"Mo-Tu 06:45-19:00; We 06:45-15:00; Fr-Sa 06:45-19:30; Su 06:45-14:00","phone":"+33 2 41 78 01 24","osm_id":9883107217}},{"type":"Feature","geometry":{"type":"Point","coordinates":[-0.7613532,47.3515228]},"properties":{"category":"shop","name":"Mécacycles PBM","phone":"+33 2 41 78 01 89","osm_id":10802159405}},{"type":"Feature","geometry":{"type":"Point","coordinates":[-0.7841695,47.3413425]},"properties":{"category":"shop","name":"CYCLES PLEIN AIR","osm_id":12343195255}},{"type":"Feature","geometry":{"type":"Point","coordinates":[-0.7629111,47.350944]},"properties":{"category":"bakery","name":"La Panetière","opening_hours":"Tu-Fr 07:00-14:00, 15:30-19:30; Sa 07:00-14:00; Su 07:00-13:00","osm_id":13251265816}}]}