{"type":"FeatureCollection","features":[{"type":"Feature","geometry":{"type":"Point","coordinates":[6.8128873,47.3179548]},"properties":{"category":"bakery","name":"Boulangerie pâtisserie du Couvent","opening_hours":"Mo, Tu, Th-Sa 04:00-12:30, 14:00-18:00; Su 04:00-12:00","phone":"+33 3 81 96 55 42","osm_id":809926005}},{"type":"Feature","geometry":{"type":"Point","coordinates":[6.8480196,47.3877216]},"properties":{"category":"bakery","name":"Boulangerie La Blamontaise","osm_id":8421658430}},{"type":"Feature","geometry":{"type":"Point","coordinates":[6.8536641,47.3845989]},"properties":{"category":"bakery","name":"Boulangerie du Faubourg","osm_id":13677138636}}]}