{"type":"FeatureCollection","features":[{"type":"Feature","geometry":{"type":"Point","coordinates":[-3.1555939,47.3468922]},"properties":{"category":"shop","name":"Cycles Reversade","opening_hours":"Mo-Su,PH 09:00-12:30,14:00-18:30","phone":"+33 2 97 31 84 19","website":"http://www.location-reversade.com/","osm_id":4958935592}},{"type":"Feature","geometry":{"type":"Point","coordinates":[-3.1560971,47.3471938]},"properties":{"category":"shop","name":"Roue libre","opening_hours":"Mo-Su 09:00-12:30,14:00-18:30","website":"https://velobelleile.fr/","osm_id":9101825374}}]}