{"type":"FeatureCollection","features":[{"type":"Feature","geometry":{"type":"Point","coordinates":[4.9905368,47.3067241]},"properties":{"category":"shop","name":"OBDS Cycle","phone":"+33 6 67 90 73 83","osm_id":13031124952}},{"type":"Feature","geometry":{"type":"Point","coordinates":[4.9922153,47.3271499]},"properties":{"category":"repair","osm_id":13656654881}},{"type":"Feature","geometry":{"type":"Point","coordinates":[4.9117883,47.3158681]},"properties":{"category":"shop","name":"Nico Vélos","phone":"+33652287120","osm_id":14004632036}}]}