{"type":"FeatureCollection","features":[{"type":"Feature","geometry":{"type":"Point","coordinates":[0.9159022,47.3203194]},"properties":{"category":"bakery","osm_id":1209819535}},{"type":"Feature","geometry":{"type":"Point","coordinates":[0.994913,47.3263281]},"properties":{"category":"bakery","name":"Aux Délices Blérois","opening_hours":"07:00 - 19:30","phone":"+33 2 47 23 86 35","osm_id":3482442272}},{"type":"Feature","geometry":{"type":"Point","coordinates":[0.9899426,47.33936]},"properties":{"category":"bakery","osm_id":4463088490}},{"type":"Feature","geometry":{"type":"Point","coordinates":[0.9098523,47.3551097]},"properties":{"category":"bakery","name":"La Pétrie","osm_id":7888164301}},{"type":"Feature","geometry":{"type":"Point","coordinates":[0.9919127,47.3277979]},"properties":{"category":"repair","osm_id":9584986457}},{"type":"Feature","geometry":{"type":"Point","coordinates":[0.9911531,47.3277183]},"properties":{"category":"bakery","osm_id":9913247545}},{"type":"Feature","geometry":{"type":"Point","coordinates":[0.9911552,47.3277178]},"properties":{"category":"bakery","name":"Boulangerie La Mi'a Chou","opening_hours":"Mo-Sa 07:00-19:00","phone":"+33 2 47 57 63 56","website":"https://m.facebook.com/La-Mia-Chou-108106134400587/","osm_id":11173847237}},{"type":"Feature","geometry":{"type":"Point","coordinates":[0.9875278,47.3378218]},"properties":{"category":"repair","opening_hours":"24/7","osm_id":12847894025}},{"type":"Feature","geometry":{"type":"Point","coordinates":[0.9061512,47.355191]},"properties":{"category":"repair","opening_hours":"24/7","osm_id":12847935505}},{"type":"Feature","geometry":{"type":"Point","coordinates":[0.995007,47.325915]},"properties":{"category":"shop","name":"L'HEUREUX CYCLE","phone":"+33 6 17 56 79 68","osm_id":12925763141}}]}