{"type":"FeatureCollection","features":[{"type":"Feature","geometry":{"type":"Point","coordinates":[-2.074654,47.317392]},"properties":{"category":"bakery","name":"Le Fournil de la Gare","osm_id":1553394036}},{"type":"Feature","geometry":{"type":"Point","coordinates":[-2.0755874,47.3187353]},"properties":{"category":"bakery","osm_id":1553394696}},{"type":"Feature","geometry":{"type":"Point","coordinates":[-2.0736435,47.3191875]},"properties":{"category":"bakery","name":"Miravel d’Antan","opening_hours":"06:15-19:00","phone":"+33 9 87 58 72 35","website":"https://donges.miravel.fr","osm_id":1553394699}},{"type":"Feature","geometry":{"type":"Point","coordinates":[-2.0105814,47.362529]},"properties":{"category":"bakery","name":"Le Fournil Prinquelais","osm_id":7568030761}},{"type":"Feature","geometry":{"type":"Point","coordinates":[-2.0923103,47.3951158]},"properties":{"category":"bakery","name":"Boulangerie Vincent","opening_hours":"Mo-Sa 07:00-13:15,15:00-19:30; We off; Su 07:30-13:00","phone":"+33 2 40 01 30 09","website":"https://www.patisserievincent44.com/","osm_id":8602698625}},{"type":"Feature","geometry":{"type":"Point","coordinates":[-2.0752725,47.3187479]},"properties":{"category":"repair","osm_id":13958720581}}]}