{"type":"FeatureCollection","features":[{"type":"Feature","geometry":{"type":"Point","coordinates":[4.8087802,47.3271109]},"properties":{"category":"bakery","name":"Association Risomes","opening_hours":"Tu,Fr 17:00-20:00","osm_id":5592283743}},{"type":"Feature","geometry":{"type":"Point","coordinates":[4.8585682,47.3086896]},"properties":{"category":"bakery","name":"La Manufacture du Pain","opening_hours":"Tu-Sa 06:30-19:00; Su,PH 07:00-12:30","osm_id":8914221686}},{"type":"Feature","geometry":{"type":"Point","coordinates":[4.8573585,47.3089101]},"properties":{"category":"compressed_air","osm_id":11125566401}},{"type":"Feature","geometry":{"type":"Point","coordinates":[4.8637425,47.3621402]},"properties":{"category":"bakery","name":"Pain Caramel","phone":"+33 7 49 00 21 21","website":"https://www.paincaramel.com/","osm_id":13249965303}}]}