{"type":"FeatureCollection","features":[{"type":"Feature","geometry":{"type":"Point","coordinates":[-0.1841952,47.3304471]},"properties":{"category":"bakery","name":"Les Douceurs de la Levée","opening_hours":"Tu-Th, Sa 06:30-13:30, 15:30-19:00; Su 07:00-13:00","phone":"+33 2 41 52 35 91","osm_id":1407689835}},{"type":"Feature","geometry":{"type":"Point","coordinates":[-0.1572695,47.310946]},"properties":{"category":"bakery","name":"Le Fournil des Frères Pez","opening_hours":"Mo,Tu,Th-Sa 06:30-13:30,16:00-19:30; PH,Su 07:00-13:00; We off","osm_id":2365972763}},{"type":"Feature","geometry":{"type":"Point","coordinates":[-0.1847406,47.3307946]},"properties":{"category":"repair","osm_id":13061563816}}]}