{"type":"FeatureCollection","features":[{"type":"Feature","geometry":{"type":"Point","coordinates":[-2.4999452,47.3322475]},"properties":{"category":"shop","osm_id":1834707288}},{"type":"Feature","geometry":{"type":"Point","coordinates":[-2.4138971,47.3271285]},"properties":{"category":"bakery","name":"Maison Bécam","opening_hours":"Mo-Su 06:30-20:00","osm_id":2146671570}},{"type":"Feature","geometry":{"type":"Point","coordinates":[-2.4310809,47.3260998]},"properties":{"category":"bakery","name":"A la Boule de Pain","opening_hours":"Tu,Fr 07:00-13:00,15:30-18:30; We-Th 07:00-12:45; Sa-Su 07:00-12:45","osm_id":2993454249}},{"type":"Feature","geometry":{"type":"Point","coordinates":[-2.4287534,47.327707]},"properties":{"category":"bakery","name":"Au Pain Doré & Banette","opening_hours":"Fr-We 06:45-19:30","osm_id":4320739947}},{"type":"Feature","geometry":{"type":"Point","coordinates":[-2.424433,47.3916827]},"properties":{"category":"bakery","name":"Élodie et Arnaud Benigué","opening_hours":"Tu-Sa 07:00-13:00,15:30-19:00; Su 07:30-12:45; PH 07:30-12:45","phone":"+33 2 40 53 98 08","osm_id":4539504293}},{"type":"Feature","geometry":{"type":"Point","coordinates":[-2.4252082,47.329227]},"properties":{"category":"bakery","name":"Le père Mollet","opening_hours":"Tu-We,Fr 09:00-13:30,15:30-18:30; Sa 08:00-13:00; PH closed","osm_id":4657111296}},{"type":"Feature","geometry":{"type":"Point","coordinates":[-2.4079324,47.3236359]},"properties":{"category":"shop","name":"Vélozen","opening_hours":"Tu-Sa 09:30-12:30, 14:30-19:00","phone":"+33 244077351","website":"https://www.velozen.com/","osm_id":7935817885}},{"type":"Feature","geometry":{"type":"Point","coordinates":[-2.4318751,47.3292816]},"properties":{"category":"shop","name":"Les Trottes de l'Ouest","osm_id":9043511378}},{"type":"Feature","geometry":{"type":"Point","coordinates":[-2.4121911,47.3236255]},"properties":{"category":"shop","name":"Terre De Cycle","opening_hours":"Tu-Sa 09:30-12:00, 13:30-19:00; Mo 13:30-19:00","phone":"+332 40 60 13 39","website":"https://www.terredecycle.com","osm_id":9402588100}},{"type":"Feature","geometry":{"type":"Point","coordinates":[-2.4262477,47.3310132]},"properties":{"category":"repair","name":"Station de gonflage solaire pour les vélos","opening_hours":"24/7","osm_id":9649181121}},{"type":"Feature","geometry":{"type":"Point","coordinates":[-2.4107466,47.3247655]},"properties":{"category":"bakery","name":"Firmin","opening_hours":"Mo-Fr 06:30-19:00; Sa 06:30-18:00","phone":"+33 2 40 88 09 47","website":"https://www.boulangerie-firmin.com/","osm_id":9688014972}},{"type":"Feature","geometry":{"type":"Point","coordinates":[-2.4595307,47.3932816]},"properties":{"category":"bakery","name":"Lumamie","opening_hours":"We-Sa 07:30-13:00,15:30-19:00; Su 07:30-13:00","phone":"+33 9 53 62 03 64","osm_id":10230986706}},{"type":"Feature","geometry":{"type":"Point","coordinates":[-2.4290543,47.3304027]},"properties":{"category":"bakery","name":"Le Fournil des Remparts","opening_hours":"Mo,Tu,Th,Fr,Sa 07:30-13:00,16:00-19:00; Su 07:30-13:00","phone":"+33 2 40 11 12 97","osm_id":12829750801}},{"type":"Feature","geometry":{"type":"Point","coordinates":[-2.4355256,47.3298812]},"properties":{"category":"bakery","name":"Boulangerie Visentin","opening_hours":"Mo-Th,Sa 07:00-19:30; Su,PH 07:00-13:00","osm_id":14040254961}}]}