{"type":"FeatureCollection","features":[{"type":"Feature","geometry":{"type":"Point","coordinates":[6.0111867,47.3274278]},"properties":{"category":"bakery","osm_id":853161449}},{"type":"Feature","geometry":{"type":"Point","coordinates":[6.0011589,47.38168]},"properties":{"category":"bakery","name":"Au cœur fondant","osm_id":7884255710}},{"type":"Feature","geometry":{"type":"Point","coordinates":[6.0817491,47.341746]},"properties":{"category":"bakery","name":"Au P’tiot Fournil","opening_hours":"Tu-Fr 11:15-19:00; Sa 08:30-13:00","phone":"+33 7 59 76 97 88","osm_id":13545953879}},{"type":"Feature","geometry":{"type":"Point","coordinates":[6.0177375,47.3390302]},"properties":{"category":"bakery","name":"Monnin-Mourey","osm_id":14014765213}}]}