{"type":"FeatureCollection","features":[{"type":"Feature","geometry":{"type":"Point","coordinates":[-0.8589778,47.3840087]},"properties":{"category":"bakery","name":"Au Fournil du Val de Loire","opening_hours":"Mo-Tu 06:30-14:00,15:00-19:30; Th-Fr 06:30-14:00,15:00-19:30; Sa 06:30-14:00,14:30-19:30; Su 06:30-14:00,14:30-18:00","phone":"+33 2 41 39 03 87","website":"https://www.aufournilduvaldeloire.fr/","osm_id":3961929893}},{"type":"Feature","geometry":{"type":"Point","coordinates":[-0.8622339,47.3905402]},"properties":{"category":"bakery","name":"Boulangerie Pâtisserie Réveillère","osm_id":3962439809}},{"type":"Feature","geometry":{"type":"Point","coordinates":[-0.8600114,47.3555849]},"properties":{"category":"bakery","name":"Au Pain Passion","osm_id":9366601001}}]}