{"type":"FeatureCollection","features":[{"type":"Feature","geometry":{"type":"Point","coordinates":[-2.3110618,47.3138861]},"properties":{"category":"bakery","name":"Boulangerie JF Gueno","opening_hours":"Mo-Sa 06:30-13:00,15:00-19:30; We off; Su 06:30-13:00","phone":"+33 2 40012227","osm_id":4440387372}},{"type":"Feature","geometry":{"type":"Point","coordinates":[-2.3056682,47.3974095]},"properties":{"category":"bakery","name":"L'Atelier du pain","osm_id":4485234759}},{"type":"Feature","geometry":{"type":"Point","coordinates":[-2.3906878,47.3329932]},"properties":{"category":"shop","osm_id":5609858553}},{"type":"Feature","geometry":{"type":"Point","coordinates":[-2.3116216,47.3131926]},"properties":{"category":"bakery","name":"Au Fournil Andréanais","opening_hours":"Tu-Fr 07:00-13:30, 15:30-19:00; Sa 07:00-13:30; Su 07:00-13:00","osm_id":7335323608}},{"type":"Feature","geometry":{"type":"Point","coordinates":[-2.3051893,47.3993946]},"properties":{"category":"bakery","name":"Boulangerie Princet","phone":"+33 2 40 91 41 02","osm_id":11115935050}},{"type":"Feature","geometry":{"type":"Point","coordinates":[-2.3114662,47.3140524]},"properties":{"category":"repair","osm_id":11462275328}}]}