{"type":"FeatureCollection","features":[{"type":"Feature","geometry":{"type":"Point","coordinates":[-1.6247266,47.3306021]},"properties":{"category":"bakery","name":"Boulangerie l'Atelier","phone":"+33 2 40 96 64 21","osm_id":1414558607}},{"type":"Feature","geometry":{"type":"Point","coordinates":[-1.622952,47.3303532]},"properties":{"category":"bakery","name":"Boulangerie Bahia","phone":"+33 2 40 94 60 98","osm_id":1746783335}},{"type":"Feature","geometry":{"type":"Point","coordinates":[-1.6056532,47.364817]},"properties":{"category":"bakery","name":"Morgane et Bastein Giraud","osm_id":1928525534}},{"type":"Feature","geometry":{"type":"Point","coordinates":[-1.6053998,47.3634067]},"properties":{"category":"bakery","name":"Panisfaire","osm_id":1928526083}},{"type":"Feature","geometry":{"type":"Point","coordinates":[-1.6969622,47.3314102]},"properties":{"category":"bakery","name":"Le Fournil de la Paquelais","opening_hours":"Mo-Fr 07:00-19:00; Su 07:00-13:00","phone":"+33 2 40 71 48 48","osm_id":10568548447}},{"type":"Feature","geometry":{"type":"Point","coordinates":[-1.6543721,47.337593]},"properties":{"category":"compressed_air","osm_id":10931206741}},{"type":"Feature","geometry":{"type":"Point","coordinates":[-1.6061087,47.3637074]},"properties":{"category":"shop","name":"Le Verger","website":"https://www.facebook.com/velos.ecolo.responsable.Grandchampenois/?locale=fr_FR","osm_id":11085326522}}]}