{"type":"FeatureCollection","features":[{"type":"Feature","geometry":{"type":"Point","coordinates":[-2.1788001,47.3522011]},"properties":{"category":"bakery","name":"Boulangerie Pâtisserie","osm_id":1654127054}},{"type":"Feature","geometry":{"type":"Point","coordinates":[-2.1533637,47.3278928]},"properties":{"category":"bakery","name":"Le Fournil Briéron","phone":"+33 2 40 45 51 67","website":"https://le-fournil-brieron.business.site/","osm_id":7040241062}},{"type":"Feature","geometry":{"type":"Point","coordinates":[-2.186032,47.3597357]},"properties":{"category":"repair","opening_hours":"24/7","osm_id":11009756574}},{"type":"Feature","geometry":{"type":"Point","coordinates":[-2.1809608,47.305723]},"properties":{"category":"bakery","name":"Fournil de Bellevue","phone":"+33 240628600","osm_id":11137774782}}]}