{"type":"FeatureCollection","features":[{"type":"Feature","geometry":{"type":"Point","coordinates":[0.9816655,47.4179619]},"properties":{"category":"shop","phone":"+33 2 47 57 01 79","osm_id":957518860}},{"type":"Feature","geometry":{"type":"Point","coordinates":[0.9537003,47.4317742]},"properties":{"category":"bakery","name":"La Grange aux Pains","osm_id":1789902446}},{"type":"Feature","geometry":{"type":"Point","coordinates":[0.9821067,47.4185167]},"properties":{"category":"bakery","osm_id":2714358872}},{"type":"Feature","geometry":{"type":"Point","coordinates":[0.9750473,47.4106512]},"properties":{"category":"bakery","name":"Boulanger Patissier Eric Gauvreau","opening_hours":"Mo, Tu, Th-Sa 06:30-20:00; Su 06:30-15:00","phone":"+33 2 47 57 04 61","osm_id":3060627726}},{"type":"Feature","geometry":{"type":"Point","coordinates":[0.9837318,47.412345]},"properties":{"category":"bakery","name":"l'Horloge","opening_hours":"Tu-Sa 07:00-19:00; Su 07:00-13:00","osm_id":7747382265}},{"type":"Feature","geometry":{"type":"Point","coordinates":[0.9810475,47.4111153]},"properties":{"category":"bakery","name":"La Clef des Champs","opening_hours":"Tu-Sa 07:00-13:15, 15:15-19:15","osm_id":9902314118}},{"type":"Feature","geometry":{"type":"Point","coordinates":[0.9921876,47.4032343]},"properties":{"category":"bakery","name":"Le Four à Pains","osm_id":11139671830}},{"type":"Feature","geometry":{"type":"Point","coordinates":[0.9860364,47.4045008]},"properties":{"category":"bakery","name":"La Pétrie Boulangerie Viviane et Daniel","osm_id":11139671831}},{"type":"Feature","geometry":{"type":"Point","coordinates":[0.9763366,47.4247522]},"properties":{"category":"bakery","name":"La Grange aux Pains","osm_id":12146606073}},{"type":"Feature","geometry":{"type":"Point","coordinates":[0.9943001,47.4676097]},"properties":{"category":"bakery","name":"L’Ecopain","osm_id":13744452001}},{"type":"Feature","geometry":{"type":"Point","coordinates":[0.981723,47.4127033]},"properties":{"category":"repair","opening_hours":"24/7","osm_id":13758670886}},{"type":"Feature","geometry":{"type":"Point","coordinates":[0.9812844,47.4257226]},"properties":{"category":"bakery","name":"Marie Blachère","opening_hours":"Mo-Th,Sa 07:00-19:30; Fr 07:00-20:00; Su 07:30-12:30","phone":"+33 2 47 23 87 35","website":"https://boulangeries.marieblachere.com/fr/france-FR/6353/marie-blachere-poce-sur-cisse/details","osm_id":14028990223}}]}