{"type":"FeatureCollection","features":[{"type":"Feature","geometry":{"type":"Point","coordinates":[6.8063705,47.4517832]},"properties":{"category":"shop","osm_id":6533614721}},{"type":"Feature","geometry":{"type":"Point","coordinates":[6.8261539,47.4872457]},"properties":{"category":"shop","name":"Recyclerie des Forges","phone":"+33 3 39 30 00 79","website":"https://www.la-recyclerie-des-forges.fr/","osm_id":12051913462}},{"type":"Feature","geometry":{"type":"Point","coordinates":[6.8913125,47.4786004]},"properties":{"category":"repair","osm_id":13810187705}}]}