{"type":"FeatureCollection","features":[{"type":"Feature","geometry":{"type":"Point","coordinates":[0.697443,47.4917563]},"properties":{"category":"bakery","name":"Boulangerie Aveline","opening_hours":"Tu-Sa 06:30-19:30; Su 06:30-12:30","phone":"+33 2 47 55 11 23","osm_id":655923312}},{"type":"Feature","geometry":{"type":"Point","coordinates":[0.6939096,47.4027706]},"properties":{"category":"bakery","name":"Les petites métives","opening_hours":"Su off; Mo,Tu 07:00-19:30; We 07:00-13:00,15:00-19:30; Th,Fr 07:00-19:30; Sa 07:00-13:00","osm_id":1305825408}},{"type":"Feature","geometry":{"type":"Point","coordinates":[0.668482,47.404168]},"properties":{"category":"bakery","name":"Aux Délices de Saint-Cyr","opening_hours":"Mo-Sa 06:30-19:45; Tu off; Su 07:00-19:00","phone":"+33 2 47 54 01 55","osm_id":1526167586}},{"type":"Feature","geometry":{"type":"Point","coordinates":[0.6950164,47.4108006]},"properties":{"category":"bakery","name":"Plaisir du Goût","opening_hours":"Tu-Sa 07:00-13:30,15:30-19:30; Su 07:00-13:00","phone":"+33 2 47 54 12 26","osm_id":2023880133}},{"type":"Feature","geometry":{"type":"Point","coordinates":[0.6960462,47.4188804]},"properties":{"category":"bakery","name":"La maison Rabel","opening_hours":"Mo-Fr 07:00-13:30,15:30-19:30; Sa 07:30-13:30,15:30-19:30","website":"https://boulangerie-rabel.eatbu.com/","osm_id":3151063761}},{"type":"Feature","geometry":{"type":"Point","coordinates":[0.6828892,47.4220113]},"properties":{"category":"bakery","name":"La Maison Rabel","opening_hours":"Mo-Fr 06:30-20:00; Sa 07:00-20:00; Su 07:30-14:00, 15:00-20:00","phone":"+33 2 47 66 82 03","website":"https://boulangerie-rabel.eatbu.com/","osm_id":3955368181}},{"type":"Feature","geometry":{"type":"Point","coordinates":[0.6308748,47.495983]},"properties":{"category":"bakery","name":"Au Petit Pain d’Alice","opening_hours":"Tu-Fr 07:00-13:00,16:00-19:00; Sa 07:30-13:00,16:00-19:00; Su 08:00-13:00","phone":"+33 2 47 71 92 32","osm_id":4265856274}},{"type":"Feature","geometry":{"type":"Point","coordinates":[0.6389781,47.4377712]},"properties":{"category":"bakery","name":"Pains et Délices","osm_id":4801270484}},{"type":"Feature","geometry":{"type":"Point","coordinates":[0.6393712,47.436863]},"properties":{"category":"bakery","name":"La flûte croustillante","osm_id":4801270489}},{"type":"Feature","geometry":{"type":"Point","coordinates":[0.65896,47.4241]},"properties":{"category":"bakery","name":"Marie Blachère","osm_id":5613774870}},{"type":"Feature","geometry":{"type":"Point","coordinates":[0.6083646,47.4691491]},"properties":{"category":"bakery","name":"SH Boulanger Pâtissier Charentilly","opening_hours":"We-Fr 07:00-13:00,16:00-19:00; Sa,Su 07:00-13:00","phone":"+33 2 47 56 57 75","website":"https://www.facebook.com/profile.php?id=61569117155703","osm_id":5822836678}},{"type":"Feature","geometry":{"type":"Point","coordinates":[0.6497359,47.452356]},"properties":{"category":"bakery","name":"Pains et Délices Mettray","opening_hours":"Tu-Su 07:30-13:30","phone":"+33219035417","osm_id":6434138108}},{"type":"Feature","geometry":{"type":"Point","coordinates":[0.6927663,47.4268025]},"properties":{"category":"bakery","name":"La Touraine","osm_id":6920378091}},{"type":"Feature","geometry":{"type":"Point","coordinates":[0.6713699,47.4136336]},"properties":{"category":"bakery","name":"La Farandole","osm_id":7139484096}},{"type":"Feature","geometry":{"type":"Point","coordinates":[0.6853674,47.4123659]},"properties":{"category":"bakery","name":"Hardouin","opening_hours":"Mo-Fr 06:00-20:00; Sa-Su 06:30-13:30; Sa-Su 15:00-20:00","phone":"+33 2 47 41 70 07","osm_id":7139511541}},{"type":"Feature","geometry":{"type":"Point","coordinates":[0.6725802,47.4075909]},"properties":{"category":"bakery","name":"La Mignardise de Saint-Cyr","opening_hours":"Tu-Sa 07:00-13:00,15:00-19:30; Su 07:00-13:00","osm_id":7257312408}},{"type":"Feature","geometry":{"type":"Point","coordinates":[0.6835966,47.4108188]},"properties":{"category":"bakery","name":"Boulangerie Pâtisserie Phillippe Depond","osm_id":7951743090}},{"type":"Feature","geometry":{"type":"Point","coordinates":[0.6851114,47.4321786]},"properties":{"category":"bakery","name":"Côté Pains","osm_id":8253156009}},{"type":"Feature","geometry":{"type":"Point","coordinates":[0.6937854,47.4165559]},"properties":{"category":"bakery","name":"Boulangerie Depond Philippe","opening_hours":"We-Mo 07:30-13:00","osm_id":8272398953}},{"type":"Feature","geometry":{"type":"Point","coordinates":[0.6163757,47.4044983]},"properties":{"category":"bakery","name":"Paul","opening_hours":"Mo-Sa 07:30-19:30; Su 07:30-13:00","website":"https://www.paul.fr/stores/tours_fondettes","osm_id":9005911251}},{"type":"Feature","geometry":{"type":"Point","coordinates":[0.6693273,47.4316462]},"properties":{"category":"bakery","name":"Marie Blachère","osm_id":9729868417}},{"type":"Feature","geometry":{"type":"Point","coordinates":[0.657646,47.4230247]},"properties":{"category":"bakery","name":"Boulangerie Ange","opening_hours":"Mo-Sa 06:30-20:00","phone":"+33 2 47 63 73 08","osm_id":9729936917}},{"type":"Feature","geometry":{"type":"Point","coordinates":[0.6979269,47.4255871]},"properties":{"category":"compressed_air","osm_id":10704538459}},{"type":"Feature","geometry":{"type":"Point","coordinates":[0.6982744,47.402967]},"properties":{"category":"shop","name":"Cycl'Evasion","opening_hours":"Apr-Sep: Tu-Sa 09:00-18:30 \"Atelier de réparation\"; Oct-Mar: Tu-Sa 09:30-18:00 \"Atelier de réparation\"; Apr-Sep: 09:00-18:30 \"Location de vélos\"; Oct-Mar: Tu-Sa 09:30-18:00 \"Location de vélos\"","phone":"+33 9 87 74 47 29","osm_id":11037925746}},{"type":"Feature","geometry":{"type":"Point","coordinates":[0.6580719,47.4225326]},"properties":{"category":"shop","name":"Bike Paradise","phone":"+33 2 47 51 20 00","osm_id":11060213089}},{"type":"Feature","geometry":{"type":"Point","coordinates":[0.6060366,47.4031453]},"properties":{"category":"bakery","name":"Couleurs gourmandes ","opening_hours":"Mo-Sa 08:30-19:30; Su 08:00-12:30","osm_id":11386013438}},{"type":"Feature","geometry":{"type":"Point","coordinates":[0.6873317,47.4288596]},"properties":{"category":"repair","osm_id":11777730085}},{"type":"Feature","geometry":{"type":"Point","coordinates":[0.6640413,47.4196507]},"properties":{"category":"bakery","name":"Boulangerie Feuillette","opening_hours":"Mo-Su 06:00-20:00","phone":"+33 9 67 32 43 35","osm_id":12139291051}},{"type":"Feature","geometry":{"type":"Point","coordinates":[0.6943884,47.4023962]},"properties":{"category":"repair","osm_id":13809309263}}]}