{"type":"FeatureCollection","features":[{"type":"Feature","geometry":{"type":"Point","coordinates":[2.9254744,47.4101732]},"properties":{"category":"bakery","osm_id":1676031904}},{"type":"Feature","geometry":{"type":"Point","coordinates":[2.9255696,47.4110385]},"properties":{"category":"bakery","name":"Maison Rollon","osm_id":6690951500}},{"type":"Feature","geometry":{"type":"Point","coordinates":[2.9261852,47.4110586]},"properties":{"category":"bakery","name":"Artisan Boulanger","opening_hours":"Mo-We,Fr,Sa 06:15-19:15; Su 06:15-13:15","osm_id":6690959578}},{"type":"Feature","geometry":{"type":"Point","coordinates":[2.9274229,47.411228]},"properties":{"category":"bakery","osm_id":6690995408}},{"type":"Feature","geometry":{"type":"Point","coordinates":[2.9314933,47.4272094]},"properties":{"category":"compressed_air","opening_hours":"24/7","osm_id":7529808097}},{"type":"Feature","geometry":{"type":"Point","coordinates":[2.9258678,47.4099017]},"properties":{"category":"bakery","name":"Céréa","opening_hours":"Mo-Su 06:30-19:30","osm_id":11434870757}}]}