{"type":"FeatureCollection","features":[{"type":"Feature","geometry":{"type":"Point","coordinates":[-2.1688981,47.4110083]},"properties":{"category":"bakery","osm_id":4332856031}},{"type":"Feature","geometry":{"type":"Point","coordinates":[-2.1592245,47.4826347]},"properties":{"category":"bakery","name":"Boulangerie Pâtisserie Houta et David MOINARD","phone":"+33240193360","osm_id":11707705328}},{"type":"Feature","geometry":{"type":"Point","coordinates":[-2.1594803,47.4822995]},"properties":{"category":"bakery","name":"Boulangerie Pâtisserie Moyon","phone":"+33240883065","osm_id":12180300021}}]}