{"type":"FeatureCollection","features":[{"type":"Feature","geometry":{"type":"Point","coordinates":[2.4401215,47.4885146]},"properties":{"category":"bakery","name":"Boulangerie Pâtisserie Kock","opening_hours":"Mo-Tu,Th-Su 06:30-19:30","phone":"+33 2 48 58 12 09","osm_id":7557299486}},{"type":"Feature","geometry":{"type":"Point","coordinates":[2.439454,47.4885495]},"properties":{"category":"bakery","name":"Boulangerie L'Art du Blé","opening_hours":"Mo-Fr 06:00-19:00; Sa 06:30-19:00","phone":"+33 2 48 58 66 86","osm_id":13899266533}},{"type":"Feature","geometry":{"type":"Point","coordinates":[2.4389355,47.4878362]},"properties":{"category":"bakery","name":"Boulangerie Pâtisserie des Dames","opening_hours":"Tu-Fr 06:00-13:30,15:00-19:00; Su 06:30-13:00","phone":"+33 2 48 58 86 42","osm_id":13929732805}}]}