{"type":"FeatureCollection","features":[{"type":"Feature","geometry":{"type":"Point","coordinates":[-1.5381114,47.4375656]},"properties":{"category":"repair","name":"Mise à dispostion d'outils par l'éclusier","osm_id":6762035474}},{"type":"Feature","geometry":{"type":"Point","coordinates":[-1.5603875,47.4429205]},"properties":{"category":"bakery","name":"La Cueilleuse","opening_hours":"May 04-Sep 21 Tu-Th 12:00-20:00; May 04-Sep 21 Fr 12:00-23:30; May 04-Sep 21 Sa 10:00-20:00","phone":"+33 9 87 41 57 24","website":"https://lacueilleuse.com/","osm_id":6762035475}},{"type":"Feature","geometry":{"type":"Point","coordinates":[-1.5031739,47.4419448]},"properties":{"category":"shop","name":"Cycl'Yo","opening_hours":"Tu-Sa 09:30-12:30, Tu-Fr 14:00-19:00, Sa 14:00-18:00","phone":"+33 6 73 01 72 44","osm_id":8239896726}},{"type":"Feature","geometry":{"type":"Point","coordinates":[-1.5030398,47.4418011]},"properties":{"category":"compressed_air","osm_id":14097359045}}]}