{"type":"FeatureCollection","features":[{"type":"Feature","geometry":{"type":"Point","coordinates":[-0.6307213,47.4748819]},"properties":{"category":"bakery","name":"Célestine","osm_id":2168676458}},{"type":"Feature","geometry":{"type":"Point","coordinates":[-0.6103879,47.4219125]},"properties":{"category":"bakery","name":"Boulangerie - Pâtisserie Maison Bécam","opening_hours":"Mo-Su 06:30-20:00","phone":"+33 2 59 10 03 27","website":"https://maisonbecam.com","osm_id":2366005407}},{"type":"Feature","geometry":{"type":"Point","coordinates":[-0.6183775,47.4087496]},"properties":{"category":"bakery","name":"Miss Robin","opening_hours":"Tu-Sa 06:45-13:30,16:00-20:00; Su 07:00-18:30; PH 07:00-18:30","phone":"+33 2 41 77 12 99","osm_id":2366006284}},{"type":"Feature","geometry":{"type":"Point","coordinates":[-0.6265119,47.4848238]},"properties":{"category":"bakery","name":"Maison Becam","opening_hours":"Mo-Sa 10:00-20:00","phone":"0 805 62 01 49","osm_id":2773909849}},{"type":"Feature","geometry":{"type":"Point","coordinates":[-0.6192759,47.4700848]},"properties":{"category":"bakery","name":"Boulangerie Ange","osm_id":2776975412}},{"type":"Feature","geometry":{"type":"Point","coordinates":[-0.6071633,47.4457429]},"properties":{"category":"bakery","name":"Le Fournil de Pruniers","phone":"+33 2 41 48 48 31","osm_id":3446259298}},{"type":"Feature","geometry":{"type":"Point","coordinates":[-0.6163762,47.4599741]},"properties":{"category":"bakery","name":"Aux délices de Mollière","osm_id":6028363426}},{"type":"Feature","geometry":{"type":"Point","coordinates":[-0.6210677,47.471996]},"properties":{"category":"shop","name":"Anjou Bikes","opening_hours":"Tu-Fr 09:30-12:00, 14:00-19:00; Sa 09:30-12:00, 14:00-18:00","website":"https://www.anjoubikes.com/anjoubikes","osm_id":9147838834}},{"type":"Feature","geometry":{"type":"Point","coordinates":[-0.6590325,47.4590954]},"properties":{"category":"bakery","name":"La Fournée de Pierre","opening_hours":"Tu-Su 07:00-13:00,16:00-19:30","phone":"+33 2 41 39 76 06; +33 2 41 19 40 93","website":"https://www.lafourneedepierre.fr/","osm_id":9160265691}},{"type":"Feature","geometry":{"type":"Point","coordinates":[-0.6587566,47.4575009]},"properties":{"category":"bakery","name":"Maison Bécam","opening_hours":"Mo-Fr 06:30-19:30","phone":"+33 2 41 39 73 57","website":"https://www.montabac.fr/49070-bar-tabac-le-point-du-jour","osm_id":9739243661}},{"type":"Feature","geometry":{"type":"Point","coordinates":[-0.6003991,47.4730141]},"properties":{"category":"compressed_air","osm_id":11115848355}},{"type":"Feature","geometry":{"type":"Point","coordinates":[-0.6197185,47.4706834]},"properties":{"category":"shop","name":"Sporteco cycle","opening_hours":"Tu-Fr 09:30-12:30, 14:30-19:00; Sa 09:30-12:30, 14:00-18:00","phone":"+33 2 41 87 07 77","osm_id":11288850169}},{"type":"Feature","geometry":{"type":"Point","coordinates":[-0.6203171,47.4650328]},"properties":{"category":"shop","name":"S1NEO Cycles","osm_id":12560914999}},{"type":"Feature","geometry":{"type":"Point","coordinates":[-0.6288302,47.4847869]},"properties":{"category":"bakery","name":"Marie Blachère","osm_id":13361087148}},{"type":"Feature","geometry":{"type":"Point","coordinates":[-0.6119173,47.4185247]},"properties":{"category":"compressed_air","name":"Pompe à vélo","osm_id":14072304388}},{"type":"Feature","geometry":{"type":"Point","coordinates":[-0.6119066,47.4185337]},"properties":{"category":"repair","osm_id":14072336047}}]}