{"type":"FeatureCollection","features":[{"type":"Feature","geometry":{"type":"Point","coordinates":[1.4599407,47.4983149]},"properties":{"category":"bakery","osm_id":2386800258}},{"type":"Feature","geometry":{"type":"Point","coordinates":[1.4283016,47.4174394]},"properties":{"category":"bakery","name":"C&F Rabaté","opening_hours":"Tu-Sa 07:00-13:00,15:30-19:00; Su 07:00-13:00","phone":"+33 2 54 79 53 35","osm_id":2399840833}},{"type":"Feature","geometry":{"type":"Point","coordinates":[1.4292507,47.4181875]},"properties":{"category":"bakery","name":"Boulangerie Patisserie","opening_hours":"Mo-We,Sa 07:00-13:00, Mo-We 15:00-19:15, Su 07:00-13:30","osm_id":11492267827}}]}