{"type":"FeatureCollection","features":[{"type":"Feature","geometry":{"type":"Point","coordinates":[-1.7505518,47.4611916]},"properties":{"category":"repair","name":"Mise à dispostion d'outils par l'éclusier","osm_id":6762035476}},{"type":"Feature","geometry":{"type":"Point","coordinates":[-1.7820463,47.4722713]},"properties":{"category":"repair","name":"Mise à dispostion d'outils par l'éclusier","osm_id":6762035477}},{"type":"Feature","geometry":{"type":"Point","coordinates":[-1.7504445,47.4759143]},"properties":{"category":"compressed_air","osm_id":12111396803}}]}