{"type":"FeatureCollection","features":[{"type":"Feature","geometry":{"type":"Point","coordinates":[-0.4851842,47.4052882]},"properties":{"category":"bakery","name":"Maison Crombez","opening_hours":"Mo-We,Fr-Sa 07:00-13:00,15:00-19:30; Su 08:15-13:00; PH closed","osm_id":1500397630}},{"type":"Feature","geometry":{"type":"Point","coordinates":[-0.4109817,47.4459426]},"properties":{"category":"bakery","name":"Brain de blé","opening_hours":"Mo,Tu,Th,Fr 07:00-13:30,15:30-19:30; Sa,Su 07:00-13:00; We off","phone":"+33 2 41 97 55 19","osm_id":2123934187}},{"type":"Feature","geometry":{"type":"Point","coordinates":[-0.4327193,47.4190846]},"properties":{"category":"bakery","name":"Le Fournil","opening_hours":"Mo,Tu,Th,Sa 07:00-13:00,16:00-19:00; Fr 07:00-13:00,16:00-20:00; Su 07:00-12:30; We off","osm_id":2263191461}},{"type":"Feature","geometry":{"type":"Point","coordinates":[-0.4832057,47.4433065]},"properties":{"category":"bakery","name":"Le Fournil d'Isa","opening_hours":"Mo-Fr 06:30-19:30; Sa 07:00-13:00","osm_id":2427012047}},{"type":"Feature","geometry":{"type":"Point","coordinates":[-0.4954764,47.4670767]},"properties":{"category":"bakery","name":"Maison Bécam","opening_hours":"Tu-Su 06:30-19:30","osm_id":2434912332}},{"type":"Feature","geometry":{"type":"Point","coordinates":[-0.4921913,47.4669071]},"properties":{"category":"bakery","name":"Chez Lux","opening_hours":"Mo,Tu,Th-Sa 07:00-18:00; Su 07:00-13:00","osm_id":2434925159}},{"type":"Feature","geometry":{"type":"Point","coordinates":[-0.4949883,47.4673347]},"properties":{"category":"bakery","name":"La Douce’Heure","opening_hours":"Mo-We,Fr 07:00-13:30,15:30-19:30, Sa 07:00-13:00, Su 07:00-13:00, Tu 07:00-13:00,15:30-19:30","phone":"+33 2 41 69 45 76","osm_id":5249422522}},{"type":"Feature","geometry":{"type":"Point","coordinates":[-0.4677657,47.453551]},"properties":{"category":"bakery","name":"Boulangerie Besnard","osm_id":5979239491}},{"type":"Feature","geometry":{"type":"Point","coordinates":[-0.4587182,47.401453]},"properties":{"category":"bakery","name":"Au fournil du vignoble","opening_hours":"Mo,Tu,Th-Sa 06:45-12:45, Mo,Tu,Th,Fr 16:00-18:45","osm_id":7187193747}},{"type":"Feature","geometry":{"type":"Point","coordinates":[-0.4937903,47.4420393]},"properties":{"category":"bakery","name":"La boulangerie rose","osm_id":7213692800}},{"type":"Feature","geometry":{"type":"Point","coordinates":[-0.4670803,47.4454936]},"properties":{"category":"bakery","name":"L'Ardoisière","opening_hours":"Mo-Tu,Th-Sa 07:00-13:30,15:00-20:00; Su 07:00-13:00","phone":"+33 2 41 05 80 93","osm_id":7236559591}},{"type":"Feature","geometry":{"type":"Point","coordinates":[-0.4261157,47.4956728]},"properties":{"category":"bakery","name":"Écorce d'Orange","osm_id":7362835814}},{"type":"Feature","geometry":{"type":"Point","coordinates":[-0.4928513,47.4669388]},"properties":{"category":"shop","name":"Cox-e-bike","opening_hours":"Sa 09:00-12:30, 14:00-19:00;Tu-Fr 09:00-12:00, 14:00-19:00","phone":"+33241277402","website":"https://coxebike.fr/","osm_id":8458450087}},{"type":"Feature","geometry":{"type":"Point","coordinates":[-0.4350579,47.418717]},"properties":{"category":"repair","osm_id":11169847131}},{"type":"Feature","geometry":{"type":"Point","coordinates":[-0.4756162,47.4444648]},"properties":{"category":"repair","opening_hours":"24/7","osm_id":13426937557}}]}