{"type":"FeatureCollection","features":[{"type":"Feature","geometry":{"type":"Point","coordinates":[0.4968364,47.4440852]},"properties":{"category":"bakery","name":"Maison Suzanne","opening_hours":"Tu-Sa 07:00-13:00,16:00-20:00; Su 07:00-13:00","phone":"+33 2 47 52 42 31","osm_id":7058646293}},{"type":"Feature","geometry":{"type":"Point","coordinates":[0.4451106,47.4519059]},"properties":{"category":"bakery","name":"Boulangerie Patisserie","opening_hours":"Mo-Tu,Th-Fr 07:00-13:00,16:00-19:00; We off; Sa-Su 07:00-13:00","osm_id":7682218580}}]}