{"type":"FeatureCollection","features":[{"type":"Feature","geometry":{"type":"Point","coordinates":[-1.6680096,47.5268916]},"properties":{"category":"bakery","name":"Fourage","phone":"+33 2 40 51 37 82","osm_id":1103253435}},{"type":"Feature","geometry":{"type":"Point","coordinates":[-1.6789999,47.5961999]},"properties":{"category":"bakery","name":"Boulangerie Chez Mouse","phone":"+33 9 51 61 98 92","osm_id":4442677143}},{"type":"Feature","geometry":{"type":"Point","coordinates":[-1.6264741,47.5644427]},"properties":{"category":"bakery","name":"François Frangeul","phone":"+33 2 40 79 48 23","osm_id":6461378117}},{"type":"Feature","geometry":{"type":"Point","coordinates":[-1.6262823,47.5649486]},"properties":{"category":"bakery","name":"le fournil nozeen","phone":"+33 2 40 79 33 02","osm_id":6461378118}},{"type":"Feature","geometry":{"type":"Point","coordinates":[-1.6259886,47.5653685]},"properties":{"category":"bakery","name":"Boulanger Pâtissier Moyon","opening_hours":"Mo-Sa 06:30-19:30","phone":"+33 2 40 79 43 19","osm_id":6461378119}},{"type":"Feature","geometry":{"type":"Point","coordinates":[-1.6289206,47.5705332]},"properties":{"category":"compressed_air","osm_id":13004352951}}]}