{"type":"FeatureCollection","features":[{"type":"Feature","geometry":{"type":"Point","coordinates":[5.3171741,47.5910098]},"properties":{"category":"bakery","name":"Champs du Destin","opening_hours":"Th,Fr 15:30-18:30","phone":"+33 3 80 75 95 60","website":"https://www.champsdudestin.com/","osm_id":4228986925}},{"type":"Feature","geometry":{"type":"Point","coordinates":[5.3694341,47.5253026]},"properties":{"category":"bakery","name":"Banette","osm_id":6542541016}},{"type":"Feature","geometry":{"type":"Point","coordinates":[5.3702263,47.5266271]},"properties":{"category":"bakery","osm_id":6542544747}}]}