{"type":"FeatureCollection","features":[{"type":"Feature","geometry":{"type":"Point","coordinates":[-3.1305489,47.5210124]},"properties":{"category":"bakery","name":"Hervé","opening_hours":"Mo-Sa 07:00-13:00,15:00-19:30; Su 07:00-13:00,16:00-18:00+","osm_id":786961407}},{"type":"Feature","geometry":{"type":"Point","coordinates":[-3.1300101,47.5204949]},"properties":{"category":"bakery","name":"Maison Boblique - Le Pétrin de Saint-Pierre","opening_hours":"Mo-Sa 07:00-13:00,15:30-19:30; Su 07:00-13:00","osm_id":786961449}},{"type":"Feature","geometry":{"type":"Point","coordinates":[-3.1348734,47.536374]},"properties":{"category":"bakery","opening_hours":"Mo-Su,PH 07:00-12:00","osm_id":5696694400}},{"type":"Feature","geometry":{"type":"Point","coordinates":[-3.1151477,47.59957]},"properties":{"category":"bakery","name":"A 2 pains d'ici","opening_hours":"Mo-Sa 07:00-19:00; Su 07:00-13:00","phone":"+33 2 97 31 26 59","osm_id":11836795227}},{"type":"Feature","geometry":{"type":"Point","coordinates":[-3.1313396,47.5205981]},"properties":{"category":"shop","name":"Cycles Loisirs","opening_hours":"Mo-We,Fr,Sa 09:30-12:30,14:30-18:30","osm_id":13061550184}}]}