{"type":"FeatureCollection","features":[{"type":"Feature","geometry":{"type":"Point","coordinates":[5.6754318,47.5048829]},"properties":{"category":"bakery","name":"Boulangerie Chevalier","osm_id":465302444}},{"type":"Feature","geometry":{"type":"Point","coordinates":[5.6777856,47.5562119]},"properties":{"category":"bakery","name":"Maison Paroty","opening_hours":"Mo,Tu,Th-Sa 06:00-19:30; Su 06:00-13:00","osm_id":6843805214}},{"type":"Feature","geometry":{"type":"Point","coordinates":[5.6789674,47.557919]},"properties":{"category":"bakery","name":"Boulangerie Cédric Goiset","phone":"+33 3 84 67 10 41","website":"https://boulangerie-goiset.edan.io","osm_id":10289810636}}]}