{"type":"FeatureCollection","features":[{"type":"Feature","geometry":{"type":"Point","coordinates":[4.0039707,47.5880972]},"properties":{"category":"bakery","name":"Les Délices du Serein","opening_hours":"Tu-Sa 07:00-13:00,15:30-19:00; Su 07:00-13:00","osm_id":11161020279}},{"type":"Feature","geometry":{"type":"Point","coordinates":[4.0352899,47.5033704]},"properties":{"category":"compressed_air","osm_id":12841350483}},{"type":"Feature","geometry":{"type":"Point","coordinates":[4.0370492,47.5046091]},"properties":{"category":"bakery","name":"Paul","osm_id":12966590818}}]}