{"type":"FeatureCollection","features":[{"type":"Feature","geometry":{"type":"Point","coordinates":[-2.4569825,47.5912279]},"properties":{"category":"bakery","name":"Boulangerie du Patrimoine","opening_hours":"Mo,Tu,Th-Sa 06:30-13:00, Mo,Tu,Th,Fr 15:00-19:30, Sa 15:00-19:00, Su,PH 07:00-13:00","osm_id":1882591510}},{"type":"Feature","geometry":{"type":"Point","coordinates":[-2.4874855,47.5536029]},"properties":{"category":"bakery","name":"Boulangerie Gaël","opening_hours":"06:30-20:00; We off","phone":"+33 2 97 41 54 08","website":"https://boulangeriegael.bzh/","osm_id":1912085085}},{"type":"Feature","geometry":{"type":"Point","coordinates":[-2.4827626,47.5533376]},"properties":{"category":"bakery","name":"Ty Bihan","opening_hours":"Tu-Sa 07:00-19:00; Su,PH 07:00-13:00","osm_id":2011422879}},{"type":"Feature","geometry":{"type":"Point","coordinates":[-2.4904559,47.5347107]},"properties":{"category":"repair","opening_hours":"24/7","osm_id":9816262450}},{"type":"Feature","geometry":{"type":"Point","coordinates":[-2.4065207,47.5829126]},"properties":{"category":"bakery","name":"Boulangerie","osm_id":9922811558}},{"type":"Feature","geometry":{"type":"Point","coordinates":[-2.4955338,47.5185647]},"properties":{"category":"repair","opening_hours":"24/7","osm_id":9943346045}},{"type":"Feature","geometry":{"type":"Point","coordinates":[-2.4814014,47.5542167]},"properties":{"category":"bakery","name":"Le P'tit Fournil","opening_hours":"Mo-Sa 07:00-19:00","osm_id":13207060343}},{"type":"Feature","geometry":{"type":"Point","coordinates":[-2.4988449,47.5595942]},"properties":{"category":"bakery","name":"Boulangerie Drive Dénos","opening_hours":"Mo-Fr 06:00-19:45; Sa 06:30-19:30","phone":"+33 2 97483009","osm_id":13476470448}}]}