{"type":"FeatureCollection","features":[{"type":"Feature","geometry":{"type":"Point","coordinates":[-2.1071232,47.5981467]},"properties":{"category":"bakery","osm_id":970767352}},{"type":"Feature","geometry":{"type":"Point","coordinates":[-2.1076484,47.5981688]},"properties":{"category":"bakery","name":"Boulangerie Davis","opening_hours":"Mo-Su 06:30-19:30; Sa off","osm_id":1770502326}},{"type":"Feature","geometry":{"type":"Point","coordinates":[-2.1083717,47.5982041]},"properties":{"category":"bakery","name":"Pain Beurre Chocolat","opening_hours":"Mo-Sa 06:45-19:00; Su off","osm_id":1770502509}},{"type":"Feature","geometry":{"type":"Point","coordinates":[-2.1550728,47.5445515]},"properties":{"category":"bakery","name":"Boulangerie Pâtisserie - Le moulin de mon père","phone":"+33299902132","osm_id":1869146122}}]}