{"type":"FeatureCollection","features":[{"type":"Feature","geometry":{"type":"Point","coordinates":[-0.3581169,47.5737488]},"properties":{"category":"bakery","osm_id":1818966290}},{"type":"Feature","geometry":{"type":"Point","coordinates":[-0.3626422,47.5756979]},"properties":{"category":"bakery","osm_id":1818973039}},{"type":"Feature","geometry":{"type":"Point","coordinates":[-0.3552477,47.5734898]},"properties":{"category":"bakery","name":"L'atelier d'Alex","opening_hours":"Mo-Tu 06:30-19:30; Th-Fr 06:30-19:30; Sa 07:00-14:00; Su 07:00-13:30","phone":"+33 2 41 27 92 23","website":"https://www.franceboulangerie.fr/boulangeries/latelier-dalex-seiches-sur-le-loir/","osm_id":9334621317}},{"type":"Feature","geometry":{"type":"Point","coordinates":[-0.3825249,47.5016613]},"properties":{"category":"bakery","name":"Le Relais de Sarrigné","opening_hours":"Tu-Th 06:30-13:00,15:00-20:00; Fr 06:30-13:00,15:00-21:00; Sa 08:00-13:00; Su 08:00-12:30","phone":"+33 2 41 80 52 34","osm_id":13332631882}},{"type":"Feature","geometry":{"type":"Point","coordinates":[-0.3638817,47.5669613]},"properties":{"category":"repair","osm_id":14038958380}}]}