{"type":"FeatureCollection","features":[{"type":"Feature","geometry":{"type":"Point","coordinates":[-2.5085226,47.5600641]},"properties":{"category":"shop","name":"Flohic Motoculture","phone":"+33 2 97 41 66 40","website":"https://www.flohic-motoculture.com","osm_id":1910395676}},{"type":"Feature","geometry":{"type":"Point","coordinates":[-2.5755476,47.5210298]},"properties":{"category":"shop","name":"Abbis Vélos","opening_hours":"Jul Mo[2]-Aug Su[-1] Mo-Su 09:15-13:30,14:30-18:30; May Mo[2]-Jul Su[2] Mo,We-Su 09:30-13:30,14:30-18:30; Apr Mo[1]-May Su[1] Mo,We-Su 09:30-12:30,14:00-18:00","phone":"+33 2 97 48 10 49","osm_id":3637832782}},{"type":"Feature","geometry":{"type":"Point","coordinates":[-2.5773954,47.5202261]},"properties":{"category":"bakery","name":"Maison Le Nezet","opening_hours":"Mo-Su 07:00-13:00, 15:30-19:00","phone":"+33 2 97 41 09 47","osm_id":5518626738}},{"type":"Feature","geometry":{"type":"Point","coordinates":[-2.5781386,47.5198349]},"properties":{"category":"bakery","name":"Fred & Nathalie","opening_hours":"Mo-Su 07:00-13:00, 15:30-19:00","phone":"+33 2 97 41 08 24","osm_id":6819893190}},{"type":"Feature","geometry":{"type":"Point","coordinates":[-2.511296,47.5590953]},"properties":{"category":"compressed_air","osm_id":8360970546}}]}