{"type":"FeatureCollection","features":[{"type":"Feature","geometry":{"type":"Point","coordinates":[6.8610722,47.5999812]},"properties":{"category":"compressed_air","osm_id":1467889973}},{"type":"Feature","geometry":{"type":"Point","coordinates":[6.8093296,47.5095224]},"properties":{"category":"bakery","name":"Maison Demeusy","phone":"+33381322758","website":"https://boulangerie-demeusy.fr/","osm_id":2536958899}},{"type":"Feature","geometry":{"type":"Point","coordinates":[6.8696867,47.5139601]},"properties":{"category":"shop","name":"Colibrius","website":"https://www.colibrius.fr/","osm_id":5046784948}},{"type":"Feature","geometry":{"type":"Point","coordinates":[6.8594223,47.5066351]},"properties":{"category":"bakery","name":"L'Ami D'Pain","osm_id":5228734072}},{"type":"Feature","geometry":{"type":"Point","coordinates":[6.8344885,47.5148349]},"properties":{"category":"bakery","osm_id":5228906583}},{"type":"Feature","geometry":{"type":"Point","coordinates":[6.8391688,47.5115853]},"properties":{"category":"bakery","name":"Marie Blachère","opening_hours":"Mo-Sa 07:30-20:00","phone":"+33 3 81 36 57 82","website":"https://boulangeries.marieblachere.com/fr/france-FR/7164/marie-blachere-sochaux/details","osm_id":7190407458}},{"type":"Feature","geometry":{"type":"Point","coordinates":[6.8642177,47.5066429]},"properties":{"category":"bakery","name":"Maison Charlier","osm_id":8423272444}},{"type":"Feature","geometry":{"type":"Point","coordinates":[6.8679778,47.5132669]},"properties":{"category":"bakery","name":"Maison Demeusy","osm_id":8423272446}},{"type":"Feature","geometry":{"type":"Point","coordinates":[6.8390758,47.5877823]},"properties":{"category":"bakery","osm_id":8576065960}},{"type":"Feature","geometry":{"type":"Point","coordinates":[6.8519618,47.5606709]},"properties":{"category":"bakery","name":"Maison Maître","opening_hours":"Tu-Sa 06:00-19:00; Su 06:00-12:00","osm_id":8593480006}},{"type":"Feature","geometry":{"type":"Point","coordinates":[6.8497449,47.5593152]},"properties":{"category":"bakery","name":"Boulangerie Châtenaise","osm_id":8593545387}},{"type":"Feature","geometry":{"type":"Point","coordinates":[6.8477715,47.5385152]},"properties":{"category":"bakery","name":"Le Fournil de Nommay","osm_id":8625778293}},{"type":"Feature","geometry":{"type":"Point","coordinates":[6.8236198,47.5156858]},"properties":{"category":"bakery","name":"Marie Blachère","opening_hours":"Mo-Sa 07:30-19:30","phone":"+33 3 81 96 53 60","website":"https://boulangeries.marieblachere.com/fr/france-FR/5440/marie-blachere-sochaux-doubs/details","osm_id":9344587910}},{"type":"Feature","geometry":{"type":"Point","coordinates":[6.8267843,47.5133236]},"properties":{"category":"bakery","osm_id":9344868082}},{"type":"Feature","geometry":{"type":"Point","coordinates":[6.835679,47.5126135]},"properties":{"category":"bakery","name":"Boulangerie Ange","osm_id":9344888704}},{"type":"Feature","geometry":{"type":"Point","coordinates":[6.8120027,47.5017195]},"properties":{"category":"bakery","name":"Boulangerie Ange","opening_hours":"Mo-Sa 06:00-19:30; Su 07:00-19:30","osm_id":10210550727}},{"type":"Feature","geometry":{"type":"Point","coordinates":[6.85948,47.5869199]},"properties":{"category":"bakery","name":"Boulangerie Ange","osm_id":11811880653}}]}