{"type":"FeatureCollection","features":[{"type":"Feature","geometry":{"type":"Point","coordinates":[-2.0377234,47.51773]},"properties":{"category":"bakery","name":"Antoine Boulanger Patissier","opening_hours":"Mo-Fr 07:30-19:30, 09:00-18:00; Sa 07:00-13:30, 15:00-19:00; Su 07:30-13:00","phone":"+33 2 40 01 47 22","osm_id":2705513691}},{"type":"Feature","geometry":{"type":"Point","coordinates":[-2.0760877,47.5504422]},"properties":{"category":"bakery","name":"Le festival des pains","opening_hours":"Tu-Su 07:00-13:00","phone":"+33 2 51 76 15 90","osm_id":14162617551}}]}