{"type":"FeatureCollection","features":[{"type":"Feature","geometry":{"type":"Point","coordinates":[-2.6476292,47.5256251]},"properties":{"category":"bakery","name":"Autour du Pain","osm_id":1766209274}},{"type":"Feature","geometry":{"type":"Point","coordinates":[-2.6292852,47.5777422]},"properties":{"category":"bakery","name":"Aubry","osm_id":2192300863}},{"type":"Feature","geometry":{"type":"Point","coordinates":[-2.6290847,47.5791472]},"properties":{"category":"bakery","name":"Évano","osm_id":2192300898}},{"type":"Feature","geometry":{"type":"Point","coordinates":[-2.6847662,47.505703]},"properties":{"category":"repair","opening_hours":"24/7","osm_id":12078329120}},{"type":"Feature","geometry":{"type":"Point","coordinates":[-2.631779,47.5810642]},"properties":{"category":"repair","osm_id":13138124650}}]}