{"type":"FeatureCollection","features":[{"type":"Feature","geometry":{"type":"Point","coordinates":[-2.9485977,47.6402088]},"properties":{"category":"bakery","name":"Maison Vincent","opening_hours":"Tu-Sa 07:00-19:00; Su 07:00-13:00; Mo off","phone":"+33297578857","website":"https://www.maison-vincent.bzh/","osm_id":1426089393}},{"type":"Feature","geometry":{"type":"Point","coordinates":[-2.9577819,47.6747236]},"properties":{"category":"bakery","name":"Katia et Louis Le Loüer","osm_id":1428296066}},{"type":"Feature","geometry":{"type":"Point","coordinates":[-2.98346,47.6666239]},"properties":{"category":"shop","name":"Eovolt","osm_id":2585884593}},{"type":"Feature","geometry":{"type":"Point","coordinates":[-2.9992953,47.6796366]},"properties":{"category":"bakery","name":"La Bibliothèque des Pains","opening_hours":"Tu-Su 06:00-20:00; Su,PH closed","osm_id":5175085633}},{"type":"Feature","geometry":{"type":"Point","coordinates":[-2.9740415,47.6680663]},"properties":{"category":"bakery","name":"Au pain qui crak'","osm_id":5899505032}},{"type":"Feature","geometry":{"type":"Point","coordinates":[-2.9859851,47.6655585]},"properties":{"category":"bakery","name":"Artisan Boulanger Patissier","osm_id":6274384411}},{"type":"Feature","geometry":{"type":"Point","coordinates":[-2.9934016,47.60283]},"properties":{"category":"bakery","name":"Au Vieux Fournil","osm_id":6363158442}},{"type":"Feature","geometry":{"type":"Point","coordinates":[-2.996473,47.6232067]},"properties":{"category":"bakery","name":"Au pain qui Crac'h, Maître Artisan","opening_hours":"Jul-Aug: Mo-Su 07:00-20:00","phone":"+33 2 97 59 24 43","osm_id":7772506066}},{"type":"Feature","geometry":{"type":"Point","coordinates":[-2.9494544,47.6399031]},"properties":{"category":"bakery","name":"Grillons la Tartine","opening_hours":"Tu,Th,Fr 08:30-12:30,15:30-19:00; Sa 08:00-12:30; Su,Mo off","osm_id":8521311835}},{"type":"Feature","geometry":{"type":"Point","coordinates":[-2.9996164,47.6797065]},"properties":{"category":"shop","name":"Vélo Breizh","opening_hours":"Tu-Fr 08:30-12:30,14:30-19:00","phone":"+33 6 84 52 62 19","website":"https://www.velobreizh.fr","osm_id":8756466076}},{"type":"Feature","geometry":{"type":"Point","coordinates":[-2.9829584,47.6665279]},"properties":{"category":"bakery","name":"La Mie Câline","phone":"+33 2 97 56 48 18","osm_id":9779030539}},{"type":"Feature","geometry":{"type":"Point","coordinates":[-2.9888473,47.6670691]},"properties":{"category":"compressed_air","osm_id":10215057048}},{"type":"Feature","geometry":{"type":"Point","coordinates":[-2.994878,47.604761]},"properties":{"category":"bakery","name":"Boulangerie Hardy","osm_id":10265700122}},{"type":"Feature","geometry":{"type":"Point","coordinates":[-2.9958706,47.6788267]},"properties":{"category":"bakery","name":"Le Drogo","opening_hours":"Mo-Fr 06:00-19:30; Sa 06:00-13:00","osm_id":12118096287}},{"type":"Feature","geometry":{"type":"Point","coordinates":[-2.9869513,47.6668978]},"properties":{"category":"bakery","name":"Maison Le Blouch","opening_hours":"Mo,Tu,Th-Sa 07:00-19:30; Su 07:00-13:00","osm_id":12180012607}},{"type":"Feature","geometry":{"type":"Point","coordinates":[-2.9179149,47.6199934]},"properties":{"category":"bakery","name":"Nathalie et Yannick Asselineau","opening_hours":"Tu-Sa 07:00-13:30,15:00-19:00; Su,PH 07:00-13:00","phone":"+33 2 97 57 00 42","osm_id":13748292784}}]}