{"type":"FeatureCollection","features":[{"type":"Feature","geometry":{"type":"Point","coordinates":[-2.7764077,47.6419875]},"properties":{"category":"compressed_air","opening_hours":"24/7","osm_id":1689199304}},{"type":"Feature","geometry":{"type":"Point","coordinates":[-2.7940084,47.6660996]},"properties":{"category":"compressed_air","osm_id":1700350712}},{"type":"Feature","geometry":{"type":"Point","coordinates":[-2.7626995,47.6397871]},"properties":{"category":"compressed_air","opening_hours":"24/7","osm_id":6384412457}},{"type":"Feature","geometry":{"type":"Point","coordinates":[-2.7358094,47.6779813]},"properties":{"category":"shop","name":"Cycles Chedaleux Veloland","osm_id":6815738987}},{"type":"Feature","geometry":{"type":"Point","coordinates":[-2.7211227,47.6509348]},"properties":{"category":"shop","name":"CyclExperts","phone":"+33 2 97 01 00 74","website":"https://www.facebook.com/Cyclexperts-VannesS%C3%A9n%C3%A9-596589100692816/","osm_id":6861306342}},{"type":"Feature","geometry":{"type":"Point","coordinates":[-2.7590176,47.6535412]},"properties":{"category":"repair","opening_hours":"24/7","osm_id":8420021531}},{"type":"Feature","geometry":{"type":"Point","coordinates":[-2.7552342,47.6610654]},"properties":{"category":"shop","name":"Cycles Le Penven","opening_hours":"Tu-Fr 09:00-12:00, 14:00-18:30; Sa 09:00-12:00, 14:00-18:00","phone":"+33297472921","website":"https://www.cycles-lepenven.fr","osm_id":9635509255}},{"type":"Feature","geometry":{"type":"Point","coordinates":[-2.758287,47.6592115]},"properties":{"category":"repair","opening_hours":"24/7","osm_id":10215057047}},{"type":"Feature","geometry":{"type":"Point","coordinates":[-2.7795188,47.6291712]},"properties":{"category":"repair","osm_id":11044059175}},{"type":"Feature","geometry":{"type":"Point","coordinates":[-2.7586291,47.6733077]},"properties":{"category":"repair","osm_id":11054778971}},{"type":"Feature","geometry":{"type":"Point","coordinates":[-2.7812903,47.6639492]},"properties":{"category":"repair","osm_id":11066686080}},{"type":"Feature","geometry":{"type":"Point","coordinates":[-2.7514003,47.6434374]},"properties":{"category":"repair","osm_id":11088765500}},{"type":"Feature","geometry":{"type":"Point","coordinates":[-2.7715168,47.6488298]},"properties":{"category":"repair","osm_id":11853934447}},{"type":"Feature","geometry":{"type":"Point","coordinates":[-2.7589221,47.6543019]},"properties":{"category":"shop","name":"La tête dans le Guidon","opening_hours":"Mo-Sa 09:00-12:30, 14:00-18:00; Su 09:30-11:00, 16:30-18:00","phone":"+33 6 79 92 57 38","website":"https://latetedansleguidon.bzh/","osm_id":11922151622}},{"type":"Feature","geometry":{"type":"Point","coordinates":[-2.789548,47.6646916]},"properties":{"category":"shop","name":"GIANT","osm_id":12051277770}},{"type":"Feature","geometry":{"type":"Point","coordinates":[-2.7306846,47.6587485]},"properties":{"category":"repair","osm_id":12754498268}},{"type":"Feature","geometry":{"type":"Point","coordinates":[-2.744279,47.6507547]},"properties":{"category":"repair","osm_id":12754498269}},{"type":"Feature","geometry":{"type":"Point","coordinates":[-2.7780708,47.6444251]},"properties":{"category":"repair","opening_hours":"24/7","osm_id":12754498270}},{"type":"Feature","geometry":{"type":"Point","coordinates":[-2.7834377,47.6528467]},"properties":{"category":"repair","osm_id":12754498271}},{"type":"Feature","geometry":{"type":"Point","coordinates":[-2.7813762,47.6594983]},"properties":{"category":"repair","osm_id":12754498272}},{"type":"Feature","geometry":{"type":"Point","coordinates":[-2.7696048,47.6703309]},"properties":{"category":"repair","osm_id":12754498273}},{"type":"Feature","geometry":{"type":"Point","coordinates":[-2.7763382,47.6458069]},"properties":{"category":"shop","name":"Vélomotive","opening_hours":"Sa 09:30-12:30; Tu 16:00-19:00","phone":"+33 7 49 66 21 29","website":"https://velomotive.fr/","osm_id":13516675034}}]}