{"type":"FeatureCollection","features":[{"type":"Feature","geometry":{"type":"Point","coordinates":[1.3230721,47.6222505]},"properties":{"category":"bakery","name":"Le Pain Carré","opening_hours":"Mo,Tu,Th-Sa 07:00-13:30,16:00-19:30; We,Su 07:00-13:30","osm_id":5437854348}},{"type":"Feature","geometry":{"type":"Point","coordinates":[1.3227735,47.6230294]},"properties":{"category":"bakery","osm_id":5437856836}},{"type":"Feature","geometry":{"type":"Point","coordinates":[1.3465885,47.6001532]},"properties":{"category":"bakery","name":"Hamet","osm_id":6191671286}},{"type":"Feature","geometry":{"type":"Point","coordinates":[1.3262801,47.6056608]},"properties":{"category":"bakery","name":"Marie Blachère","osm_id":6191723180}},{"type":"Feature","geometry":{"type":"Point","coordinates":[1.3318495,47.6061486]},"properties":{"category":"bakery","osm_id":10840302636}},{"type":"Feature","geometry":{"type":"Point","coordinates":[1.3046744,47.6497398]},"properties":{"category":"repair","osm_id":11862158492}},{"type":"Feature","geometry":{"type":"Point","coordinates":[1.3284613,47.6088009]},"properties":{"category":"bakery","name":"Marie Blachère","osm_id":12416005547}},{"type":"Feature","geometry":{"type":"Point","coordinates":[1.3966012,47.6009438]},"properties":{"category":"bakery","name":"La Fournée Gourmande","opening_hours":"Mo-Su 07:00-13:00; Mo,Th-Sa 16:00-19:00","osm_id":12804699533}}]}