{"type":"FeatureCollection","features":[{"type":"Feature","geometry":{"type":"Point","coordinates":[-0.7141234,47.6282124]},"properties":{"category":"bakery","name":"A&C Bondy","osm_id":4120911493}},{"type":"Feature","geometry":{"type":"Point","coordinates":[-0.7144994,47.6277109]},"properties":{"category":"bakery","name":"Le Festin du Lion","osm_id":4120911495}},{"type":"Feature","geometry":{"type":"Point","coordinates":[-0.7115761,47.6201135]},"properties":{"category":"bakery","osm_id":4207860526}},{"type":"Feature","geometry":{"type":"Point","coordinates":[-0.73999,47.6824858]},"properties":{"category":"bakery","name":"Soleil Levain","opening_hours":"Tu 16:00-20:00; Sa 16:00-18:00","osm_id":5467248432}},{"type":"Feature","geometry":{"type":"Point","coordinates":[-0.7109774,47.614563]},"properties":{"category":"shop","name":"CYCLES PLEIN AIR","osm_id":13330153901}}]}