{"type":"FeatureCollection","features":[{"type":"Feature","geometry":{"type":"Point","coordinates":[6.8567388,47.6312336]},"properties":{"category":"bakery","osm_id":295698021}},{"type":"Feature","geometry":{"type":"Point","coordinates":[6.8569259,47.6369766]},"properties":{"category":"bakery","name":"Les Artisans du Pain","osm_id":995735200}},{"type":"Feature","geometry":{"type":"Point","coordinates":[6.8435999,47.6457491]},"properties":{"category":"shop","name":"Parco Cycles","website":"https://parcocycles.com","osm_id":1078583071}},{"type":"Feature","geometry":{"type":"Point","coordinates":[6.8573495,47.634666]},"properties":{"category":"bakery","name":"Chassard","osm_id":1671711907}},{"type":"Feature","geometry":{"type":"Point","coordinates":[6.844874,47.6357268]},"properties":{"category":"bakery","name":"Le Monde du Pain","opening_hours":"Mo-Sa 06:00-20:00; Su 07:00-13:00","osm_id":2510829163}},{"type":"Feature","geometry":{"type":"Point","coordinates":[6.8425506,47.6367885]},"properties":{"category":"bakery","name":"Vincent","opening_hours":"Mo-Fr 06:00-13:00,15:30-19:00; Sa 06:30-12:30","osm_id":2601926085}},{"type":"Feature","geometry":{"type":"Point","coordinates":[6.8430169,47.630994]},"properties":{"category":"shop","name":"Le Maillon Solidaire","opening_hours":"Tu 14:00-18:30; Sa 09:00-12:00","phone":"+33 7 83 84 34 52","osm_id":2942312001}},{"type":"Feature","geometry":{"type":"Point","coordinates":[6.8952037,47.6531462]},"properties":{"category":"bakery","name":"Au Fournil de Denney","osm_id":3441421600}},{"type":"Feature","geometry":{"type":"Point","coordinates":[6.8611151,47.6308551]},"properties":{"category":"shop","name":"Cycles Leicht-Reverdy","opening_hours":"Mo-Fr 09:30-12:00,14:00-18:30; Sa 09:00-12:00,14:00-18:00","phone":"+33 9 81 17 57 11","website":"https://www.velos-mulhouse.fr/","osm_id":4351423970}},{"type":"Feature","geometry":{"type":"Point","coordinates":[6.8637873,47.6563019]},"properties":{"category":"bakery","name":"C et D Chassard","phone":"+33384262941","osm_id":4485584550}},{"type":"Feature","geometry":{"type":"Point","coordinates":[6.8642952,47.6379425]},"properties":{"category":"bakery","name":"Terroir des pains","opening_hours":"Mo-Fr 07:00-18:45; Sa 07:00-17:45","osm_id":4574012334}},{"type":"Feature","geometry":{"type":"Point","coordinates":[6.8574281,47.6375937]},"properties":{"category":"bakery","name":"La Mie Câline","opening_hours":"Mo-Fr 06:30-19:30; Sa,Su 07:00-19:30","osm_id":5231028739}},{"type":"Feature","geometry":{"type":"Point","coordinates":[6.8555318,47.6367341]},"properties":{"category":"bakery","name":"Caput","osm_id":5231043114}},{"type":"Feature","geometry":{"type":"Point","coordinates":[6.8599507,47.6381096]},"properties":{"category":"bakery","name":"Caput","opening_hours":"Mo-Sa 06:30-19:00","osm_id":5231118449}},{"type":"Feature","geometry":{"type":"Point","coordinates":[6.8342766,47.6208615]},"properties":{"category":"bakery","name":"Caput","osm_id":5592999880}},{"type":"Feature","geometry":{"type":"Point","coordinates":[6.8328819,47.6197695]},"properties":{"category":"bakery","name":"Demeusy","osm_id":5592999889}},{"type":"Feature","geometry":{"type":"Point","coordinates":[6.8377403,47.6360239]},"properties":{"category":"bakery","name":"Boulangerie Kennedy","opening_hours":"Mo-Sa 06:00-19:00","osm_id":5597320788}},{"type":"Feature","geometry":{"type":"Point","coordinates":[6.8495679,47.6227309]},"properties":{"category":"bakery","osm_id":5597335019}},{"type":"Feature","geometry":{"type":"Point","coordinates":[6.8510793,47.6517476]},"properties":{"category":"bakery","name":"Au Péché Mignon","opening_hours":"Tu-Sa 06:00-19:00; Su 06:30-13:30","osm_id":5618002717}},{"type":"Feature","geometry":{"type":"Point","coordinates":[6.8594196,47.6149729]},"properties":{"category":"shop","name":"Cycle 90","osm_id":5618084110}},{"type":"Feature","geometry":{"type":"Point","coordinates":[6.8649074,47.6293851]},"properties":{"category":"bakery","name":"Boulangerie Ange","osm_id":5670123646}},{"type":"Feature","geometry":{"type":"Point","coordinates":[6.8416527,47.6406624]},"properties":{"category":"bakery","name":"Boulangerie Pâtisserie Demeusy","opening_hours":"Mo-Fr 06:00-19:00; Sa 06:30-18:00","osm_id":5683521393}},{"type":"Feature","geometry":{"type":"Point","coordinates":[6.8372324,47.640488]},"properties":{"category":"bakery","name":"Maison Paquier","opening_hours":"Tu-Fr 06:00-13:30,15:30-19:30; Sa 06:30-13:30,15:30-19:30; Su 06:30-12:00","osm_id":5695189445}},{"type":"Feature","geometry":{"type":"Point","coordinates":[6.8612355,47.6075808]},"properties":{"category":"shop","name":"Giant","osm_id":5700353369}},{"type":"Feature","geometry":{"type":"Point","coordinates":[6.8595539,47.6045984]},"properties":{"category":"bakery","name":"Caput","osm_id":5700353405}},{"type":"Feature","geometry":{"type":"Point","coordinates":[6.8307233,47.6534697]},"properties":{"category":"bakery","name":"Au Plaisir du Pain","osm_id":5703234462}},{"type":"Feature","geometry":{"type":"Point","coordinates":[6.8635567,47.6389168]},"properties":{"category":"bakery","name":"Patisserie L. François","osm_id":6537154082}},{"type":"Feature","geometry":{"type":"Point","coordinates":[6.8003483,47.6770192]},"properties":{"category":"bakery","name":"Le Four d'Antan","osm_id":7334131615}},{"type":"Feature","geometry":{"type":"Point","coordinates":[6.8516654,47.651131]},"properties":{"category":"bakery","name":"Lescuyer","opening_hours":"Tu-Fr 06:30-12:30,15:00-18:00; Sa 07:00-12:30; Su 06:30-12:30","osm_id":8464020211}},{"type":"Feature","geometry":{"type":"Point","coordinates":[6.8463121,47.6647202]},"properties":{"category":"bakery","name":"La Rosemontoise","osm_id":8479436217}},{"type":"Feature","geometry":{"type":"Point","coordinates":[6.816615,47.6343268]},"properties":{"category":"bakery","name":"L'Artisan du Pain","osm_id":8526124857}},{"type":"Feature","geometry":{"type":"Point","coordinates":[6.8255675,47.6337794]},"properties":{"category":"bakery","name":"Le Pain Antique","osm_id":8526209095}},{"type":"Feature","geometry":{"type":"Point","coordinates":[6.8375199,47.6364765]},"properties":{"category":"compressed_air","osm_id":8528944070}},{"type":"Feature","geometry":{"type":"Point","coordinates":[6.8548753,47.6469556]},"properties":{"category":"bakery","name":"L'épi D'argent","opening_hours":"Mo-Tu 06:30-19:00; Th-Fr 06:30-19:00; Sa 06:30-16:00; Su 06:30-12:00","phone":"+33 3 84 23 79 80","website":"https://www.epidargent.fr/","osm_id":8558436566}},{"type":"Feature","geometry":{"type":"Point","coordinates":[6.8528533,47.6497311]},"properties":{"category":"bakery","name":"La Gourmandine","opening_hours":"Mo-Sa 07:35-12:55,15:00-19:00","osm_id":8558485167}},{"type":"Feature","geometry":{"type":"Point","coordinates":[6.8420681,47.6640804]},"properties":{"category":"bakery","name":"Mantey","phone":"+33 3 84 26 09 14","osm_id":8561992462}},{"type":"Feature","geometry":{"type":"Point","coordinates":[6.8420577,47.6704567]},"properties":{"category":"bakery","name":"Maison Demeusy","osm_id":8627138676}},{"type":"Feature","geometry":{"type":"Point","coordinates":[6.8587151,47.626328]},"properties":{"category":"bakery","name":"Marie Blachère","opening_hours":"Mo-Sa 06:30-19:30","osm_id":9375791985}},{"type":"Feature","geometry":{"type":"Point","coordinates":[6.8651283,47.6391982]},"properties":{"category":"shop","name":"Velodom","opening_hours":"Mo-Su 08:30-18:30","phone":"+33 6 85 32 89 63","osm_id":9575511790}},{"type":"Feature","geometry":{"type":"Point","coordinates":[6.8587621,47.6362336]},"properties":{"category":"compressed_air","opening_hours":"24/7","osm_id":9627315148}},{"type":"Feature","geometry":{"type":"Point","coordinates":[6.8573091,47.6397215]},"properties":{"category":"repair","osm_id":9884416019}},{"type":"Feature","geometry":{"type":"Point","coordinates":[6.8553595,47.653294]},"properties":{"category":"repair","opening_hours":"24/7","osm_id":10242021142}},{"type":"Feature","geometry":{"type":"Point","coordinates":[6.8456339,47.6569998]},"properties":{"category":"bakery","osm_id":10797418806}},{"type":"Feature","geometry":{"type":"Point","coordinates":[6.8436021,47.6726031]},"properties":{"category":"bakery","name":"Michotte & Confiote","opening_hours":"Tu, Fr 17:00-19:00","phone":"+33766618778","website":"https://www.michotte-confiote.fr/","osm_id":10830407385}},{"type":"Feature","geometry":{"type":"Point","coordinates":[6.8563051,47.6341697]},"properties":{"category":"bakery","name":"aux notes de gourmandise","osm_id":11099214029}},{"type":"Feature","geometry":{"type":"Point","coordinates":[6.8563399,47.6440631]},"properties":{"category":"shop","name":"sur 2 roues","osm_id":11099229645}},{"type":"Feature","geometry":{"type":"Point","coordinates":[6.8700269,47.6509367]},"properties":{"category":"repair","osm_id":11125499474}},{"type":"Feature","geometry":{"type":"Point","coordinates":[6.839807,47.6369039]},"properties":{"category":"compressed_air","osm_id":11181569433}},{"type":"Feature","geometry":{"type":"Point","coordinates":[6.8450065,47.6433405]},"properties":{"category":"repair","osm_id":12045527118}},{"type":"Feature","geometry":{"type":"Point","coordinates":[6.8594815,47.6080161]},"properties":{"category":"bakery","name":"Poulaillon","opening_hours":"Mo-Sa 06:00-19:00; Su 06:00-14:00","phone":"+33 3 84 36 51 60","osm_id":12080282226}},{"type":"Feature","geometry":{"type":"Point","coordinates":[6.8919281,47.6368503]},"properties":{"category":"bakery","name":"Demeusy","osm_id":12829170244}},{"type":"Feature","geometry":{"type":"Point","coordinates":[6.8165732,47.6331513]},"properties":{"category":"bakery","osm_id":12861210942}},{"type":"Feature","geometry":{"type":"Point","coordinates":[6.8754576,47.6389048]},"properties":{"category":"bakery","name":"Le Fournil du Glacis","osm_id":13371634911}},{"type":"Feature","geometry":{"type":"Point","coordinates":[6.8609914,47.6147107]},"properties":{"category":"bakery","name":"Chez Célia et Loïc","osm_id":13639257148}},{"type":"Feature","geometry":{"type":"Point","coordinates":[6.8349592,47.6931582]},"properties":{"category":"bakery","name":"Boulangerie Liblin","opening_hours":"Tu-Sa 06:30-13:00; Su 07:00-13:00","osm_id":13717094901}},{"type":"Feature","geometry":{"type":"Point","coordinates":[6.8349592,47.6931582]},"properties":{"category":"bakery","name":"Boulangerie Liblin","opening_hours":"Tu-Sa 06:30-13:00; Su 07:00-13:00","phone":"+33 3 84 29 27 37","osm_id":13717098101}},{"type":"Feature","geometry":{"type":"Point","coordinates":[6.8507596,47.633533]},"properties":{"category":"bakery","opening_hours":"Mo-Fr 07:00-14:00; We off; Sa,Su 07:30-12:00","phone":"+33 3 84 99 33 07","osm_id":13918513585}}]}