{"type":"FeatureCollection","features":[{"type":"Feature","geometry":{"type":"Point","coordinates":[-3.0717772,47.6505015]},"properties":{"category":"bakery","name":"Au Fournil De Ploemel","osm_id":3496931482}},{"type":"Feature","geometry":{"type":"Point","coordinates":[-3.0008329,47.6162149]},"properties":{"category":"bakery","name":"Maison Gauder","osm_id":5817753604}},{"type":"Feature","geometry":{"type":"Point","coordinates":[-3.0486003,47.6381395]},"properties":{"category":"bakery","name":"Ma Boulangerie","osm_id":6655076318}},{"type":"Feature","geometry":{"type":"Point","coordinates":[-3.0403822,47.6666587]},"properties":{"category":"bakery","name":"La P'tite Boulange","osm_id":7252139173}},{"type":"Feature","geometry":{"type":"Point","coordinates":[-3.029579,47.6662946]},"properties":{"category":"tube_vending","osm_id":7591811482}},{"type":"Feature","geometry":{"type":"Point","coordinates":[-3.0052718,47.6651403]},"properties":{"category":"compressed_air","osm_id":10215057049}},{"type":"Feature","geometry":{"type":"Point","coordinates":[-3.005686,47.6624587]},"properties":{"category":"compressed_air","osm_id":10215057050}}]}