{"type":"FeatureCollection","features":[{"type":"Feature","geometry":{"type":"Point","coordinates":[6.1549822,47.6205839]},"properties":{"category":"bakery","name":"La Mie Câline","opening_hours":"PH,Mo-Su 07:00-19:00; Dec 24,25,31 07:00-17:15","phone":"+33 3 84 76 32 03","website":"https://www.lamiecaline.com/boutiques/vesoul/","osm_id":5212476775}},{"type":"Feature","geometry":{"type":"Point","coordinates":[6.1578612,47.6225195]},"properties":{"category":"bakery","name":"Au Four a Pain","osm_id":5212491624}},{"type":"Feature","geometry":{"type":"Point","coordinates":[6.158036,47.6219871]},"properties":{"category":"bakery","name":"Les douceurs de Noémie","osm_id":5212491628}},{"type":"Feature","geometry":{"type":"Point","coordinates":[6.1591729,47.6227237]},"properties":{"category":"bakery","name":"Mourey","osm_id":5212491630}},{"type":"Feature","geometry":{"type":"Point","coordinates":[6.1404104,47.6214353]},"properties":{"category":"bakery","name":"Au pain d'Elodie","osm_id":6558457756}},{"type":"Feature","geometry":{"type":"Point","coordinates":[6.1701698,47.6384765]},"properties":{"category":"bakery","osm_id":7379960995}},{"type":"Feature","geometry":{"type":"Point","coordinates":[6.1504999,47.6126275]},"properties":{"category":"bakery","osm_id":7411322461}},{"type":"Feature","geometry":{"type":"Point","coordinates":[6.1507636,47.6133289]},"properties":{"category":"bakery","name":"Boulangerie Salon de thé","osm_id":7411322464}},{"type":"Feature","geometry":{"type":"Point","coordinates":[6.1526928,47.6158917]},"properties":{"category":"bakery","name":"O Malo","osm_id":7411826327}},{"type":"Feature","geometry":{"type":"Point","coordinates":[6.1566735,47.6223303]},"properties":{"category":"bakery","name":"Pain Comtois","osm_id":7658006651}},{"type":"Feature","geometry":{"type":"Point","coordinates":[6.1428931,47.6477462]},"properties":{"category":"bakery","name":"Marie Blachère","opening_hours":"Mo-Sa 07:00-19:30","phone":"+33 3 84 68 83 66","website":"https://boulangeries.marieblachere.com/fr/france-FR/5400/marie-blachere-pusey/details","osm_id":8541279299}},{"type":"Feature","geometry":{"type":"Point","coordinates":[6.1522283,47.6367412]},"properties":{"category":"shop","name":"Giant","osm_id":9010682828}},{"type":"Feature","geometry":{"type":"Point","coordinates":[6.1275573,47.6517851]},"properties":{"category":"bakery","name":"Du Pain à la Gourmandise","opening_hours":"Tu-Sa 06:00-19:00; Su 06:00-14:00; Mo off","osm_id":11310567405}},{"type":"Feature","geometry":{"type":"Point","coordinates":[6.1441542,47.6198878]},"properties":{"category":"bakery","name":"Boulangerie J&L Courtois","opening_hours":"Mo-Fr 06:30-19:00; Sa 06:30-18:00; PH,Su off","phone":"+33 3 84 96 02 43","website":"https://boulangerie-courtois.fr","osm_id":11483370284}},{"type":"Feature","geometry":{"type":"Point","coordinates":[6.1387397,47.6482782]},"properties":{"category":"shop","name":"Vélo Passion 70","osm_id":11789596092}},{"type":"Feature","geometry":{"type":"Point","coordinates":[6.1849447,47.6203802]},"properties":{"category":"bakery","name":"Dolci","phone":"+33 3 84 75 11 21","osm_id":12404461388}},{"type":"Feature","geometry":{"type":"Point","coordinates":[6.1859625,47.6117757]},"properties":{"category":"bakery","osm_id":12588668838}},{"type":"Feature","geometry":{"type":"Point","coordinates":[6.1429617,47.6410699]},"properties":{"category":"bakery","name":"Nico Boulangerie","osm_id":12994014046}},{"type":"Feature","geometry":{"type":"Point","coordinates":[6.1455456,47.6394855]},"properties":{"category":"bakery","name":"Marie Blachère","opening_hours":"Mo-Sa 07:00-20:00","phone":"+33 3 70 57 17 18","website":"https://boulangeries.marieblachere.com/fr/france-FR/7268/marie-blachere-vesoul/details","osm_id":14073218728}}]}