{"type":"FeatureCollection","features":[{"type":"Feature","geometry":{"type":"Point","coordinates":[1.4070002,47.6398417]},"properties":{"category":"bakery","name":"La Favorite","opening_hours":"Mo-Fr 06:30-19:30","osm_id":2297016605}},{"type":"Feature","geometry":{"type":"Point","coordinates":[1.4185497,47.6143614]},"properties":{"category":"bakery","osm_id":2308693185}},{"type":"Feature","geometry":{"type":"Point","coordinates":[1.4876718,47.6555323]},"properties":{"category":"bakery","name":"Mon p'tit Charles","opening_hours":"Tu-Sa 07:00-13:00, 15:30-19:00; Su 07:00-12:30","osm_id":3143907293}},{"type":"Feature","geometry":{"type":"Point","coordinates":[1.4815339,47.6312503]},"properties":{"category":"bakery","name":"Le Pain des Rois","opening_hours":"Mo-Su 06:00-13:30,16:15-19:00","phone":"+33 2 34 89 04 27","osm_id":8569413209}},{"type":"Feature","geometry":{"type":"Point","coordinates":[1.4877583,47.6550052]},"properties":{"category":"repair","osm_id":9407578406}},{"type":"Feature","geometry":{"type":"Point","coordinates":[1.460722,47.6668452]},"properties":{"category":"bakery","osm_id":9917383206}},{"type":"Feature","geometry":{"type":"Point","coordinates":[1.4074062,47.6351691]},"properties":{"category":"repair","osm_id":13091929622}},{"type":"Feature","geometry":{"type":"Point","coordinates":[1.4872702,47.6682617]},"properties":{"category":"repair","osm_id":13159809203}}]}