{"type":"FeatureCollection","features":[{"type":"Feature","geometry":{"type":"Point","coordinates":[3.7339244,47.6639272]},"properties":{"category":"bakery","name":"Alchi'mie","opening_hours":"Mo 06:30-13:00,15:30-18:30; Tu 06:30-13:00; Th-Fr 06:30-13:00,15:30-18:30; Sa 06:30-13:00; Su 07:00-12:00","phone":"+33 3 58 43 33 72","osm_id":11104106348}},{"type":"Feature","geometry":{"type":"Point","coordinates":[3.7579123,47.6028319]},"properties":{"category":"shop","name":"Art'Cycle","osm_id":12164312894}}]}