{"type":"FeatureCollection","features":[{"type":"Feature","geometry":{"type":"Point","coordinates":[7.5243758,47.65253]},"properties":{"category":"shop","name":"Rhin & Découverte","opening_hours":"Mo, Tu, Th-Su 12:00-13:30, 19:00-22:00","phone":"+33 6 87 10 71 19","website":"https://rhinetdecouverte.com/","osm_id":1500635747}},{"type":"Feature","geometry":{"type":"Point","coordinates":[7.5686122,47.6090713]},"properties":{"category":"shop","name":"Peugeot Cycle","osm_id":2027194101}},{"type":"Feature","geometry":{"type":"Point","coordinates":[7.5039998,47.6855905]},"properties":{"category":"shop","name":"Velotop","opening_hours":"Tu-We, Fr 09:00-12:00, 14:00-18:30; Th 14:30-18:30; Sa 09:00-17:00","phone":"+33 3 89 62 98 26","website":"https://www.velotop-kembs.fr/","osm_id":5878574701}},{"type":"Feature","geometry":{"type":"Point","coordinates":[7.5443956,47.603929]},"properties":{"category":"shop","name":"A.T. Cycles 3 frontières","opening_hours":"Tu-Fr 10:00-19:00; Sa 10:00-18:00","phone":"+33389913552","website":"https://www.at-cycles.eu","osm_id":9124456421}},{"type":"Feature","geometry":{"type":"Point","coordinates":[7.5076055,47.6871303]},"properties":{"category":"repair","name":"Auberge de la peniche","opening_hours":"Mo-Su 12:00-12:00","osm_id":9947148530}},{"type":"Feature","geometry":{"type":"Point","coordinates":[7.5462893,47.6200204]},"properties":{"category":"repair","osm_id":13041714496}}]}