{"type":"FeatureCollection","features":[{"type":"Feature","geometry":{"type":"Point","coordinates":[-0.867998,47.6851661]},"properties":{"category":"shop","name":"100 % Vélo","opening_hours":"Mo-Sa 09:00-12:00,14:00-19:00; Sa 18:00-19:00 closed","osm_id":5846643576}},{"type":"Feature","geometry":{"type":"Point","coordinates":[-0.8931623,47.617203]},"properties":{"category":"bakery","name":"Du Moulin au Pétrin","opening_hours":"Mo-Fr 07:00-13:00,15:30-19:00; We off; Sa 07:00-13:00; Su 07:30-13:00","osm_id":5885109053}},{"type":"Feature","geometry":{"type":"Point","coordinates":[-0.8709289,47.6969838]},"properties":{"category":"compressed_air","osm_id":6759697922}},{"type":"Feature","geometry":{"type":"Point","coordinates":[-0.8342884,47.6005594]},"properties":{"category":"bakery","name":"Les Enfants du coin","opening_hours":"Mo-Fr 06:30-13:30,15:30-19:00; We off; Sa 07:00-13:30; Su 07:00-13:00","osm_id":10860722891}},{"type":"Feature","geometry":{"type":"Point","coordinates":[-0.865948,47.6976114]},"properties":{"category":"bakery","name":"Le Fournil Gustave","osm_id":11085978960}},{"type":"Feature","geometry":{"type":"Point","coordinates":[-0.8685261,47.679258]},"properties":{"category":"bakery","name":"Le Fournil de Marguerite","opening_hours":"Mo-Tu 07:00-13:30,15:30-19:00; Th-Sa 07:00-13:30,15:30-19:00; Su 07:00-13:00","phone":"+33 9 79 44 57 24","website":"https://www.franceboulangerie.fr/boulangeries/le-fournil-de-marguerite","osm_id":11273631950}},{"type":"Feature","geometry":{"type":"Point","coordinates":[-0.8709843,47.685359]},"properties":{"category":"bakery","name":"K & M","osm_id":13017738289}}]}