{"type":"FeatureCollection","features":[{"type":"Feature","geometry":{"type":"Point","coordinates":[1.9259025,47.6653088]},"properties":{"category":"bakery","name":"Maison Pradier","opening_hours":"Mo-Su,PH 07:00-22:00","osm_id":7308705086}},{"type":"Feature","geometry":{"type":"Point","coordinates":[1.935987,47.6204777]},"properties":{"category":"bakery","name":"Paul","opening_hours":"Mo,Fr,Sa 07:30-20:00; Tu-Th,Su 07:30-19:00","phone":"+33 2 54 95 10 00","website":"https://www.paul.fr/stores/center_parc_chaumont","osm_id":8901096683}},{"type":"Feature","geometry":{"type":"Point","coordinates":[1.90483,47.6113199]},"properties":{"category":"bakery","osm_id":11782639807}}]}