{"type":"FeatureCollection","features":[{"type":"Feature","geometry":{"type":"Point","coordinates":[-3.5259065,47.7711973]},"properties":{"category":"bakery","name":"Chez Julie","phone":"+33 2 97 56 26 68","osm_id":8931945564}},{"type":"Feature","geometry":{"type":"Point","coordinates":[-3.5498238,47.766166]},"properties":{"category":"repair","osm_id":10927030282}},{"type":"Feature","geometry":{"type":"Point","coordinates":[-3.5467185,47.7667582]},"properties":{"category":"shop","name":"AP Breton","osm_id":10927030286}},{"type":"Feature","geometry":{"type":"Point","coordinates":[-3.5443502,47.768609]},"properties":{"category":"bakery","osm_id":12062750634}},{"type":"Feature","geometry":{"type":"Point","coordinates":[-3.5261433,47.7720342]},"properties":{"category":"repair","osm_id":12723124186}}]}