{"type":"FeatureCollection","features":[{"type":"Feature","geometry":{"type":"Point","coordinates":[7.1175033,47.799246]},"properties":{"category":"shop","name":"Cycles Mannheim","opening_hours":"Tu-Fr 09:00-12:00,14:00-19:00; Sa 09:00-12:00,14:00-17:00","phone":"+33 3 89 37 11 23","website":"https://www.cyclesmannheim.com/","osm_id":3138774826}},{"type":"Feature","geometry":{"type":"Point","coordinates":[7.1532188,47.7581342]},"properties":{"category":"bakery","name":"Kiefer","osm_id":5212227040}},{"type":"Feature","geometry":{"type":"Point","coordinates":[7.1604754,47.7182438]},"properties":{"category":"bakery","name":"Boulangerie Jeanne d'Arc","opening_hours":"Tu-Sa 06:30-12:30; Su 07:00-12:00; Tu, Th, Fr 15:30-19:30","osm_id":6537032262}},{"type":"Feature","geometry":{"type":"Point","coordinates":[7.1718467,47.7952469]},"properties":{"category":"bakery","name":"Le Fournil de Papoupa","opening_hours":"Mo-Fr 06:00-19:00; Sa 06:00-18:00","phone":"+33 3 89 39 22 40","osm_id":6639973382}},{"type":"Feature","geometry":{"type":"Point","coordinates":[7.1175137,47.7992203]},"properties":{"category":"shop","name":"Mannheim cycles","osm_id":11596296728}}]}