{"type":"FeatureCollection","features":[{"type":"Feature","geometry":{"type":"Point","coordinates":[-0.0988565,47.7650732]},"properties":{"category":"bakery","name":"La Villainnaise","opening_hours":"Tu-Sa 07:00-13:00,15:30-19:00; Su 07:00-13:00","osm_id":1935793538}},{"type":"Feature","geometry":{"type":"Point","coordinates":[-0.0147927,47.7180672]},"properties":{"category":"bakery","name":"Le Pain Boulanger","osm_id":4378899876}},{"type":"Feature","geometry":{"type":"Point","coordinates":[-0.0724796,47.7005014]},"properties":{"category":"bakery","name":"Gasnot","osm_id":7716823685}},{"type":"Feature","geometry":{"type":"Point","coordinates":[-0.0920691,47.7015959]},"properties":{"category":"compressed_air","osm_id":9811070418}}]}