{"type":"FeatureCollection","features":[{"type":"Feature","geometry":{"type":"Point","coordinates":[-3.4140457,47.7896232]},"properties":{"category":"bakery","name":"Mylène et Mickaël le Nézet","osm_id":2194569304}},{"type":"Feature","geometry":{"type":"Point","coordinates":[-3.4279866,47.7362767]},"properties":{"category":"bakery","name":"Boulangerie Patisserie","opening_hours":"Tu-Sa 06:45-19:30; Su 06:45-14:00,15:30-19:00","phone":"+33 2 97862848","osm_id":3250182562}},{"type":"Feature","geometry":{"type":"Point","coordinates":[-3.4293719,47.7349867]},"properties":{"category":"bakery","name":"Viallard La Boutique à Pains","osm_id":3271076968}},{"type":"Feature","geometry":{"type":"Point","coordinates":[-3.4284449,47.7363883]},"properties":{"category":"bakery","name":"Le Ster","osm_id":3271076969}},{"type":"Feature","geometry":{"type":"Point","coordinates":[-3.4270736,47.7361612]},"properties":{"category":"bakery","name":"Maison Crespin","opening_hours":"Mo-Sa 07:00-19:00; Su 07:00-13:30","phone":"+33 2 97 86 33 16","website":"https://www.maison-crespin.fr/","osm_id":3274346347}},{"type":"Feature","geometry":{"type":"Point","coordinates":[-3.4277345,47.7361344]},"properties":{"category":"bakery","name":"Françoise et Pascal DREAN","osm_id":3966539202}},{"type":"Feature","geometry":{"type":"Point","coordinates":[-3.4529461,47.7027989]},"properties":{"category":"bakery","name":"Boulangerie de Kerroch","osm_id":3982018283}},{"type":"Feature","geometry":{"type":"Point","coordinates":[-3.4222854,47.7329385]},"properties":{"category":"compressed_air","osm_id":3985240029}},{"type":"Feature","geometry":{"type":"Point","coordinates":[-3.4023741,47.7672242]},"properties":{"category":"bakery","name":"L.B Frères","osm_id":5425591846}},{"type":"Feature","geometry":{"type":"Point","coordinates":[-3.4024778,47.7666487]},"properties":{"category":"shop","name":"VeloandCo","opening_hours":"Tu-Fr 09:30-12:15,14:00-19:00; Sa 09:30-12:30,13:30-18:00","phone":"+33 2 97 35 36 34","website":"https://www.veloandco.fr/magasins","osm_id":6502551164}},{"type":"Feature","geometry":{"type":"Point","coordinates":[-3.4158891,47.7878923]},"properties":{"category":"bakery","name":"Brenner","osm_id":9485613748}},{"type":"Feature","geometry":{"type":"Point","coordinates":[-3.4158415,47.7872255]},"properties":{"category":"bakery","name":"Les Fréros Seb et Nico","osm_id":9485613787}},{"type":"Feature","geometry":{"type":"Point","coordinates":[-3.4889051,47.7885542]},"properties":{"category":"bakery","name":"Boulangerie Barbotin","opening_hours":"Mo-Sa 06:30-19:30","phone":"+33 2 97 65 32 37","website":"https://www.boulangeriebarbotin.fr/","osm_id":10939098905}},{"type":"Feature","geometry":{"type":"Point","coordinates":[-3.4990362,47.7348016]},"properties":{"category":"bakery","name":"Le Fournil de Fort-Bloqué","osm_id":11057055268}},{"type":"Feature","geometry":{"type":"Point","coordinates":[-3.4321852,47.7036952]},"properties":{"category":"bakery","name":"Nathalie & Mikael Robins","opening_hours":"PH,Mo-Su 07:00-20:00","osm_id":11063747150}},{"type":"Feature","geometry":{"type":"Point","coordinates":[-3.4862334,47.7881665]},"properties":{"category":"repair","osm_id":12719091451}},{"type":"Feature","geometry":{"type":"Point","coordinates":[-3.4139378,47.7901413]},"properties":{"category":"repair","opening_hours":"24/7","osm_id":12860586264}},{"type":"Feature","geometry":{"type":"Point","coordinates":[-3.425431,47.7911]},"properties":{"category":"repair","opening_hours":"24/7","osm_id":13081260998}},{"type":"Feature","geometry":{"type":"Point","coordinates":[-3.4343571,47.750044]},"properties":{"category":"repair","opening_hours":"24/7","osm_id":13142986226}}]}