{"type":"FeatureCollection","features":[{"type":"Feature","geometry":{"type":"Point","coordinates":[-1.0548231,47.7940414]},"properties":{"category":"bakery","name":"Lalande","osm_id":1251367554}},{"type":"Feature","geometry":{"type":"Point","coordinates":[-1.0575562,47.7944132]},"properties":{"category":"bakery","name":"Heris","osm_id":2195689240}},{"type":"Feature","geometry":{"type":"Point","coordinates":[-1.0555332,47.7941769]},"properties":{"category":"bakery","name":"Chantreuil","osm_id":2643588066}}]}