{"type":"FeatureCollection","features":[{"type":"Feature","geometry":{"type":"Point","coordinates":[1.6311104,47.7771063]},"properties":{"category":"bakery","name":"La Panetière","opening_hours":"Tu-Sa 06:30-19:30; Su 07:00-14:00","osm_id":1970861304}},{"type":"Feature","geometry":{"type":"Point","coordinates":[1.6151049,47.7572446]},"properties":{"category":"bakery","name":"Boulangerie Patisserie","opening_hours":"Tu-Fr 07:00-13:30, 15:30-19:30; Sa 07:30-13:30, 15:30-19:30; Su 07:30-13:00","phone":"+33 2 38 82 03 36","osm_id":2904438856}},{"type":"Feature","geometry":{"type":"Point","coordinates":[1.6158815,47.7703908]},"properties":{"category":"bakery","name":"ma boulange","osm_id":10246470263}},{"type":"Feature","geometry":{"type":"Point","coordinates":[1.6103769,47.7671919]},"properties":{"category":"bakery","name":"Epiane","osm_id":11061288474}},{"type":"Feature","geometry":{"type":"Point","coordinates":[1.623157,47.774986]},"properties":{"category":"bakery","name":"Ma Boulangerie","opening_hours":"Tu-Sa 06:30-20:00; Su 07:00-19:00","phone":"+33 2 38 24 78 70","website":"https://www.ma-boulangerie-cafe.fr/","osm_id":11684680506}},{"type":"Feature","geometry":{"type":"Point","coordinates":[1.6367837,47.7795305]},"properties":{"category":"repair","name":"Station de réparation vélo","osm_id":12114421359}},{"type":"Feature","geometry":{"type":"Point","coordinates":[1.6898776,47.7681422]},"properties":{"category":"bakery","osm_id":12180226532}},{"type":"Feature","geometry":{"type":"Point","coordinates":[1.6310513,47.7772087]},"properties":{"category":"bakery","name":"Epiane","osm_id":13228584720}}]}