{"type":"FeatureCollection","features":[{"type":"Feature","geometry":{"type":"Point","coordinates":[-2.2553843,47.7457901]},"properties":{"category":"bakery","name":"Maison Gaillard","osm_id":3700871844}},{"type":"Feature","geometry":{"type":"Point","coordinates":[-2.2168152,47.7134351]},"properties":{"category":"bakery","name":"Fournil Lucas","opening_hours":"Mo-Sa 07:30-13:30","phone":"+33 2 23 10 61 40","website":"http://www.lefournildecharly.fr/","osm_id":5154982221}},{"type":"Feature","geometry":{"type":"Point","coordinates":[-2.2130603,47.7388868]},"properties":{"category":"bakery","name":"Le P'tit Galu","osm_id":5164536889}}]}