{"type":"FeatureCollection","features":[{"type":"Feature","geometry":{"type":"Point","coordinates":[2.3728433,47.7613493]},"properties":{"category":"shop","name":"Passion deux roues","opening_hours":"Mo-Fr 09:00-12:00,14:00-19:00; Sa 09:00-16:30","phone":"+33 6 76 30 40 72;+33 2 38 35 13 13","website":"https://www.tourisme-valdesully.fr/activite/passion-deux-roues-sully-sur-loire/","osm_id":12922926245}},{"type":"Feature","geometry":{"type":"Point","coordinates":[2.37299,47.7676527]},"properties":{"category":"shop","name":"L’Arcatène","opening_hours":"Mo,We-Fr 08:00-12:00,14:00-19:00; Sa 08:00-12:00","phone":"+33 6 09 82 26 59","website":"https://www.musee-helyett-sully.fr/bnb/bnb-2-2","osm_id":13314111027}},{"type":"Feature","geometry":{"type":"Point","coordinates":[2.3753145,47.7800718]},"properties":{"category":"compressed_air","osm_id":13464651814}}]}