{"type":"FeatureCollection","features":[{"type":"Feature","geometry":{"type":"Point","coordinates":[3.6117949,47.7658744]},"properties":{"category":"bakery","name":"Jeandeaux","osm_id":4511311783}},{"type":"Feature","geometry":{"type":"Point","coordinates":[3.6326417,47.7034998]},"properties":{"category":"bakery","name":"Boulangerie Mequinion","phone":"+33 3 86 42 34 08","osm_id":5254301546}},{"type":"Feature","geometry":{"type":"Point","coordinates":[3.6394788,47.7082064]},"properties":{"category":"shop","name":"Cycle Divin","phone":"+33 6 14 96 76 44","osm_id":9124853425}},{"type":"Feature","geometry":{"type":"Point","coordinates":[3.6488636,47.7444899]},"properties":{"category":"bakery","name":"Boulangerie Pâtisserie Paris","osm_id":11238649682}}]}