{"type":"FeatureCollection","features":[{"type":"Feature","geometry":{"type":"Point","coordinates":[7.2664538,47.7376768]},"properties":{"category":"bakery","name":"Boulangerie Stéphane","osm_id":310827660}},{"type":"Feature","geometry":{"type":"Point","coordinates":[7.2270116,47.7275589]},"properties":{"category":"bakery","name":"Christophe Vogel","osm_id":631467929}},{"type":"Feature","geometry":{"type":"Point","coordinates":[7.2843944,47.7366603]},"properties":{"category":"bakery","name":"Boulangerie Poulaillon","opening_hours":"Mo-Fr 06:00-19:00; Sa 06:00-19:30; Su 07:00-14:00","phone":"+33 3 89 45 26 57","website":"https://www.poulaillon.fr","osm_id":3903982870}},{"type":"Feature","geometry":{"type":"Point","coordinates":[7.283191,47.7361306]},"properties":{"category":"shop","name":"Cycles Leicht Reverdy","osm_id":3924209327}},{"type":"Feature","geometry":{"type":"Point","coordinates":[7.2818314,47.7378417]},"properties":{"category":"bakery","name":"Marie Blachère","osm_id":6551259330}},{"type":"Feature","geometry":{"type":"Point","coordinates":[7.2844077,47.778461]},"properties":{"category":"bakery","name":"Landwerlin Patrice","osm_id":6850857656}}]}