{"type":"FeatureCollection","features":[{"type":"Feature","geometry":{"type":"Point","coordinates":[6.8249686,47.7421464]},"properties":{"category":"shop","name":"Giro bike","osm_id":4485554600}},{"type":"Feature","geometry":{"type":"Point","coordinates":[6.8253831,47.7421353]},"properties":{"category":"bakery","name":"Boulangerie du Ballon","opening_hours":"Mo-Fr 06:00-19:00;Sa 06:00-18:30","phone":"+33 3 84 29 30 99","osm_id":4485554605}},{"type":"Feature","geometry":{"type":"Point","coordinates":[6.8271225,47.7405346]},"properties":{"category":"bakery","name":"Haller","osm_id":4485572448}},{"type":"Feature","geometry":{"type":"Point","coordinates":[6.8279716,47.7421849]},"properties":{"category":"bakery","name":"Patrice POCHARD","osm_id":4485572463}},{"type":"Feature","geometry":{"type":"Point","coordinates":[6.8370022,47.7065387]},"properties":{"category":"bakery","name":"Au Tradition'L","osm_id":8617774909}}]}