{"type":"FeatureCollection","features":[{"type":"Feature","geometry":{"type":"Point","coordinates":[0.1919268,47.751861]},"properties":{"category":"bakery","name":"l'Épi d'or","opening_hours":"07:30-13:00; We off","osm_id":11298987073}},{"type":"Feature","geometry":{"type":"Point","coordinates":[0.191967,47.7522333]},"properties":{"category":"bakery","name":"Au bonheur des gourmands","opening_hours":"Mo-Fr 06:00-13:30,15:00-19:30; Tu off; Sa 06:00-19:30; Su 06:30-13:00","phone":"+33 9 82 59 16 22","osm_id":11298987076}},{"type":"Feature","geometry":{"type":"Point","coordinates":[0.1339827,47.7538004]},"properties":{"category":"repair","osm_id":12980289501}},{"type":"Feature","geometry":{"type":"Point","coordinates":[0.1617587,47.7848331]},"properties":{"category":"bakery","osm_id":13419254327}}]}