{"type":"FeatureCollection","features":[{"type":"Feature","geometry":{"type":"Point","coordinates":[7.0187799,47.757051]},"properties":{"category":"bakery","name":"Runser","osm_id":1763837397}},{"type":"Feature","geometry":{"type":"Point","coordinates":[7.0528094,47.7557579]},"properties":{"category":"bakery","name":"Boulangerie Bauer Michel","osm_id":2833612890}},{"type":"Feature","geometry":{"type":"Point","coordinates":[7.0150648,47.71148]},"properties":{"category":"bakery","osm_id":4843420547}},{"type":"Feature","geometry":{"type":"Point","coordinates":[7.0898746,47.7533185]},"properties":{"category":"bakery","name":"Boulangerie Feuerstein","opening_hours":"Mo-Fr 04:30-19:00; We off; Sa 06:00-13:00; Su 07:00-12:00","phone":"+33 3 89 82 41 88","osm_id":8955034637}}]}