{"type":"FeatureCollection","features":[{"type":"Feature","geometry":{"type":"Point","coordinates":[-3.0759845,47.7480451]},"properties":{"category":"bakery","name":"Boulangerie","opening_hours":"Tu-Su 06:30-13:00,16:00-21:00","osm_id":1828712731}},{"type":"Feature","geometry":{"type":"Point","coordinates":[-3.0092686,47.7769689]},"properties":{"category":"bakery","osm_id":2148287563}},{"type":"Feature","geometry":{"type":"Point","coordinates":[-3.00951,47.7764623]},"properties":{"category":"bakery","name":"Boulangerie Tual","osm_id":2148287570}},{"type":"Feature","geometry":{"type":"Point","coordinates":[-3.0103335,47.7757196]},"properties":{"category":"bakery","name":"Des Saveurs De Pains","opening_hours":"Mo-Tu 06:00-13:00,15:00-19:30; Th-Sa 06:00-13:00,15:00-19:30; Su 06:00-13:00,16:00-19:30","phone":"+33 2 97 24 70 75","website":"https://www.dessaveursdepains.com/","osm_id":2148287586}},{"type":"Feature","geometry":{"type":"Point","coordinates":[-3.0093386,47.7166727]},"properties":{"category":"bakery","name":"Des Saveurs De Pains","opening_hours":"Mo-Tu 06:30-20:00; Th-Sa 06:30-20:00; Su 06:30-13:00","phone":"+33 2 97 57 53 13","website":"https://www.dessaveursdepains.com/","osm_id":8846932672}},{"type":"Feature","geometry":{"type":"Point","coordinates":[-3.0003582,47.7211529]},"properties":{"category":"bakery","name":"L'atelier M&S","osm_id":10979418773}}]}