{"type":"FeatureCollection","features":[{"type":"Feature","geometry":{"type":"Point","coordinates":[-2.130749,47.765833]},"properties":{"category":"bakery","name":"Boulangerie Au Pain du Terroir","phone":"+33 2 99 08 12 87","osm_id":3717993823}},{"type":"Feature","geometry":{"type":"Point","coordinates":[-2.1254253,47.7137365]},"properties":{"category":"repair","osm_id":9012691505}},{"type":"Feature","geometry":{"type":"Point","coordinates":[-2.1310447,47.7648494]},"properties":{"category":"bakery","name":"Fournil Lucas","opening_hours":"Mo-Th 06:30-19:00; Fr,Sa 07:00-19:00","phone":"+33 2 23 10 40 99","osm_id":12722630548}}]}