{"type":"FeatureCollection","features":[{"type":"Feature","geometry":{"type":"Point","coordinates":[-2.8363261,47.8866763]},"properties":{"category":"bakery","name":"Boulangerie Deudon","osm_id":725068623}},{"type":"Feature","geometry":{"type":"Point","coordinates":[-2.8349794,47.886155]},"properties":{"category":"bakery","name":"Boulangerie Dréan","osm_id":735743181}},{"type":"Feature","geometry":{"type":"Point","coordinates":[-2.8316086,47.8841923]},"properties":{"category":"bakery","name":"Maison Roussel","osm_id":735743268}},{"type":"Feature","geometry":{"type":"Point","coordinates":[-2.8097917,47.8179323]},"properties":{"category":"bakery","osm_id":4968302758}},{"type":"Feature","geometry":{"type":"Point","coordinates":[-2.8360321,47.8887675]},"properties":{"category":"bakery","name":"Boulangerie Lucas","opening_hours":"Mo-Sa 06:30-19:00","osm_id":11525761353}}]}