{"type":"FeatureCollection","features":[{"type":"Feature","geometry":{"type":"Point","coordinates":[-1.6904591,47.800446]},"properties":{"category":"bakery","name":"Brioche Dorée","opening_hours":"Mo-Su 07:00-21:00","phone":"+33 2 99 43 35 60","website":"https://www.briochedoree.fr/restaurants/489-bain-de-bretagne-aire-de-pommeniac-rn-137","osm_id":266184491}},{"type":"Feature","geometry":{"type":"Point","coordinates":[-1.61145,47.8959309]},"properties":{"category":"bakery","name":"Boulangerie Patisserie","osm_id":1867142453}},{"type":"Feature","geometry":{"type":"Point","coordinates":[-1.6831457,47.8540036]},"properties":{"category":"bakery","name":"Trebara","website":"https://trebara.com/","osm_id":3631966803}},{"type":"Feature","geometry":{"type":"Point","coordinates":[-1.6888052,47.8561142]},"properties":{"category":"bakery","name":"Dagnaud","osm_id":3660542178}},{"type":"Feature","geometry":{"type":"Point","coordinates":[-1.6810797,47.8421748]},"properties":{"category":"bakery","name":"Stéphane et Béatrice Dagnaud","phone":"+33 2 99 43 78 38","osm_id":5121928866}},{"type":"Feature","geometry":{"type":"Point","coordinates":[-1.6800619,47.8418428]},"properties":{"category":"bakery","name":"Géraldine et Ludovic Emeraud","osm_id":5125344421}},{"type":"Feature","geometry":{"type":"Point","coordinates":[-1.6829532,47.8418533]},"properties":{"category":"bakery","name":"Serge Pezzin","opening_hours":"Th off","phone":"+33 2 99 43 81 58","osm_id":5126481135}},{"type":"Feature","geometry":{"type":"Point","coordinates":[-1.6588739,47.8810258]},"properties":{"category":"bakery","osm_id":9097523408}},{"type":"Feature","geometry":{"type":"Point","coordinates":[-1.6832456,47.8610179]},"properties":{"category":"shop","name":"Cyclexperts","osm_id":11736427551}},{"type":"Feature","geometry":{"type":"Point","coordinates":[-1.6852549,47.8872384]},"properties":{"category":"bakery","name":"Boulangerie du Tertre Gris","osm_id":12036154089}}]}