{"type":"FeatureCollection","features":[{"type":"Feature","geometry":{"type":"Point","coordinates":[0.1264476,47.8978377]},"properties":{"category":"bakery","name":"Aux p'tits Délices","opening_hours":"Mo,Th 07:30-13:00,16:00-19:00; Tu,Su 07:30-13:00; Fr,Sa 07:30-13:00,16:00-19:30","phone":"+33 2 43 87 14 04","osm_id":3392226460}},{"type":"Feature","geometry":{"type":"Point","coordinates":[0.1292799,47.8778658]},"properties":{"category":"bakery","name":"Au Gué Moulin","opening_hours":"Mo-Fr 06:30-19:00; Sa 06:45-13:30","phone":"+33 2 43 87 16 43","osm_id":4131349771}},{"type":"Feature","geometry":{"type":"Point","coordinates":[0.1282039,47.8769107]},"properties":{"category":"bakery","name":"Maison Gustave","opening_hours":"Mo-Sa 06:30-19:30; Su 06:30-13:30","phone":"+33 2 43 87 11 02","osm_id":5077585881}},{"type":"Feature","geometry":{"type":"Point","coordinates":[0.1949543,47.8943349]},"properties":{"category":"bakery","name":"Boulangerie Glinche","opening_hours":"Mo-Fr 06:30-19:30; Sa 07:00-19:30; Su 07:30-13:30","phone":"+33 2 43 42 01 16","osm_id":9888616334}},{"type":"Feature","geometry":{"type":"Point","coordinates":[0.1536294,47.8198423]},"properties":{"category":"bakery","name":"Aux P'tits Mitrons Pôlinais","osm_id":10915577765}}]}