{"type":"FeatureCollection","features":[{"type":"Feature","geometry":{"type":"Point","coordinates":[2.3065084,47.8103397]},"properties":{"category":"bakery","opening_hours":"Mo off","osm_id":492894520}},{"type":"Feature","geometry":{"type":"Point","coordinates":[2.3074255,47.8093517]},"properties":{"category":"bakery","opening_hours":"We off","osm_id":492894522}},{"type":"Feature","geometry":{"type":"Point","coordinates":[2.3654253,47.8300964]},"properties":{"category":"bakery","name":"Co'pains de Bray","opening_hours":"Mo-Tu 07:00-13:00, 15:30-19:00; Th-Fr 07:00-13:00, 15:30-19:00; Sa-Su 08:00-13:00","phone":"+33 2 38 35 08 94","osm_id":10098199384}}]}