{"type":"FeatureCollection","features":[{"type":"Feature","geometry":{"type":"Point","coordinates":[6.8548623,47.8859493]},"properties":{"category":"shop","name":"E-BIKE Oxygen","opening_hours":"Mo 10:00-12:30,14:00-18:30; We-Fr 10:00-12:30,14:00-18:30; Sa 09:00-18:30; Su 09:00-13:00,17:00-18:30","phone":"+33 6 82 06 82 26","osm_id":6301289159}},{"type":"Feature","geometry":{"type":"Point","coordinates":[6.8188901,47.8554929]},"properties":{"category":"repair","opening_hours":"24/7","osm_id":12175051127}}]}