{"type":"FeatureCollection","features":[{"type":"Feature","geometry":{"type":"Point","coordinates":[4.0881771,47.8014676]},"properties":{"category":"bakery","name":"Au Fournil de Lézinnes","osm_id":1761202827}},{"type":"Feature","geometry":{"type":"Point","coordinates":[4.0901801,47.8009406]},"properties":{"category":"bakery","name":"La Petrie","osm_id":3946644135}},{"type":"Feature","geometry":{"type":"Point","coordinates":[4.0838593,47.8486459]},"properties":{"category":"bakery","name":"L'Univers Gourmand","opening_hours":"Tu-Sa 06:30-13:00,16:00-19:00; Su 06:30-12:30","website":"https://lunivers-gourmand.fr/","osm_id":11902129489}},{"type":"Feature","geometry":{"type":"Point","coordinates":[4.0136051,47.8477658]},"properties":{"category":"bakery","name":"L'Univers Gourmand","opening_hours":"Mo-Sa 06:00-19:00","website":"https://lunivers-gourmand.fr/","osm_id":11902129490}}]}