{"type":"FeatureCollection","features":[{"type":"Feature","geometry":{"type":"Point","coordinates":[1.0660019,47.8068803]},"properties":{"category":"bakery","name":"Boulangerie Bellanger","opening_hours":"Tu-Sa 06:30-12:45,15:00-19:30; Su 07:00-13:30","osm_id":2629454180}},{"type":"Feature","geometry":{"type":"Point","coordinates":[1.0786148,47.8075161]},"properties":{"category":"bakery","name":"Boulangerie Cheramy","osm_id":2629454181}},{"type":"Feature","geometry":{"type":"Point","coordinates":[1.0500855,47.8010211]},"properties":{"category":"bakery","name":"Marie Blachère","osm_id":9758982616}},{"type":"Feature","geometry":{"type":"Point","coordinates":[1.020879,47.8213828]},"properties":{"category":"repair","osm_id":12994338945}},{"type":"Feature","geometry":{"type":"Point","coordinates":[1.0673891,47.8019169]},"properties":{"category":"repair","opening_hours":"24/7","osm_id":13058909962}}]}