{"type":"FeatureCollection","features":[{"type":"Feature","geometry":{"type":"Point","coordinates":[-0.9660593,47.8450695]},"properties":{"category":"bakery","name":"Boulangerie Serron","osm_id":2334637033}},{"type":"Feature","geometry":{"type":"Point","coordinates":[-0.9480952,47.8980155]},"properties":{"category":"bakery","osm_id":3778717009}},{"type":"Feature","geometry":{"type":"Point","coordinates":[-0.9702703,47.8425973]},"properties":{"category":"compressed_air","osm_id":9051394925}},{"type":"Feature","geometry":{"type":"Point","coordinates":[-0.949146,47.848049]},"properties":{"category":"bakery","name":"Les Douceurs de l’hippodrome","opening_hours":"Mo-Tu 06:30-19:30; Th-Sa 06:30-19:30; Su 06:30-13:00","phone":"+33 2 43 06 17 09","osm_id":11745199169}}]}