{"type":"FeatureCollection","features":[{"type":"Feature","geometry":{"type":"Point","coordinates":[-3.2767615,47.8054235]},"properties":{"category":"bakery","name":"La Hennebontaise","osm_id":1800584231}},{"type":"Feature","geometry":{"type":"Point","coordinates":[-3.2503932,47.8266119]},"properties":{"category":"shop","name":"Blavet Cyclo","phone":"+33 2 97 36 98 48","website":"https://blavet-cyclo.onlc.fr/","osm_id":1885006726}},{"type":"Feature","geometry":{"type":"Point","coordinates":[-3.2487667,47.826592]},"properties":{"category":"bakery","name":"Hervé Jan","osm_id":2398106949}},{"type":"Feature","geometry":{"type":"Point","coordinates":[-3.2496737,47.8273217]},"properties":{"category":"bakery","name":"Philippe Rostren","osm_id":2398106955}},{"type":"Feature","geometry":{"type":"Point","coordinates":[-3.2854271,47.8007518]},"properties":{"category":"bakery","name":"Boulangerie Robert","osm_id":2928952203}},{"type":"Feature","geometry":{"type":"Point","coordinates":[-3.2788823,47.8017124]},"properties":{"category":"bakery","name":"Boulangerie du Blavet","osm_id":2928952204}},{"type":"Feature","geometry":{"type":"Point","coordinates":[-3.2601495,47.8062838]},"properties":{"category":"bakery","name":"Marie Blachère","opening_hours":"Mo-Sa 06:30-19:30","phone":"+33 2 97 83 41 40","website":"https://boulangeries.marieblachere.com/fr/france-FR/5163/marie-blachere-hennebont/details","osm_id":4511898058}},{"type":"Feature","geometry":{"type":"Point","coordinates":[-3.248131,47.8250008]},"properties":{"category":"bakery","osm_id":5821396470}},{"type":"Feature","geometry":{"type":"Point","coordinates":[-3.2788769,47.8046388]},"properties":{"category":"bakery","name":"Le fournil des remparts","opening_hours":"Th-Tu 06:45-20:00","osm_id":6504840922}},{"type":"Feature","geometry":{"type":"Point","coordinates":[-3.2446626,47.8274874]},"properties":{"category":"repair","osm_id":9244180283}},{"type":"Feature","geometry":{"type":"Point","coordinates":[-3.2676967,47.8034578]},"properties":{"category":"bakery","osm_id":11120067734}},{"type":"Feature","geometry":{"type":"Point","coordinates":[-3.2744386,47.805428]},"properties":{"category":"bakery","name":"Fabien Eonnet","osm_id":13021478280}}]}