{"type":"FeatureCollection","features":[{"type":"Feature","geometry":{"type":"Point","coordinates":[-3.914956,47.8774314]},"properties":{"category":"shop","name":"Centre de Recherches sur l’Avenir des Déplacements Écologiques","phone":"+33 6 41 03 74 58","website":"https://www.lecrade.fr/","osm_id":8621577727}},{"type":"Feature","geometry":{"type":"Point","coordinates":[-3.9199165,47.8780454]},"properties":{"category":"shop","phone":"+33 9 79 74 31 98","website":"https://e-rider.fr","osm_id":12704387977}},{"type":"Feature","geometry":{"type":"Point","coordinates":[-3.9176658,47.8731925]},"properties":{"category":"repair","name":"Borne de réparation vélo","osm_id":13201143642}},{"type":"Feature","geometry":{"type":"Point","coordinates":[-3.9730947,47.8999801]},"properties":{"category":"repair","osm_id":14099753602}}]}