{"type":"FeatureCollection","features":[{"type":"Feature","geometry":{"type":"Point","coordinates":[-0.0973576,47.8720799]},"properties":{"category":"bakery","phone":"+33 2 43 95 55 92","osm_id":2630075141}},{"type":"Feature","geometry":{"type":"Point","coordinates":[-0.0977925,47.8713122]},"properties":{"category":"bakery","opening_hours":"Tu-Sa 06:30-19:30; Su 06:30-13:00","phone":"+33 2 43 95 70 63","website":"http://www.noyen-sur-sarthe.fr/vie-economique/commerces/","osm_id":2631207306}},{"type":"Feature","geometry":{"type":"Point","coordinates":[-0.0175199,47.8262009]},"properties":{"category":"bakery","name":"Au Palais Gourmand","opening_hours":"closed","osm_id":3381363921}},{"type":"Feature","geometry":{"type":"Point","coordinates":[-0.0879563,47.8139281]},"properties":{"category":"bakery","name":"Tartines & Gourmandises","osm_id":12763121055}},{"type":"Feature","geometry":{"type":"Point","coordinates":[-0.0859112,47.8140894]},"properties":{"category":"bakery","osm_id":12763121064}},{"type":"Feature","geometry":{"type":"Point","coordinates":[-0.0799687,47.8137108]},"properties":{"category":"repair","osm_id":14031047285}}]}