{"type":"FeatureCollection","features":[{"type":"Feature","geometry":{"type":"Point","coordinates":[6.333812,47.8560225]},"properties":{"category":"bakery","osm_id":5293426831}},{"type":"Feature","geometry":{"type":"Point","coordinates":[6.3804241,47.8167181]},"properties":{"category":"bakery","name":"Boulangerie du Centre","opening_hours":"Mo,Tu,Fr,Sa 07:30-12:30,15:30-18:00; We,Th 07:30-12:00,15:30-18:00; Su off","phone":"+33 3 84 40 35 12","osm_id":6329080876}},{"type":"Feature","geometry":{"type":"Point","coordinates":[6.3799325,47.8168604]},"properties":{"category":"bakery","name":"Drouet","opening_hours":"Tu-Sa 06:30-19:00; Su 06:30-13:00,14:30-18:00","phone":"+33 3 84 40 04 40","osm_id":6330861576}},{"type":"Feature","geometry":{"type":"Point","coordinates":[6.361304,47.8104039]},"properties":{"category":"bakery","name":"Au Fournil du Lac","osm_id":6357356599}},{"type":"Feature","geometry":{"type":"Point","coordinates":[6.3839297,47.8078028]},"properties":{"category":"bakery","osm_id":6617420739}},{"type":"Feature","geometry":{"type":"Point","coordinates":[6.3771316,47.8153871]},"properties":{"category":"bakery","name":"Boulangerie Perrin","osm_id":6620899592}},{"type":"Feature","geometry":{"type":"Point","coordinates":[6.3640451,47.8142587]},"properties":{"category":"bakery","name":"La Maison du Pain","opening_hours":"Mo,Tu,Th,Fr 05:45-18:30; Sa 05:45-12:30; Su 06:00-12:30; We off","osm_id":6800694943}},{"type":"Feature","geometry":{"type":"Point","coordinates":[6.3793076,47.8193432]},"properties":{"category":"bakery","name":"Masson Mathieu","opening_hours":"Tu-Sa 06:30-19:00; Su 06:30-13:00; Mo off","phone":"+33 3 84 40 07 16","osm_id":7077979492}},{"type":"Feature","geometry":{"type":"Point","coordinates":[6.3833905,47.8036267]},"properties":{"category":"bakery","name":"Maison Drouhet","osm_id":7453293464}},{"type":"Feature","geometry":{"type":"Point","coordinates":[6.38485,47.8039912]},"properties":{"category":"bakery","name":"A L' Aurore Des Pains","osm_id":12696564052}}]}