{"type":"FeatureCollection","features":[{"type":"Feature","geometry":{"type":"Point","coordinates":[2.1215658,47.8653261]},"properties":{"category":"bakery","name":"Les drôles de mitrons","osm_id":1061903513}},{"type":"Feature","geometry":{"type":"Point","coordinates":[2.1215647,47.8661939]},"properties":{"category":"bakery","name":"M. Mme Becaert","opening_hours":"We-Sa 06:30-14:00,15:00-19:00; Su 06:30-14:00","phone":"+33 2 38 59 70 68","osm_id":6297199930}},{"type":"Feature","geometry":{"type":"Point","coordinates":[2.1350726,47.8011902]},"properties":{"category":"bakery","name":"Les gourmandises de Ryan","osm_id":6632775143}},{"type":"Feature","geometry":{"type":"Point","coordinates":[2.1291023,47.8711378]},"properties":{"category":"bakery","name":"Artisan Boulanger","opening_hours":"Th-Tu 05:30-13:00","osm_id":6700199314}}]}