{"type":"FeatureCollection","features":[{"type":"Feature","geometry":{"type":"Point","coordinates":[7.0990837,47.8125613]},"properties":{"category":"bakery","name":"Ringenbach, Café, Boulangerie, Patisserie","opening_hours":"Mo-Fr 06:00-18:00; Sa 06:00-13:00","osm_id":3665870687}},{"type":"Feature","geometry":{"type":"Point","coordinates":[7.0495106,47.8601846]},"properties":{"category":"bakery","name":"Dietschin Pascal","opening_hours":"Mo-Tu,Th-Fr 04:30-12:30,16:00-19:00; We 04:30-12:30; Sa 04:00-13:00","phone":"+33 3 89 82 34 78","website":"https://www.dietschin-pascal.fr/","osm_id":3874815293}},{"type":"Feature","geometry":{"type":"Point","coordinates":[7.083442,47.8205083]},"properties":{"category":"bakery","name":"Poulaillon","osm_id":10651830261}},{"type":"Feature","geometry":{"type":"Point","coordinates":[7.0778346,47.8309666]},"properties":{"category":"bakery","name":"Boulangerie Fieffel","website":"https://www.facebook.com/people/Boulangerie-Fieffel/100057050156161/","osm_id":10651859629}},{"type":"Feature","geometry":{"type":"Point","coordinates":[7.0295166,47.8744029]},"properties":{"category":"shop","name":"Cyclothérapie","phone":"+33 3 89745490","website":"https://cyclotherapie.fr","osm_id":10895363258}},{"type":"Feature","geometry":{"type":"Point","coordinates":[7.0963493,47.8136759]},"properties":{"category":"bakery","name":"Boulangerie Patisserie Bruyand","osm_id":11393313791}},{"type":"Feature","geometry":{"type":"Point","coordinates":[7.0739184,47.845592]},"properties":{"category":"repair","opening_hours":"24/7","osm_id":12116630917}},{"type":"Feature","geometry":{"type":"Point","coordinates":[7.0306459,47.8740378]},"properties":{"category":"bakery","name":"L’épi des gourmands","osm_id":12466594265}}]}