{"type":"FeatureCollection","features":[{"type":"Feature","geometry":{"type":"Point","coordinates":[-4.0400015,47.8614918]},"properties":{"category":"bakery","name":"Histoires de gourmandises","opening_hours":"Mo-Su,PH 07:30-13:30,14:30-19:30","osm_id":968117117}},{"type":"Feature","geometry":{"type":"Point","coordinates":[-4.0104067,47.8951058]},"properties":{"category":"bakery","name":"Boulangerie Lozac’h","opening_hours":"Tu-Sa 07:15-13:30,14:30-19:45; Su 07:15-13:00; Mo closed \"off-season\"","phone":"+33 2 98 56 06 93","osm_id":2156652295}},{"type":"Feature","geometry":{"type":"Point","coordinates":[-4.0126072,47.892016]},"properties":{"category":"bakery","name":"Histoire de Pain","opening_hours":"Mo-Sa 07:15-19:30; Su 07:15-13:00","phone":"+33 298560044","osm_id":9028407701}},{"type":"Feature","geometry":{"type":"Point","coordinates":[-4.0884652,47.8659145]},"properties":{"category":"shop","name":"Cycletty","opening_hours":"Mo-Su 09:30-19:00","phone":"+33970355765","osm_id":12101099080}}]}