{"type":"FeatureCollection","features":[{"type":"Feature","geometry":{"type":"Point","coordinates":[-3.8528934,47.8549388]},"properties":{"category":"bakery","name":"Anne-Gaëlle et Arnaud Herlédan","phone":"+33 2 98 97 62 60","osm_id":6398955782}},{"type":"Feature","geometry":{"type":"Point","coordinates":[-3.8959398,47.8631816]},"properties":{"category":"bakery","name":"L'artisan du Pain","osm_id":6532574153}},{"type":"Feature","geometry":{"type":"Point","coordinates":[-3.8629787,47.856254]},"properties":{"category":"bakery","name":"Le fournil de Trégunc","osm_id":6589566986}},{"type":"Feature","geometry":{"type":"Point","coordinates":[-3.8323469,47.8055391]},"properties":{"category":"bakery","name":"Boulangerie Patisserie Carduner","osm_id":7845634015}},{"type":"Feature","geometry":{"type":"Point","coordinates":[-3.8836992,47.8692941]},"properties":{"category":"bakery","name":"Ty Forn","opening_hours":"Mo 07:00-14:00; Tu-Fr 07:00-20:30; Sa 08:00-20:30; Su 08:00-14:00","osm_id":8577632517}}]}