{"type":"FeatureCollection","features":[{"type":"Feature","geometry":{"type":"Point","coordinates":[1.2105351,47.88875]},"properties":{"category":"bakery","osm_id":2309343869}},{"type":"Feature","geometry":{"type":"Point","coordinates":[1.2939829,47.8222487]},"properties":{"category":"bakery","name":"Boulangerie","opening_hours":"Mo-Sa 06:30-19:30; Su 06:30-13:00","osm_id":10129699157}},{"type":"Feature","geometry":{"type":"Point","coordinates":[1.2940346,47.822367]},"properties":{"category":"bakery","osm_id":11017356870}}]}