{"type":"FeatureCollection","features":[{"type":"Feature","geometry":{"type":"Point","coordinates":[6.4050198,47.8872654]},"properties":{"category":"bakery","name":"Boulangerie Le Vieux Pétrin","phone":"+33 3 84 49 15 52","osm_id":2975979542}},{"type":"Feature","geometry":{"type":"Point","coordinates":[6.405101,47.8865721]},"properties":{"category":"bakery","name":"Boulangerie-Patisserie Denis Platte","phone":"+33 3 84 49 12 14","website":"http://www.patisserie-fougerolles.com/","osm_id":3226117133}},{"type":"Feature","geometry":{"type":"Point","coordinates":[6.4134461,47.8190496]},"properties":{"category":"bakery","name":"La Boulange","phone":"+33 3 84 94 29 72","osm_id":9208671535}},{"type":"Feature","geometry":{"type":"Point","coordinates":[6.4733667,47.8406139]},"properties":{"category":"bakery","name":"La Boulange de Marie","osm_id":14079826682}}]}