{"type":"FeatureCollection","features":[{"type":"Feature","geometry":{"type":"Point","coordinates":[-4.2799808,47.8435706]},"properties":{"category":"bakery","name":"Le Fournil Breton","opening_hours":"Mo-Su 07:00-19:30","phone":"+33 2 98 82 09 22","osm_id":2103360717}},{"type":"Feature","geometry":{"type":"Point","coordinates":[-4.2829396,47.8422019]},"properties":{"category":"bakery","name":"Le Fournil de la Torche","osm_id":2214726895}},{"type":"Feature","geometry":{"type":"Point","coordinates":[-4.2223375,47.8688117]},"properties":{"category":"bakery","name":"Boulangerie","osm_id":3191117736}},{"type":"Feature","geometry":{"type":"Point","coordinates":[-4.2232531,47.8642686]},"properties":{"category":"bakery","name":"Boulangerie viennoiserie","osm_id":5535648319}},{"type":"Feature","geometry":{"type":"Point","coordinates":[-4.2871491,47.8980401]},"properties":{"category":"compressed_air","osm_id":9674183053}},{"type":"Feature","geometry":{"type":"Point","coordinates":[-4.221272,47.865123]},"properties":{"category":"bakery","name":"Eric Huiban","osm_id":9684817419}},{"type":"Feature","geometry":{"type":"Point","coordinates":[-4.2406237,47.871217]},"properties":{"category":"compressed_air","name":"Station gonflage","opening_hours":"24/7","osm_id":9748895065}},{"type":"Feature","geometry":{"type":"Point","coordinates":[-4.2220401,47.8666206]},"properties":{"category":"bakery","name":"Nektar","opening_hours":"Mo-Su 07:30-19:00","osm_id":13092240214}}]}