{"type":"FeatureCollection","features":[{"type":"Feature","geometry":{"type":"Point","coordinates":[6.7829064,47.9075049]},"properties":{"category":"bakery","name":"Boulange de David et Cindy","opening_hours":"Tu-Su 07:00-12:30","osm_id":2087035252}},{"type":"Feature","geometry":{"type":"Point","coordinates":[6.7827689,47.9505051]},"properties":{"category":"bakery","name":"Entre Pains et Chocolats","osm_id":3777121917}},{"type":"Feature","geometry":{"type":"Point","coordinates":[6.7712996,47.9492154]},"properties":{"category":"bakery","name":"La Pépite des Vosges","phone":"+33 3 29 24 50 80","osm_id":3777401845}}]}