{"type":"FeatureCollection","features":[{"type":"Feature","geometry":{"type":"Point","coordinates":[0.1840427,47.9971746]},"properties":{"category":"shop","name":"Cyclamaine","opening_hours":"Tu-Fr 14:00-18:00","phone":"+33 6 84 50 25 13","osm_id":5148557312}},{"type":"Feature","geometry":{"type":"Point","coordinates":[0.1918297,47.9962385]},"properties":{"category":"repair","osm_id":8561772144}},{"type":"Feature","geometry":{"type":"Point","coordinates":[0.1993057,47.9996763]},"properties":{"category":"shop","name":"Brico Cycle","website":"https://bricocycle-lemans.fr/","osm_id":9468731633}},{"type":"Feature","geometry":{"type":"Point","coordinates":[0.1487182,47.9728328]},"properties":{"category":"shop","name":"Envie72","opening_hours":"Mo-Sa 10:00-12:00,14:00-18:30","website":"https://iter-lemans.com/","osm_id":10246492250}}]}