{"type":"FeatureCollection","features":[{"type":"Feature","geometry":{"type":"Point","coordinates":[-1.8608229,47.919308]},"properties":{"category":"bakery","name":"Boulangerie Banette","opening_hours":"Mo,We-Su 07:00-13:00,15:00-20:00","osm_id":1476012285}},{"type":"Feature","geometry":{"type":"Point","coordinates":[-1.8564437,47.9173069]},"properties":{"category":"compressed_air","osm_id":4202071747}},{"type":"Feature","geometry":{"type":"Point","coordinates":[-1.8599145,47.920733]},"properties":{"category":"bakery","name":"Chez Amandine & Jean-Philippe","opening_hours":"Tu-Sa 06:45-14:00, 16:00-20:00; Su 07:00-13:00","phone":"+33 2 99 92 20 41","osm_id":5152653324}}]}