{"type":"FeatureCollection","features":[{"type":"Feature","geometry":{"type":"Point","coordinates":[7.3033288,47.9669738]},"properties":{"category":"shop","name":"Bike & Beer","opening_hours":"Mo-Sa 09:00-19:00","osm_id":12336649708}},{"type":"Feature","geometry":{"type":"Point","coordinates":[7.3613914,47.9107717]},"properties":{"category":"bakery","name":"Mikael","opening_hours":"Mo 06:00-13:00; Tu-Fr 05:30-19:00; Sa, Su 06:30-13:00","phone":"+33 3 89 83 89 66","website":"https://www.boulangeriemikael.fr","osm_id":13834528155}}]}