{"type":"FeatureCollection","features":[{"type":"Feature","geometry":{"type":"Point","coordinates":[0.3663422,47.9369542]},"properties":{"category":"bakery","name":"La Meuline","osm_id":4117766943}},{"type":"Feature","geometry":{"type":"Point","coordinates":[0.3655317,47.9380227]},"properties":{"category":"bakery","name":"Épis sucrés","opening_hours":"Mo off; Tu-Sa 07:00-19:00; Su 07:00-16:00","osm_id":4117766945}},{"type":"Feature","geometry":{"type":"Point","coordinates":[0.3651406,47.9358891]},"properties":{"category":"bakery","name":"Le Fournil de Parigné L'Eveque","osm_id":11286780286}},{"type":"Feature","geometry":{"type":"Point","coordinates":[0.3364503,47.9117084]},"properties":{"category":"bakery","name":"Maison Rainteau","opening_hours":"Tu-Sa 07:00-13:00,15:30-19:30; Su 07:00-13:00","phone":"+33 2 43 84 55 02","osm_id":11582567209}}]}