{"type":"FeatureCollection","features":[{"type":"Feature","geometry":{"type":"Point","coordinates":[0.235743,47.9936646]},"properties":{"category":"shop","name":"Vel'nature","website":"https://iter-lemans.com/vel-nature/","osm_id":6313165799}},{"type":"Feature","geometry":{"type":"Point","coordinates":[0.2348136,47.9943404]},"properties":{"category":"repair","osm_id":8561752387}},{"type":"Feature","geometry":{"type":"Point","coordinates":[0.2048014,47.9700088]},"properties":{"category":"shop","name":"Distri Cycle","osm_id":10086029323}},{"type":"Feature","geometry":{"type":"Point","coordinates":[0.2316712,47.9425215]},"properties":{"category":"shop","name":"Giant","osm_id":11940544900}},{"type":"Feature","geometry":{"type":"Point","coordinates":[0.2076718,47.9881412]},"properties":{"category":"shop","name":"LM réparation cycles","osm_id":12318766299}},{"type":"Feature","geometry":{"type":"Point","coordinates":[0.2346842,47.9967024]},"properties":{"category":"shop","name":"Vélo pratique","phone":"+33 7 80 02 77 19","website":"https://velo-pratique.com/","osm_id":12766943415}}]}