{"type":"FeatureCollection","features":[{"type":"Feature","geometry":{"type":"Point","coordinates":[2.102935,47.9151356]},"properties":{"category":"bakery","name":"Boulangerie Stéphane Touche","opening_hours":"Mo-Sa 07:00-13:00","phone":"+332 38 59 23 31","osm_id":1708376259}},{"type":"Feature","geometry":{"type":"Point","coordinates":[2.1027,47.9748253]},"properties":{"category":"bakery","name":"Élodie et Cédric","osm_id":5634766711}},{"type":"Feature","geometry":{"type":"Point","coordinates":[2.1394345,47.9287668]},"properties":{"category":"bakery","name":"Boulangerie GM","osm_id":13205454163}}]}