{"type":"FeatureCollection","features":[{"type":"Feature","geometry":{"type":"Point","coordinates":[1.8302248,47.9195926]},"properties":{"category":"bakery","name":"Boulangerie d'Ingré","phone":"+33 238747049","osm_id":460476222}},{"type":"Feature","geometry":{"type":"Point","coordinates":[1.8937473,47.9074412]},"properties":{"category":"bakery","name":"Alvéolage des Pains et du Partage","opening_hours":"Tu-Fr 07:00-13:45,15:45-19:15; Sa 07:30-18:00","phone":"+33 2 38 68 04 82","osm_id":595736948}},{"type":"Feature","geometry":{"type":"Point","coordinates":[1.8950397,47.9346013]},"properties":{"category":"bakery","name":"Boulangerie Pâtisserie Maison Boncos","opening_hours":"Tu-Sa 06:30-13:00, 15:00-19:00; Su 06:30-13:00","phone":"+33 2 38 43 59 52","osm_id":1598844086}},{"type":"Feature","geometry":{"type":"Point","coordinates":[1.8788824,47.9066364]},"properties":{"category":"bakery","name":"Carré Blanc","phone":"+33 950177278","website":"https://www.carreblanc.com/","osm_id":2345405036}},{"type":"Feature","geometry":{"type":"Point","coordinates":[1.8921178,47.944904]},"properties":{"category":"bakery","name":"L'Epi Gaulois","osm_id":2925661904}},{"type":"Feature","geometry":{"type":"Point","coordinates":[1.8918764,47.9447639]},"properties":{"category":"shop","name":"VéloAlto","opening_hours":"Mo 15:00-19:00; Tu-Fr 10:00-12:00,14:00-19:00; Sa 10:00-19:00","phone":"+33 238731723","website":"https://www.veloalto.fr/","osm_id":2925661905}},{"type":"Feature","geometry":{"type":"Point","coordinates":[1.8913962,47.9057854]},"properties":{"category":"bakery","name":"La Gourmandise","opening_hours":"We off; Mo-Fr 07:00-13:30,15:30-19:30; Sa 07:00-13:00; Su 07:00-13:00","osm_id":2930654873}},{"type":"Feature","geometry":{"type":"Point","coordinates":[1.8967142,47.9018433]},"properties":{"category":"shop","name":"Monspad","phone":"+33 9 86 69 28 79","website":"https://monspad.fr/","osm_id":3262370325}},{"type":"Feature","geometry":{"type":"Point","coordinates":[1.8795764,47.9106542]},"properties":{"category":"bakery","name":"La Farandole des Pains","phone":"+33 238882357","osm_id":3489713840}},{"type":"Feature","geometry":{"type":"Point","coordinates":[1.8860225,47.9634719]},"properties":{"category":"bakery","name":"Boulangerie Louise","opening_hours":"Mo-Sa 07:30-20:00","phone":"+332 38 83 28 46","website":"https://www.boulangerielouise.com/","osm_id":4332352419}},{"type":"Feature","geometry":{"type":"Point","coordinates":[1.8916944,47.9220407]},"properties":{"category":"bakery","name":"L'épi d'or","opening_hours":"Tu-Sa 06:45-13:00,15:30-19:30; Su 07:00-13:00; PH,Tu-Sa 07:00-13:00","osm_id":4710069495}},{"type":"Feature","geometry":{"type":"Point","coordinates":[1.895329,47.9190475]},"properties":{"category":"bakery","name":"Frédéric & Céline Carro","osm_id":4954408995}},{"type":"Feature","geometry":{"type":"Point","coordinates":[1.8912691,47.9515991]},"properties":{"category":"bakery","name":"Boulangerie Ange","opening_hours":"Mo-Sa 06:30-20:00","phone":"+33 238685432","website":"https://www.boulangerie-ange.fr/stores/boulangerie-ange-saran/","osm_id":5297579505}},{"type":"Feature","geometry":{"type":"Point","coordinates":[1.8916765,47.9472625]},"properties":{"category":"shop","name":"Culture vélo","opening_hours":"Mo 14:00-19:00; Tu-Sa 10:00-12:30,14:00-19:00","phone":"+33238545918","website":"https://www.culturevelo.com/-Orleans-","osm_id":5912408926}},{"type":"Feature","geometry":{"type":"Point","coordinates":[1.8996642,47.9128993]},"properties":{"category":"shop","name":"DFJ Location","phone":"+33 238812300","osm_id":6019702273}},{"type":"Feature","geometry":{"type":"Point","coordinates":[1.8837037,47.9616504]},"properties":{"category":"repair","osm_id":7284610858}},{"type":"Feature","geometry":{"type":"Point","coordinates":[1.8719702,47.907596]},"properties":{"category":"bakery","name":"Carré Blanc","osm_id":7363633667}},{"type":"Feature","geometry":{"type":"Point","coordinates":[1.861224,47.9044599]},"properties":{"category":"bakery","name":"Paul","phone":"+33 2 38 72 07 08","website":"https://www.paul.fr/stores/saint_jean_de_la_ruelle","osm_id":7363856567}},{"type":"Feature","geometry":{"type":"Point","coordinates":[1.820396,47.9409897]},"properties":{"category":"bakery","name":"Patisserie Boulangerie Sellier","phone":"+33 2 38 74 95 07","osm_id":8293423461}},{"type":"Feature","geometry":{"type":"Point","coordinates":[1.8580102,47.910512]},"properties":{"category":"bakery","name":"Christian Berthe & Banette","phone":"+33238427160","website":"https://www.boulangerie-christian-berthe.com/","osm_id":10593356092}},{"type":"Feature","geometry":{"type":"Point","coordinates":[1.8998846,47.9133578]},"properties":{"category":"bakery","name":"Royal Délice","osm_id":10603791787}},{"type":"Feature","geometry":{"type":"Point","coordinates":[1.8553973,47.9015746]},"properties":{"category":"bakery","name":"Maison Bécam","osm_id":11470172752}},{"type":"Feature","geometry":{"type":"Point","coordinates":[1.8962606,47.9300757]},"properties":{"category":"bakery","name":"L'Atelier Papilles","osm_id":11522102069}},{"type":"Feature","geometry":{"type":"Point","coordinates":[1.8986787,47.901941]},"properties":{"category":"bakery","name":"Boulanger Patissier Artisan","phone":"+33 238533333","osm_id":11530332070}},{"type":"Feature","geometry":{"type":"Point","coordinates":[1.8913048,47.9462747]},"properties":{"category":"bakery","name":"Marie Blachère","osm_id":11530353637}},{"type":"Feature","geometry":{"type":"Point","coordinates":[1.814514,47.9418676]},"properties":{"category":"repair","opening_hours":"24/7","osm_id":11850508013}},{"type":"Feature","geometry":{"type":"Point","coordinates":[1.8765695,47.9504538]},"properties":{"category":"bakery","name":"Le Délice du Bourg","opening_hours":"Mo-Sa 06:30-13:30, 15:30-19:30; Su 07:30-12:00","phone":"+33982624267","osm_id":12142104591}},{"type":"Feature","geometry":{"type":"Point","coordinates":[1.896279,47.9277188]},"properties":{"category":"bakery","name":"Le Boulanger du Faubourg","phone":"+332 38 88 69 04","osm_id":12167754575}},{"type":"Feature","geometry":{"type":"Point","coordinates":[1.8320235,47.9491743]},"properties":{"category":"bakery","name":"Patapain","osm_id":12222516104}},{"type":"Feature","geometry":{"type":"Point","coordinates":[1.8694115,47.9148041]},"properties":{"category":"bakery","name":"Boulangerie Feuillette","opening_hours":"Mo-Su,PH 06:00-20:00","phone":"+33 2 38 54 70 88","osm_id":12381985151}},{"type":"Feature","geometry":{"type":"Point","coordinates":[1.8367422,47.9893024]},"properties":{"category":"bakery","name":"Cerise sur le gâteau","osm_id":12882325685}},{"type":"Feature","geometry":{"type":"Point","coordinates":[1.8585352,47.977162]},"properties":{"category":"bakery","name":"Paul","phone":"+33 2 38 79 02 10","website":"https://www.paul.fr/stores/aire_d_orleans_saran","osm_id":12966232107}},{"type":"Feature","geometry":{"type":"Point","coordinates":[1.8694266,47.9148228]},"properties":{"category":"bakery","name":"Feuillette","opening_hours":"Mo-Su 06:00-20:00","phone":"+33 2 38 54 70 88","website":"https://www.feuillette.fr/trouver-votre-boulangerie-feuillette","osm_id":13025644034}},{"type":"Feature","geometry":{"type":"Point","coordinates":[1.8664048,47.9104727]},"properties":{"category":"bakery","name":"Louise","osm_id":13686474275}},{"type":"Feature","geometry":{"type":"Point","coordinates":[1.8872618,47.9594713]},"properties":{"category":"bakery","name":"Epiane","osm_id":14076540366}}]}