{"type":"FeatureCollection","features":[{"type":"Feature","geometry":{"type":"Point","coordinates":[-3.3341409,47.915327]},"properties":{"category":"bakery","name":"O'délices","phone":"+33 9 75 41 95 59","osm_id":1129839031}},{"type":"Feature","geometry":{"type":"Point","coordinates":[-3.3350519,47.9147914]},"properties":{"category":"bakery","osm_id":1129840033}},{"type":"Feature","geometry":{"type":"Point","coordinates":[-3.3349037,47.91388]},"properties":{"category":"bakery","osm_id":1129840245}},{"type":"Feature","geometry":{"type":"Point","coordinates":[-3.3354138,47.915519]},"properties":{"category":"bakery","osm_id":1129841172}},{"type":"Feature","geometry":{"type":"Point","coordinates":[-3.3328388,47.9164711]},"properties":{"category":"bakery","name":"Eon","phone":"+33 2 97 33 32 12","osm_id":1129870418}},{"type":"Feature","geometry":{"type":"Point","coordinates":[-3.3357884,47.9170078]},"properties":{"category":"shop","name":"Pro Shop Bike","opening_hours":"Tu-Sa 09:00-19:00","phone":"+33297111598","osm_id":1132324720}},{"type":"Feature","geometry":{"type":"Point","coordinates":[-3.3374745,47.9156198]},"properties":{"category":"bakery","name":"O' saveurs gourmandes","osm_id":14133709801}}]}