{"type":"FeatureCollection","features":[{"type":"Feature","geometry":{"type":"Point","coordinates":[1.9706148,47.9083703]},"properties":{"category":"bakery","name":"Les 2 Boulangers (Julienne Et Vincent)","opening_hours":"Mo-Tu 06:00-19:30; Fr-Sa 06:00-19:30; Su 06:00-13:15","phone":"+33 9 86 70 54 67","website":"https://les2boulangers.com/","osm_id":601607185}},{"type":"Feature","geometry":{"type":"Point","coordinates":[1.9006242,47.9162783]},"properties":{"category":"bakery","name":"Le Fournil de Coligny","osm_id":738103554}},{"type":"Feature","geometry":{"type":"Point","coordinates":[1.9185409,47.9275308]},"properties":{"category":"bakery","name":"Boulangerie Pâtisserie Artisanale Chausson Jean","opening_hours":"Tu-Sa 07:00-12:30,14:45-19:00; Su 07:00-12:45","phone":"+33 2 38 86 30 26","osm_id":920258071}},{"type":"Feature","geometry":{"type":"Point","coordinates":[1.9039702,47.9033622]},"properties":{"category":"bakery","name":"Nadal","osm_id":1311986399}},{"type":"Feature","geometry":{"type":"Point","coordinates":[1.9081315,47.901821]},"properties":{"category":"bakery","name":"Jeanne d'Arc","opening_hours":"Mo-Fr 07:15-18:30","phone":"+33 238737089","website":"http://jeannedarcsalesucre.fr/","osm_id":1313042375}},{"type":"Feature","geometry":{"type":"Point","coordinates":[1.9083174,47.9016178]},"properties":{"category":"bakery","name":"Patisserie de la Cathédrale","opening_hours":"Mo-Fr 07:00-19:00","phone":"+33 2 38 53 19 37","osm_id":1313047618}},{"type":"Feature","geometry":{"type":"Point","coordinates":[1.964015,47.9143223]},"properties":{"category":"bakery","name":"Artisan Boulanger Christian Berthe","opening_hours":"Mo-Fr,Su 06:00-20:00; Sa 06:00-19:00","phone":"+33238550732","osm_id":1343043932}},{"type":"Feature","geometry":{"type":"Point","coordinates":[1.9177485,47.9192817]},"properties":{"category":"bakery","name":"Boulangerie Elsa","opening_hours":"Mo-Fr 08:00-19:00; Sa 08:00-18:00","phone":"+332 38 53 52 81","osm_id":1368891799}},{"type":"Feature","geometry":{"type":"Point","coordinates":[1.9492885,47.9319731]},"properties":{"category":"bakery","name":"Boulangerie Sandrine et Patrice","phone":"+33 238835023","osm_id":2031625958}},{"type":"Feature","geometry":{"type":"Point","coordinates":[1.9130406,47.9041483]},"properties":{"category":"bakery","name":"Antoine Ayrole et Rachel Maureille","opening_hours":"Tu-Su 07:30-13:30","phone":"+33 238532553","website":"https://www.ayroleshop.fr/boulangerie","osm_id":2294644822}},{"type":"Feature","geometry":{"type":"Point","coordinates":[1.9127675,47.904028]},"properties":{"category":"shop","name":"Le Dérailleur - Cycling Community","opening_hours":"We-Sa 09:00-13:00,15:00-19:00","phone":"+33 2 59 16 08 83","osm_id":2294644824}},{"type":"Feature","geometry":{"type":"Point","coordinates":[1.9331072,47.9109466]},"properties":{"category":"shop","name":"1-Terre-actions - Re'Cycle","website":"http://www.1terreactions.org/","osm_id":2739303723}},{"type":"Feature","geometry":{"type":"Point","coordinates":[1.9126816,47.9368684]},"properties":{"category":"bakery","name":"Les Gourmandises","osm_id":2804691745}},{"type":"Feature","geometry":{"type":"Point","coordinates":[1.902849,47.9005021]},"properties":{"category":"bakery","name":"Maison Nadal","opening_hours":"Tu-Sa 07:00-19:30","phone":"+33 238546407","osm_id":3043538046}},{"type":"Feature","geometry":{"type":"Point","coordinates":[1.9012575,47.901425]},"properties":{"category":"bakery","name":"Boulangerie des Carmes","opening_hours":"Mo-Sa 07:00-19:30","phone":"+332 38 54 41 35","osm_id":3043586933}},{"type":"Feature","geometry":{"type":"Point","coordinates":[1.9027285,47.9044546]},"properties":{"category":"bakery","name":"Le Fournil du 55","opening_hours":"Tu-Fr 07:00-19:30; Sa 07:30-19:30; Su 07:30-13:00; Mo closed","phone":"+33 238620603","osm_id":3043586934}},{"type":"Feature","geometry":{"type":"Point","coordinates":[1.9008621,47.9237734]},"properties":{"category":"bakery","name":"Boulangerie Nadal","opening_hours":"Mo-Sa 07:00-20:00","website":"https://fr-fr.facebook.com/MaisonNadal","osm_id":3043649892}},{"type":"Feature","geometry":{"type":"Point","coordinates":[1.9016134,47.9066098]},"properties":{"category":"bakery","name":"Boulangerie St Paterne","opening_hours":"Mo-Th,Sa 07:00-20:00","phone":"+332 38 53 23 18","osm_id":3254193310}},{"type":"Feature","geometry":{"type":"Point","coordinates":[1.9131733,47.9004038]},"properties":{"category":"bakery","name":"Morgane de Pains","website":"https://www.myboulange.fr/45/orleans/morgane-de-pains-14162","osm_id":3321557402}},{"type":"Feature","geometry":{"type":"Point","coordinates":[1.900842,47.9085094]},"properties":{"category":"bakery","name":"Boulangerie Pâtisserie Chez Tony","opening_hours":"Tu,We,Fr,Sa 07:00-13:30,15:30-19:00; Th 07:00-13:30; Su 07:00-13:00","phone":"+33 238535370","osm_id":3427564271}},{"type":"Feature","geometry":{"type":"Point","coordinates":[1.9140549,47.9061255]},"properties":{"category":"bakery","name":"Beulque Alain","opening_hours":"Mo-Tu,Th-Sa 07:50-13:30,15:30-19:30; Su 07:30-13:30","phone":"+33238533574","osm_id":3439635269}},{"type":"Feature","geometry":{"type":"Point","coordinates":[1.9287778,47.9260125]},"properties":{"category":"bakery","name":"Les Co-pains","opening_hours":"Mo,Tu,Th-Sa 06:00-13:00,15:30-19:30; Su 07:00-13:00","phone":"+33 987585597","osm_id":3466390178}},{"type":"Feature","geometry":{"type":"Point","coordinates":[1.9285362,47.9258279]},"properties":{"category":"bakery","name":"Boulangerie Bossard","opening_hours":"Tu-Su 06:00-14:00,15:00-19:00","osm_id":3466390179}},{"type":"Feature","geometry":{"type":"Point","coordinates":[1.921071,47.904306]},"properties":{"category":"bakery","name":"Boulangerie Bouissou","website":"https://www.myboulange.fr/45/orleans/bouissou-frederic-57997","osm_id":3466390294}},{"type":"Feature","geometry":{"type":"Point","coordinates":[1.9082528,47.9320257]},"properties":{"category":"bakery","name":"Delices des Pains","opening_hours":"Mo-Su 07:00-13:30,15:30-19:30","osm_id":3806857899}},{"type":"Feature","geometry":{"type":"Point","coordinates":[1.9193547,47.9277206]},"properties":{"category":"shop","name":"Hume Didier","opening_hours":"Tu-Sa 08:30-12:00,14:15-19:00","phone":"+33 2 38 86 14 40;+33 9 63 45 78 21","website":"https://www.monde-du-velo.com/magasin-cycle/Magasin-velo-hume-didier-ets-fleury-les-aubrais-1141.html","osm_id":6019855134}},{"type":"Feature","geometry":{"type":"Point","coordinates":[1.902276,47.9013762]},"properties":{"category":"bakery","name":"Paul","opening_hours":"Mo-Sa 07:00-19:30","phone":"+33 9 67 87 77 46","website":"https://www.paul.fr/stores/orleans_kiosque","osm_id":6189581572}},{"type":"Feature","geometry":{"type":"Point","coordinates":[1.9173644,47.9451517]},"properties":{"category":"bakery","name":"Marie Blachère","opening_hours":"Mo-Sa 06:30-19:30","phone":"+33 2 38 93 09 18","osm_id":6254192560}},{"type":"Feature","geometry":{"type":"Point","coordinates":[1.915611,47.9315137]},"properties":{"category":"bakery","name":"Le Froment","osm_id":6341635702}},{"type":"Feature","geometry":{"type":"Point","coordinates":[1.9100507,47.9027994]},"properties":{"category":"repair","opening_hours":"24/7","osm_id":7284610856}},{"type":"Feature","geometry":{"type":"Point","coordinates":[1.9251124,47.901693]},"properties":{"category":"bakery","name":"Patapain","opening_hours":"Mo-Su 07:00-20:00","website":"https://www.patapain.com/choisir-mon-restaurant","osm_id":7345873394}},{"type":"Feature","geometry":{"type":"Point","coordinates":[1.9084335,47.9108672]},"properties":{"category":"bakery","name":"Boulangerie Katy et Frederic","opening_hours":"Mo-Sa 06:30-19:15","phone":"+33 2 38 53 02 60","website":"https://boulangeriekatyetfrederic.fr","osm_id":7466143197}},{"type":"Feature","geometry":{"type":"Point","coordinates":[1.9165182,47.933828]},"properties":{"category":"bakery","name":"O Peche Mignon","phone":"+33 219050864","osm_id":9473957434}},{"type":"Feature","geometry":{"type":"Point","coordinates":[1.9478521,47.932959]},"properties":{"category":"repair","opening_hours":"24/7","osm_id":9526329948}},{"type":"Feature","geometry":{"type":"Point","coordinates":[1.9812127,47.9181377]},"properties":{"category":"bakery","name":"L'atelier Papilles","osm_id":9922260653}},{"type":"Feature","geometry":{"type":"Point","coordinates":[1.9148363,47.9101404]},"properties":{"category":"bakery","name":"L'or Sucré","osm_id":10262377840}},{"type":"Feature","geometry":{"type":"Point","coordinates":[1.9328599,47.9397028]},"properties":{"category":"repair","osm_id":10308127308}},{"type":"Feature","geometry":{"type":"Point","coordinates":[1.900906,47.9095231]},"properties":{"category":"bakery","name":"Maison Ruellan","opening_hours":"Mo,Tu,Th-Sa 07:00-19:30; Su 07:00-13:00","phone":"+33 238737713","osm_id":11465861308}},{"type":"Feature","geometry":{"type":"Point","coordinates":[1.9308919,47.9395662]},"properties":{"category":"bakery","name":"Boulangerie Patisserie Ahnaz","osm_id":11524336369}},{"type":"Feature","geometry":{"type":"Point","coordinates":[1.9000045,47.9119869]},"properties":{"category":"bakery","name":"Aux Pains des Lys","opening_hours":"Mo-Fr 07:30-13:00,16:00-19:00; Sa 07:30-13:00","phone":"+33 238535276","website":"https://www.instagram.com/lespainsdebaptiste","osm_id":11528099769}},{"type":"Feature","geometry":{"type":"Point","coordinates":[1.9526454,47.9099849]},"properties":{"category":"bakery","name":"Les Délices de Saint-Jean","osm_id":11545862251}},{"type":"Feature","geometry":{"type":"Point","coordinates":[1.9613956,47.9072773]},"properties":{"category":"bakery","name":"L'atelier Papilles","phone":"+33 234082722","osm_id":11554352219}},{"type":"Feature","geometry":{"type":"Point","coordinates":[1.9818718,47.9070392]},"properties":{"category":"bakery","name":"Artisan Boulanger Patissier","opening_hours":"Mo off; Tu-Sa 07:00-19:00; Su 07:00-13:00","phone":"+33 2 38 75 92 16","osm_id":11554612590}},{"type":"Feature","geometry":{"type":"Point","coordinates":[1.9285014,47.9118626]},"properties":{"category":"bakery","name":"Boulangerie Pâtisserie Marie Stuart","opening_hours":"Mo-Sa 06:00-19:30; Su 06:30-14:00","phone":"+33 238681164","osm_id":11672479603}},{"type":"Feature","geometry":{"type":"Point","coordinates":[1.9408358,47.9234814]},"properties":{"category":"bakery","name":"Boulangerie Ange","opening_hours":"Mo-Sa 06:30-19:30","phone":"+33 2 19 00 10 29","website":"https://www.boulangerie-ange.fr/stores/boulangerie-ange-orleans/","osm_id":11989197671}},{"type":"Feature","geometry":{"type":"Point","coordinates":[1.9055314,47.9081159]},"properties":{"category":"bakery","name":"Paul","phone":"+33 2 38 52 12 10","website":"https://www.paul.fr/stores/orleans_arc","osm_id":12513087126}},{"type":"Feature","geometry":{"type":"Point","coordinates":[1.9242321,47.9092079]},"properties":{"category":"shop","name":"L'ATELIER DE VELOMAN","phone":"+33 7 86 48 50 15","website":"https://sites.google.com/view/latelierdeveloman-com","osm_id":12856079640}},{"type":"Feature","geometry":{"type":"Point","coordinates":[1.9621524,47.9037145]},"properties":{"category":"repair","osm_id":12945511010}},{"type":"Feature","geometry":{"type":"Point","coordinates":[1.9308526,47.9143578]},"properties":{"category":"bakery","name":"Al Kouds","phone":"+33 2 38 86 41 41","website":"http://www.boulangeriealkouds.fr/","osm_id":13085507677}},{"type":"Feature","geometry":{"type":"Point","coordinates":[1.9078442,47.9232213]},"properties":{"category":"compressed_air","osm_id":13351487265}},{"type":"Feature","geometry":{"type":"Point","coordinates":[1.9038169,47.9001951]},"properties":{"category":"bakery","name":"Nadal","osm_id":14128677301}}]}