{"type":"FeatureCollection","features":[{"type":"Feature","geometry":{"type":"Point","coordinates":[-2.4396904,47.9591722]},"properties":{"category":"bakery","name":"Les délices du lac","opening_hours":"Mo, Tu, Th, Fr 07:15-20:00; Sa 07:15-19:30; Su 07:15-13:15","phone":"+33297935390","osm_id":5080927359}},{"type":"Feature","geometry":{"type":"Point","coordinates":[-2.405333,47.9404335]},"properties":{"category":"bakery","name":"Boulangerie Louise","opening_hours":"Mo-Sa 08:30-19:30","phone":"+33967367556","website":"https://www.boulangerielouise.com/boulangerie/boulangerie-louise-ploermel/","osm_id":5107379689}},{"type":"Feature","geometry":{"type":"Point","coordinates":[-2.4003349,47.9326129]},"properties":{"category":"bakery","name":"Le Grenier à pain","opening_hours":"Mo-Sa 07:15-20:00; Su 07:15-13:30, 15:00-19:00","phone":"+33 2 97 74 32 02","osm_id":5563864834}},{"type":"Feature","geometry":{"type":"Point","coordinates":[-2.4132655,47.9679537]},"properties":{"category":"bakery","name":"La Ferme aux Pains","opening_hours":"Tu, Fr 16:00-19:00","osm_id":12022188069}}]}