{"type":"FeatureCollection","features":[{"type":"Feature","geometry":{"type":"Point","coordinates":[3.6255818,47.9518578]},"properties":{"category":"bakery","name":"2 Bis","osm_id":4154444207}},{"type":"Feature","geometry":{"type":"Point","coordinates":[3.6170473,47.9936151]},"properties":{"category":"bakery","name":"Julien et Lolita Charpentier","osm_id":4630013983}},{"type":"Feature","geometry":{"type":"Point","coordinates":[3.6175073,47.9915838]},"properties":{"category":"bakery","name":"Le Saint-Honoré","osm_id":4630013985}},{"type":"Feature","geometry":{"type":"Point","coordinates":[3.6166554,47.9908694]},"properties":{"category":"bakery","name":"La Gourmandise","osm_id":4630015291}},{"type":"Feature","geometry":{"type":"Point","coordinates":[3.626066,47.9022049]},"properties":{"category":"bakery","name":"Boulangerie Rameau","osm_id":7508591018}}]}