{"type":"FeatureCollection","features":[{"type":"Feature","geometry":{"type":"Point","coordinates":[7.2998826,47.9572935]},"properties":{"category":"bakery","name":"Kempf","osm_id":1468236570}},{"type":"Feature","geometry":{"type":"Point","coordinates":[7.2094373,47.9109331]},"properties":{"category":"bakery","name":"Maison Perrin","osm_id":1864753567}},{"type":"Feature","geometry":{"type":"Point","coordinates":[7.219936,47.9866747]},"properties":{"category":"bakery","name":"Boulangerie Gwinner","opening_hours":"Mo,Tu,Th,Fr 06:00-12:15, 15:00-19:00; We 06:00-12:15; Sa 06:00-14:00","osm_id":2857083791}},{"type":"Feature","geometry":{"type":"Point","coordinates":[7.2398981,47.9605883]},"properties":{"category":"bakery","name":"Kitzinger","osm_id":3779629356}},{"type":"Feature","geometry":{"type":"Point","coordinates":[7.238566,47.9616202]},"properties":{"category":"bakery","name":"Fuchs (Banette)","osm_id":3779637064}},{"type":"Feature","geometry":{"type":"Point","coordinates":[7.2084998,47.9116263]},"properties":{"category":"bakery","name":"La Panetière","osm_id":4296105995}},{"type":"Feature","geometry":{"type":"Point","coordinates":[7.2534558,47.9045485]},"properties":{"category":"bakery","name":"Banette","osm_id":4511949818}},{"type":"Feature","geometry":{"type":"Point","coordinates":[7.2530682,47.9035973]},"properties":{"category":"bakery","name":"Boulangerie Martin","osm_id":4511949819}},{"type":"Feature","geometry":{"type":"Point","coordinates":[7.2974857,47.9569495]},"properties":{"category":"bakery","name":"Boulangerie Pâtissier BANETTE","opening_hours":"Mo-Fr 05:30-12:45, 15:30-18:30; Sa 05:30-12:30","osm_id":5732454109}},{"type":"Feature","geometry":{"type":"Point","coordinates":[7.205261,47.9118108]},"properties":{"category":"repair","name":"Atelier Roue Pet'","opening_hours":"Th 17:00-20:00","osm_id":7546118486}},{"type":"Feature","geometry":{"type":"Point","coordinates":[7.2132285,47.9075846]},"properties":{"category":"bakery","name":"Boulangerie Patisserie Thierry Gross","osm_id":9823433175}},{"type":"Feature","geometry":{"type":"Point","coordinates":[7.241823,47.9026706]},"properties":{"category":"bakery","name":"Marie Bachère","opening_hours":"Mo-Sa 07:00-19:30","osm_id":10927964805}},{"type":"Feature","geometry":{"type":"Point","coordinates":[7.2324658,47.9342793]},"properties":{"category":"bakery","name":"Maison HIROSE","phone":"+33 9 72 90 73 35","osm_id":11935188749}},{"type":"Feature","geometry":{"type":"Point","coordinates":[7.2864897,47.9837971]},"properties":{"category":"bakery","name":"S'Landbrot","osm_id":14053589745}}]}