{"type":"FeatureCollection","features":[{"type":"Feature","geometry":{"type":"Point","coordinates":[-1.6632834,47.937528]},"properties":{"category":"bakery","name":"Boulangerie Vanessa et Nicolas","opening_hours":"Tu-Fr 07:00-14:30,16:00-19:30; Sa 07:00-13:30,16:00-19:00; Su 07:30-12:30; Mo off","osm_id":2096926291}},{"type":"Feature","geometry":{"type":"Point","coordinates":[-1.6143147,47.966291]},"properties":{"category":"bakery","name":"Boulangerie","osm_id":2112972753}},{"type":"Feature","geometry":{"type":"Point","coordinates":[-1.6131174,47.9936315]},"properties":{"category":"bakery","name":"L'Atelier d'Alexandre","phone":"+33 2 99 52 68 04","osm_id":3027193420}},{"type":"Feature","geometry":{"type":"Point","coordinates":[-1.6688174,47.9968997]},"properties":{"category":"bakery","name":"Fournil d'Orgères","osm_id":4200566161}},{"type":"Feature","geometry":{"type":"Point","coordinates":[-1.6681486,47.9957684]},"properties":{"category":"bakery","name":"Artisan boulanger saveurs d'antan","opening_hours":"Mo-Fr 06:45-13:00,15:30-19:30, Sa 06:45-13:00,15:00-19:00, Su 07:30-12:30","osm_id":4516153189}},{"type":"Feature","geometry":{"type":"Point","coordinates":[-1.6162111,47.966971]},"properties":{"category":"bakery","name":"Péniguel","opening_hours":"Mo,Tu,Th,Fr 06:30-13:30,15:30-19:00; Sa 06:30-17:00; Su 06:30-12:30","osm_id":14041802950}}]}