{"type":"FeatureCollection","features":[{"type":"Feature","geometry":{"type":"Point","coordinates":[-4.4603001,47.9901121]},"properties":{"category":"bakery","name":"Domaine de Tréouzien","osm_id":4925268634}},{"type":"Feature","geometry":{"type":"Point","coordinates":[-4.4336955,47.9796294]},"properties":{"category":"bakery","name":"Maison Gonidec","opening_hours":"Sep 16-Jun 30 Mo-We,Fr-Su 07:30-13:00,15:00-19:00","phone":"+33 2 98 56 61 27","website":"https://www.maison-gonidec.fr/","osm_id":5882437004}},{"type":"Feature","geometry":{"type":"Point","coordinates":[-4.4271611,47.9860923]},"properties":{"category":"bakery","name":"Boulangerie Le Quéré","osm_id":5882437006}},{"type":"Feature","geometry":{"type":"Point","coordinates":[-4.4259478,47.985399]},"properties":{"category":"bakery","name":"Le fournil de Liloo","opening_hours":"Mo-Fr 07:15-19:00; Sa 07:15-13:00,15:30-19:00; Su 07:15-13:00","osm_id":7380901193}}]}