{"type":"FeatureCollection","features":[{"type":"Feature","geometry":{"type":"Point","coordinates":[6.9269549,48.0825993]},"properties":{"category":"bakery","name":"Le Fournil des Lacs","opening_hours":"Mo,Tu,Th-Sa 07:00-13:00,16:00-19:00; Su 07:00-12:30","phone":"+33 3 29 60 03 07","osm_id":1962279907}},{"type":"Feature","geometry":{"type":"Point","coordinates":[6.9180653,48.0834293]},"properties":{"category":"shop","name":"O2 Sports","opening_hours":"Tu-We 10:00-12:00,14:00-18:30; Th 10:00-12:00; Fr-Sa 10:00-12:00, 14:00-18:30","phone":"+33 3 29 55 28 66","osm_id":2790198857}}]}