{"type":"FeatureCollection","features":[{"type":"Feature","geometry":{"type":"Point","coordinates":[-0.6418084,48.0842258]},"properties":{"category":"bakery","name":"Maudet Jean Christophe","osm_id":3396513615}},{"type":"Feature","geometry":{"type":"Point","coordinates":[-0.6406718,48.0843469]},"properties":{"category":"bakery","name":"La Petite Tartine","osm_id":3855234051}},{"type":"Feature","geometry":{"type":"Point","coordinates":[-0.6952843,48.0750087]},"properties":{"category":"compressed_air","osm_id":13875858041}}]}