{"type":"FeatureCollection","features":[{"type":"Feature","geometry":{"type":"Point","coordinates":[-4.085822,48.0177288]},"properties":{"category":"shop","name":"Trek","opening_hours":"Tu-Sa 09:30-12:00,14:00-19:00","phone":"+33 2 98 64 39 68","osm_id":2521387637}},{"type":"Feature","geometry":{"type":"Point","coordinates":[-4.0852983,48.018461]},"properties":{"category":"shop","name":"Technic Bike","opening_hours":"Tu-Sa 10:00-19:00","phone":"+33 2 98 75 09 52","osm_id":2521387650}},{"type":"Feature","geometry":{"type":"Point","coordinates":[-4.0938862,48.0030146]},"properties":{"category":"repair","opening_hours":"24/7","osm_id":13898896163}}]}