{"type":"FeatureCollection","features":[{"type":"Feature","geometry":{"type":"Point","coordinates":[0.3223019,48.0139314]},"properties":{"category":"bakery","name":"Maison Bécam","opening_hours":"06:30-20:00","website":"https://maisonbecam.com/","osm_id":3815591216}},{"type":"Feature","geometry":{"type":"Point","coordinates":[0.3322847,48.0263467]},"properties":{"category":"bakery","name":"Aux délices de Champagné","opening_hours":"Tu-Sa 06:30-13:30,15:30-19:00; Su 07:00-13:00","osm_id":4246655297}},{"type":"Feature","geometry":{"type":"Point","coordinates":[0.3814182,48.0304122]},"properties":{"category":"bakery","name":"La Pétrie","osm_id":9932661812}},{"type":"Feature","geometry":{"type":"Point","coordinates":[0.3330271,48.0258515]},"properties":{"category":"bakery","osm_id":13069759122}}]}