{"type":"FeatureCollection","features":[{"type":"Feature","geometry":{"type":"Point","coordinates":[0.2719665,48.0142352]},"properties":{"category":"bakery","name":"Délices d'Artisan","opening_hours":"Mo-Sa 07:00-13:30,15:00-19:00; Tu off; Su 07:00-13:00","phone":"+33 2 43 89 60 48","osm_id":1295097142}},{"type":"Feature","geometry":{"type":"Point","coordinates":[0.2723749,48.0139048]},"properties":{"category":"bakery","name":"Maison Métivier","phone":"+33 2 43 89 60 52","osm_id":1295097144}},{"type":"Feature","geometry":{"type":"Point","coordinates":[0.2148903,48.016322]},"properties":{"category":"bakery","name":"Les Délices des Maillets","osm_id":1384582918}},{"type":"Feature","geometry":{"type":"Point","coordinates":[0.2392269,48.0252389]},"properties":{"category":"bakery","name":"Le Fournil de la Pointe","opening_hours":"Mo-Fr 07:30-19:30; Sa 08:00-19:30","osm_id":3248144031}},{"type":"Feature","geometry":{"type":"Point","coordinates":[0.2030607,48.0243186]},"properties":{"category":"bakery","osm_id":4933829348}},{"type":"Feature","geometry":{"type":"Point","coordinates":[0.202224,48.0152814]},"properties":{"category":"bakery","opening_hours":"Tu-Fr 07:00-13:30,14:30-19:30; Sa-Su 07:00-19:30","osm_id":5225055530}},{"type":"Feature","geometry":{"type":"Point","coordinates":[0.2403114,48.034458]},"properties":{"category":"bakery","name":"Maison Tollet","opening_hours":"Mo-Sa 07:00-13:30,15:00-19:30; Tu off; Su 07:00-13:00","phone":"+33 2 43 76 51 25","website":"https://www.maisontollet.fr/","osm_id":6492540400}},{"type":"Feature","geometry":{"type":"Point","coordinates":[0.2527814,48.0547049]},"properties":{"category":"bakery","name":"Paul","opening_hours":"Mo-Su 07:00-22:00","phone":"+33 2 43 76 18 96","website":"https://www.paul.fr/stores/paul_le_mans_sud","osm_id":6851310613}},{"type":"Feature","geometry":{"type":"Point","coordinates":[0.2064369,48.0080209]},"properties":{"category":"bakery","name":"Aux saveurs des pains","opening_hours":"Tu-Sa 07:00-13:30,15:30-19:30; Su 07:00-13:30","phone":"+33 2 43 81 54 94","website":"https://www.auxsaveursdespains.com","osm_id":8279114649}},{"type":"Feature","geometry":{"type":"Point","coordinates":[0.2052621,48.0025783]},"properties":{"category":"bakery","name":"Aux Délices du Mans","opening_hours":"Mo-Fr 07:00-13:45,15:00-19:45; Sa 07:00-13:45,15:00-19:00; Su off","osm_id":9849062154}},{"type":"Feature","geometry":{"type":"Point","coordinates":[0.226876,48.0163423]},"properties":{"category":"bakery","name":"Les Délices du Villaret","opening_hours":"Tu-Sa 07:00-13:00,15:00-19:30; Su 07:30-13:00","phone":"+33 2 43 81 63 26","osm_id":9861239183}},{"type":"Feature","geometry":{"type":"Point","coordinates":[0.2059548,48.0122205]},"properties":{"category":"bakery","name":"Marignier - Pâtissier boulanger","opening_hours":"Mo-Sa 07:30-13:15,15:00-19:30; Tu off; Su 07:30-19:00","phone":"+33 2 43 81 47 64","osm_id":9861470468}},{"type":"Feature","geometry":{"type":"Point","coordinates":[0.2163175,48.0088394]},"properties":{"category":"bakery","name":"Le Fournil de Prémartine","opening_hours":"We-Mo 06:30-20:00","phone":"+33243816838","osm_id":9861470469}},{"type":"Feature","geometry":{"type":"Point","coordinates":[0.2017423,48.027805]},"properties":{"category":"bakery","name":"Boulangerie Ange","opening_hours":"Mo-Sa 06:30-20:00","osm_id":9886044135}},{"type":"Feature","geometry":{"type":"Point","coordinates":[0.2403635,48.0330704]},"properties":{"category":"bakery","name":"Aux délices de Sargé","opening_hours":"closed","phone":"+33 2 43 76 57 50","osm_id":9934503193}},{"type":"Feature","geometry":{"type":"Point","coordinates":[0.2150246,48.0166644]},"properties":{"category":"bakery","name":"Au fil des Saveurs","opening_hours":"Mo-Fr 07:00-19:30; Sa 07:00-13:30","phone":"+33 2 43 81 75 04","osm_id":11728817597}},{"type":"Feature","geometry":{"type":"Point","coordinates":[0.2130425,48.0203028]},"properties":{"category":"bakery","name":"Le Fournil de Bellevue","osm_id":12145075162}},{"type":"Feature","geometry":{"type":"Point","coordinates":[0.2044795,48.0246523]},"properties":{"category":"bakery","name":"Aux saveurs de Coulaines","osm_id":13119905702}}]}