{"type":"FeatureCollection","features":[{"type":"Feature","geometry":{"type":"Point","coordinates":[1.3285336,48.0708106]},"properties":{"category":"bakery","name":"Maison Torfs","opening_hours":"Mo-Fr 07:00-13:15,15:00-19:30; Sa 07:00-13:00,15:00-19:30; Su 07:00-13:00,15:00-18:30","osm_id":4879808219}},{"type":"Feature","geometry":{"type":"Point","coordinates":[1.3351652,48.0894225]},"properties":{"category":"bakery","name":"Marie Blachère","opening_hours":"Mo-Sa 06:30-19:30","phone":"+33 2 37 47 89 24","website":"https://boulangeries.marieblachere.com/fr/france-FR/5398/marie-blachere-chateaudun/details","osm_id":5666102078}},{"type":"Feature","geometry":{"type":"Point","coordinates":[1.3480506,48.0789879]},"properties":{"category":"bakery","opening_hours":"Tu-Fr 06:30-20:00; Sa,Su 07:00-20:00","osm_id":11097167662}},{"type":"Feature","geometry":{"type":"Point","coordinates":[1.3395208,48.0713992]},"properties":{"category":"bakery","name":"Au pain de Flora","opening_hours":"Tu-Sa 07:00-13:00,15:00-19:30; Su 07:00-13:00","osm_id":12017249190}},{"type":"Feature","geometry":{"type":"Point","coordinates":[1.33366,48.0623927]},"properties":{"category":"bakery","name":"Boulangerie Ange","opening_hours":"Mo-Sa 06:30-20:00; Su 08:00-13:00","phone":"+33 2 37 47 49 40","website":"https://www.boulangerie-ange.fr/stores/boulangerie-ange-chateaudun/","osm_id":12020206857}},{"type":"Feature","geometry":{"type":"Point","coordinates":[1.331681,48.0706616]},"properties":{"category":"bakery","name":"La Croquise","osm_id":13069326591}}]}