{"type":"FeatureCollection","features":[{"type":"Feature","geometry":{"type":"Point","coordinates":[-4.5552546,48.0278591]},"properties":{"category":"shop","osm_id":7043882263}},{"type":"Feature","geometry":{"type":"Point","coordinates":[-4.5387315,48.021904]},"properties":{"category":"shop","name":"Adomi Cycle l'atelier","opening_hours":"Mo-Fr 09:00-19:00","phone":"+33 6 68 82 96 20","osm_id":10721095829}},{"type":"Feature","geometry":{"type":"Point","coordinates":[-4.5376884,48.0281448]},"properties":{"category":"shop","name":"la Cyclothéque","opening_hours":"Mo-Su 09:30-18:30","phone":"+33 667012503","osm_id":11862770183}}]}