{"type":"FeatureCollection","features":[{"type":"Feature","geometry":{"type":"Point","coordinates":[-2.9650138,48.0678052]},"properties":{"category":"bakery","name":"La Mie Câline","opening_hours":"Mo-Su 07:00-19:30","osm_id":3353621831}},{"type":"Feature","geometry":{"type":"Point","coordinates":[-2.9930998,48.0844818]},"properties":{"category":"bakery","osm_id":3684496557}},{"type":"Feature","geometry":{"type":"Point","coordinates":[-2.9656673,48.079983]},"properties":{"category":"bakery","name":"Goûts et saveurs","opening_hours":"Mo-Sa 04:00-20:00","phone":"+33 2 97 07 62 54","osm_id":7342537942}},{"type":"Feature","geometry":{"type":"Point","coordinates":[-2.9655105,48.0580355]},"properties":{"category":"bakery","name":"Festival des pains","osm_id":11244270292}},{"type":"Feature","geometry":{"type":"Point","coordinates":[-2.9659814,48.0657167]},"properties":{"category":"bakery","name":"Maison Marguerite","phone":"+33 2 97 25 43 17","osm_id":11300010669}},{"type":"Feature","geometry":{"type":"Point","coordinates":[-2.9602165,48.04246]},"properties":{"category":"bakery","name":"Boulangerie Marie Blachère","opening_hours":"Mo-Sa 07:00-19:30","osm_id":11432743869}},{"type":"Feature","geometry":{"type":"Point","coordinates":[-2.9646903,48.0679494]},"properties":{"category":"bakery","name":"La Loroise","osm_id":12971285674}},{"type":"Feature","geometry":{"type":"Point","coordinates":[-2.9743304,48.0218826]},"properties":{"category":"repair","osm_id":12974071788}},{"type":"Feature","geometry":{"type":"Point","coordinates":[-2.9590143,48.06923]},"properties":{"category":"bakery","name":"Boulangerie Louise","opening_hours":"Mo-Sa 07:30-20:00","phone":"+33297085760","website":"https://www.boulangerielouise.com/boulangerie/boulangerie-louise/","osm_id":12995643010}},{"type":"Feature","geometry":{"type":"Point","coordinates":[-2.9705564,48.0588229]},"properties":{"category":"bakery","name":"Le Fournil de Bolumet","opening_hours":"Tu-Fr 06:30-18:45; Sa 06:30-18:00; Su,PH 06:30-12:30","osm_id":13275238214}},{"type":"Feature","geometry":{"type":"Point","coordinates":[-2.959564,48.0514743]},"properties":{"category":"bakery","name":"Maison Marguerite","osm_id":14038600742}},{"type":"Feature","geometry":{"type":"Point","coordinates":[-2.9438934,48.0857321]},"properties":{"category":"repair","osm_id":14064067742}}]}