{"type":"FeatureCollection","features":[{"type":"Feature","geometry":{"type":"Point","coordinates":[7.1379881,48.0409374]},"properties":{"category":"bakery","name":"Le Fournil du Marché","osm_id":1671207960}},{"type":"Feature","geometry":{"type":"Point","coordinates":[7.1374795,48.0409415]},"properties":{"category":"bakery","name":"Meyer","osm_id":1671207962}},{"type":"Feature","geometry":{"type":"Point","coordinates":[7.1097751,48.0516071]},"properties":{"category":"bakery","name":"Boulangerie Cloess","osm_id":1775094362}},{"type":"Feature","geometry":{"type":"Point","coordinates":[7.102628,48.0678488]},"properties":{"category":"bakery","name":"Boulangerie Schaffhauser Laurent","opening_hours":"Mo,Tu,Th-Sa 06:30-13:00; Su 07:00-12:00","phone":"+33 3 89 77 07 16","osm_id":3737275635}},{"type":"Feature","geometry":{"type":"Point","coordinates":[7.1721823,48.0425657]},"properties":{"category":"bakery","name":"Boulangerie Chez Nous","opening_hours":"Mo,Tu,Th,Fr 06:00-18:30; We 06:00-14:00; Sa 06:00-13:00; Su 07:00-12:00","osm_id":4669814540}},{"type":"Feature","geometry":{"type":"Point","coordinates":[7.1333716,48.0417276]},"properties":{"category":"bakery","name":"Blé et Tradition","opening_hours":"Tu-Fr 07:00-13:00, 14:30-18:00; Sa 07:00-17:00","phone":"+33 3 89 77 37 58","website":"https://boulangerie-ble-et-tradition.fr/","osm_id":6263144603}},{"type":"Feature","geometry":{"type":"Point","coordinates":[7.1317845,48.0418898]},"properties":{"category":"bakery","name":"Virginie et Hervé Fleith","opening_hours":"Mo off; Tu-Fr 06:00-12:30, 15:30-18:30; Sa 06:00-12:30; Su 07:00-12:00","osm_id":6269271420}},{"type":"Feature","geometry":{"type":"Point","coordinates":[7.1401956,48.0393309]},"properties":{"category":"shop","name":"Werey MX","osm_id":7442058587}},{"type":"Feature","geometry":{"type":"Point","coordinates":[7.1353252,48.0414403]},"properties":{"category":"bakery","name":"Christian Heinrich","osm_id":7448377360}},{"type":"Feature","geometry":{"type":"Point","coordinates":[7.1343682,48.0408444]},"properties":{"category":"bakery","name":"L'enfarine","opening_hours":"Tu-Sa 06:30-18:00","website":"https://lenfarine.fr","osm_id":7877408053}},{"type":"Feature","geometry":{"type":"Point","coordinates":[7.1129276,48.0498722]},"properties":{"category":"bakery","name":"Au petit schlitteur","opening_hours":"Mo,We-Sa 04:30-19:00; Su 06:00-12:00","osm_id":12334189142}},{"type":"Feature","geometry":{"type":"Point","coordinates":[7.1672069,48.0455587]},"properties":{"category":"repair","osm_id":13283672703}},{"type":"Feature","geometry":{"type":"Point","coordinates":[7.1553402,48.0419194]},"properties":{"category":"bakery","name":"Heinrich","opening_hours":"Tu-Fr 06:00-19:00; Sa 06:00-17:00; Su 07:00-12:00","phone":"+33 3 89 30 04 47","website":"https://www.boulangerie-heinrich.fr","osm_id":13447141567}}]}