{"type":"FeatureCollection","features":[{"type":"Feature","geometry":{"type":"Point","coordinates":[1.8643287,48.0813056]},"properties":{"category":"compressed_air","osm_id":4880455716}},{"type":"Feature","geometry":{"type":"Point","coordinates":[1.877767,48.0816462]},"properties":{"category":"bakery","osm_id":4939634222}},{"type":"Feature","geometry":{"type":"Point","coordinates":[1.874239,48.0296384]},"properties":{"category":"bakery","osm_id":6139964315}},{"type":"Feature","geometry":{"type":"Point","coordinates":[1.8652041,48.0820168]},"properties":{"category":"bakery","name":"Le secret du moulin","opening_hours":"Mo-Sa 07:30-19:00","osm_id":11145632497}}]}