{"type":"FeatureCollection","features":[{"type":"Feature","geometry":{"type":"Point","coordinates":[-3.4898183,48.0329968]},"properties":{"category":"bakery","name":"Ty Fourn","opening_hours":"Tu-Sa 07:15-18:45; Su 07:30-13:00","osm_id":1011379089}},{"type":"Feature","geometry":{"type":"Point","coordinates":[-3.4922372,48.0336802]},"properties":{"category":"bakery","osm_id":2830302201}},{"type":"Feature","geometry":{"type":"Point","coordinates":[-3.4098763,48.0604171]},"properties":{"category":"bakery","name":"Boulangerie / Patisserie","opening_hours":"Mo-We 07:30-12:30,15:30-19:30; Fr-Sa 07:30-12:30,15:30-19:30; Su 07:30-13:00","phone":"+33 2 97 34 62 73","website":"https://www.tourismepaysroimorvan.com/au-panier-gourmand/priziac/tabid/7621/fromtabid/7013/offreid/7d734012-f312-45db-8e08-0c4cb27a0021/detail-commerces.aspx","osm_id":4466638949}},{"type":"Feature","geometry":{"type":"Point","coordinates":[-3.4902496,48.0330452]},"properties":{"category":"bakery","name":"Le Pain de la Semaine * la boutique","opening_hours":"Tu-We 12:00-18:30; Th 12:00-15:00; Fr-Sa 12:00-18:30","phone":"+33 2 56 33 61 00","website":"http://www.lepaindelasemaine.bzh/","osm_id":12804828274}}]}