{"type":"FeatureCollection","features":[{"type":"Feature","geometry":{"type":"Point","coordinates":[6.7171027,48.0087494]},"properties":{"category":"bakery","name":"Boulangerie Pinot","opening_hours":"Mo-We, Fr-Sa 06:00-19:00; Su 07:00-13:00","phone":"+33 3 29 24 70 23","website":"https://boulangerieperrin.business.site/","osm_id":827505721}},{"type":"Feature","geometry":{"type":"Point","coordinates":[6.7895209,48.0786162]},"properties":{"category":"bakery","name":"Au Fournil de Fred","osm_id":1802400580}},{"type":"Feature","geometry":{"type":"Point","coordinates":[6.7104962,48.0583567]},"properties":{"category":"bakery","name":"Haxaire Boulangerie","phone":"+33 3 29 61 13 24","osm_id":1953464108}},{"type":"Feature","geometry":{"type":"Point","coordinates":[6.7187502,48.008709]},"properties":{"category":"bakery","name":"Boulangerie Pâtisserie Albeissen","opening_hours":"Tu-Su 06:00-20:00","phone":"+33 3 29 24 70 21","osm_id":2410671443}},{"type":"Feature","geometry":{"type":"Point","coordinates":[6.7394362,48.0836345]},"properties":{"category":"bakery","osm_id":2585460932}},{"type":"Feature","geometry":{"type":"Point","coordinates":[6.7686568,48.0852926]},"properties":{"category":"bakery","name":"Fournil des Lys","osm_id":2585700822}},{"type":"Feature","geometry":{"type":"Point","coordinates":[6.7880638,48.0223363]},"properties":{"category":"bakery","name":"Boulangerie Pâtisserie Valdenaire","opening_hours":"Mo, We-Su 06:30-20:00","phone":"+33 329 617 761","osm_id":4680764589}},{"type":"Feature","geometry":{"type":"Point","coordinates":[6.7169615,48.00823]},"properties":{"category":"bakery","name":"Tassin","osm_id":5062465484}},{"type":"Feature","geometry":{"type":"Point","coordinates":[6.70305,48.0248961]},"properties":{"category":"shop","name":"Mil'cycles","opening_hours":"Tu-Sa 09:00-12:00,14:00-18:00","phone":"+33 3 29 61 71 70","osm_id":5297544921}}]}