{"type":"FeatureCollection","features":[{"type":"Feature","geometry":{"type":"Point","coordinates":[7.2044874,48.0522325]},"properties":{"category":"bakery","name":"Artisan Boulanger","opening_hours":"Mo, Th, Fr 06:00-12:30, 15:00-18:30; We, Sa 06:00-18:30, Su 07:00-13:00","osm_id":2442569316}},{"type":"Feature","geometry":{"type":"Point","coordinates":[7.2917988,48.0724211]},"properties":{"category":"bakery","name":"Boulangerie Patisserie Stéphane Schwartz","opening_hours":"Mo-Fr 06:00-18:30; Sa 06:00-15:00; Su 07:00-12:00","phone":"+33 3 89 27 76 20","osm_id":3803110885}},{"type":"Feature","geometry":{"type":"Point","coordinates":[7.2903259,48.072754]},"properties":{"category":"bakery","osm_id":3803110886}}]}