{"type":"FeatureCollection","features":[{"type":"Feature","geometry":{"type":"Point","coordinates":[-1.6359395,48.0941982]},"properties":{"category":"bakery","name":"Respire","opening_hours":"Mo-Fr 07:00-19:00; Su 07:30-14:00","osm_id":235045118}},{"type":"Feature","geometry":{"type":"Point","coordinates":[-1.6161512,48.0881951]},"properties":{"category":"bakery","name":"Boulangerie-Pâtisserie Chicherie","osm_id":257377114}},{"type":"Feature","geometry":{"type":"Point","coordinates":[-1.6405743,48.0914722]},"properties":{"category":"bakery","name":"Le Fournil de pierre","opening_hours":"Mo-Fr 07:30-19:30; Sa 07:30-19:00","osm_id":267897460}},{"type":"Feature","geometry":{"type":"Point","coordinates":[-1.6520271,48.0962514]},"properties":{"category":"bakery","name":"Toast","opening_hours":"Tu-Fr 07:00-19:45; Sa 07:00-19:15","phone":"+33 2 99 50 72 70","osm_id":310056445}},{"type":"Feature","geometry":{"type":"Point","coordinates":[-1.6200558,48.0875068]},"properties":{"category":"bakery","name":"Simon & Simon","opening_hours":"Mo-Fr 06:30-20:00, Sa 07:00-19:30","phone":"+33 2 99 41 58 12","osm_id":561288496}},{"type":"Feature","geometry":{"type":"Point","coordinates":[-1.6628732,48.0955482]},"properties":{"category":"bakery","name":"L'attrape-douceurs","opening_hours":"Mo,We-Sa 07:00-19:30; Su,Tu 07:00-13:00","phone":"+33 2 99 50 10 65","website":"https://www.attrape-douceurs.fr/","osm_id":1135946487}},{"type":"Feature","geometry":{"type":"Point","coordinates":[-1.6531086,48.0993354]},"properties":{"category":"bakery","name":"Maison Fontaine","opening_hours":"Mo-Sa 06:45-19:30; Tu off; Su 07:00-13:00","phone":"+33 2 99 50 86 84","osm_id":1234440455}},{"type":"Feature","geometry":{"type":"Point","coordinates":[-1.6720998,48.0935364]},"properties":{"category":"bakery","name":"Boulangerie Lévêque","opening_hours":"Mo-Fr 07:00-13:30,15:00-19:30; Sa 07:00-13:00","phone":"+33 9 61 20 14 69","osm_id":1235770660}},{"type":"Feature","geometry":{"type":"Point","coordinates":[-1.6712515,48.0937644]},"properties":{"category":"bakery","name":"La Fringale","opening_hours":"Mo-Fr 07:30-19:30; Sa 07:30-16:30","phone":"+33 2 99 32 39 81","osm_id":1418201325}},{"type":"Feature","geometry":{"type":"Point","coordinates":[-1.6678383,48.0903567]},"properties":{"category":"bakery","name":"Le Fournil de Gaëtan","opening_hours":"Mo,Tu,Th,Fr 07:00-13:30,15:00-19:00; Su 07:30-12:30","phone":"+33 2 99 50 46 28","osm_id":1448463785}},{"type":"Feature","geometry":{"type":"Point","coordinates":[-1.6032006,48.0443563]},"properties":{"category":"bakery","name":"La Mie du Pain","osm_id":1711885335}},{"type":"Feature","geometry":{"type":"Point","coordinates":[-1.6999646,48.0092652]},"properties":{"category":"bakery","name":"La Minopain","phone":"+33 2 90 78 57 58","osm_id":1799449386}},{"type":"Feature","geometry":{"type":"Point","coordinates":[-1.6679662,48.0859979]},"properties":{"category":"bakery","name":"Mille & un Délices","opening_hours":"Tu-Sa 07:00-19:30; Su 07:00-13:00","osm_id":2941064679}},{"type":"Feature","geometry":{"type":"Point","coordinates":[-1.6911086,48.0939023]},"properties":{"category":"bakery","name":"Maison Roignant","opening_hours":"Mo-Fr 06:30-19:30; Sa 07:30-19:00","osm_id":3369323211}},{"type":"Feature","geometry":{"type":"Point","coordinates":[-1.6925186,48.0910239]},"properties":{"category":"bakery","name":"L'attrape Douceurs","opening_hours":"Mo-Sa 06:30-19:30; Su 06:30-19:00","phone":"+33 2 99 31 81 82","website":"https://www.attrape-douceurs.fr/","osm_id":3497390209}},{"type":"Feature","geometry":{"type":"Point","coordinates":[-1.6930092,48.0851426]},"properties":{"category":"bakery","name":"Aux Saveurs de Bréquigny","opening_hours":"Mo-Fr 06:30-19:30; Sa 07:00-13:30; Su 07:00-13:00","phone":"+33 9 87 58 51 77","website":"https://www.auxsaveursdebrequigny.fr/","osm_id":3570087071}},{"type":"Feature","geometry":{"type":"Point","coordinates":[-1.6254267,48.0883507]},"properties":{"category":"bakery","name":"La Fabrique Chantepie","opening_hours":"Mo-Sa 07:30-19:00","phone":"+33 2 23 62 79 06","website":"https://la-fabrique-chantepie.eatbu.com","osm_id":3880840096}},{"type":"Feature","geometry":{"type":"Point","coordinates":[-1.6757621,48.0864336]},"properties":{"category":"bakery","name":"Le P'ti Fournil Gourmand","phone":"+33 2 99 51 56 64","osm_id":4142925844}},{"type":"Feature","geometry":{"type":"Point","coordinates":[-1.6235167,48.0838504]},"properties":{"category":"bakery","name":"Tradition Salé Sucré","opening_hours":"Mo-Sa 06:30-18:00","phone":"+33 2 99 32 28 64","osm_id":4158978561}},{"type":"Feature","geometry":{"type":"Point","coordinates":[-1.6951058,48.0866752]},"properties":{"category":"bakery","name":"Delphine et Bertrand Faisant","phone":"+33 2 90 78 23 38","osm_id":4201136449}},{"type":"Feature","geometry":{"type":"Point","coordinates":[-1.6814441,48.0933589]},"properties":{"category":"shop","name":"Roue Libre Électrique","opening_hours":"We-Sa 10:00-18:00 open \"Sur rendez-vous\"","phone":"+33 7 68 35 60 48","osm_id":4225487185}},{"type":"Feature","geometry":{"type":"Point","coordinates":[-1.6208462,48.0889889]},"properties":{"category":"bakery","name":"Boulangerie Pinault","opening_hours":"Tu-Sa 07:00-20:00; Su 07:00-13:00","phone":"+33 2 99 41 41 74","osm_id":4293633233}},{"type":"Feature","geometry":{"type":"Point","coordinates":[-1.6747397,48.0973141]},"properties":{"category":"bakery","name":"Boulangerie Pasquier","opening_hours":"Mo-Fr 07:00-19:30","phone":"+33 2 99 50 01 93","website":"http://www.boulangerie-patisserie-pasquier.fr","osm_id":4715493938}},{"type":"Feature","geometry":{"type":"Point","coordinates":[-1.6749123,48.08748]},"properties":{"category":"repair","opening_hours":"24/7","osm_id":5100028420,"has_compressed_air":true}},{"type":"Feature","geometry":{"type":"Point","coordinates":[-1.6516115,48.0201163]},"properties":{"category":"bakery","name":"Boulangerie Thomazon","osm_id":5267955251}},{"type":"Feature","geometry":{"type":"Point","coordinates":[-1.6606518,48.0176017]},"properties":{"category":"bakery","name":"Chez Christelle & Alban","osm_id":5316454257}},{"type":"Feature","geometry":{"type":"Point","coordinates":[-1.6765798,48.084034]},"properties":{"category":"compressed_air","osm_id":5857158672}},{"type":"Feature","geometry":{"type":"Point","coordinates":[-1.6749076,48.0972014]},"properties":{"category":"repair","opening_hours":"24/7","osm_id":5927095217}},{"type":"Feature","geometry":{"type":"Point","coordinates":[-1.6945805,48.0989172]},"properties":{"category":"compressed_air","opening_hours":"24/7","osm_id":6239761160}},{"type":"Feature","geometry":{"type":"Point","coordinates":[-1.6998625,48.0966848]},"properties":{"category":"shop","name":"La Petite Rennes","opening_hours":"Tu 14:00-17:30; We-Sa 14:00-19:00, We[3] 19:00-22:00 open \"for women, trans, intersex, or self-identifying persons other than as a cisgender man\"; We[1],We[-1] 14:00-22:00","phone":"+33984363109","osm_id":6240181744}},{"type":"Feature","geometry":{"type":"Point","coordinates":[-1.6977121,48.0975851]},"properties":{"category":"bakery","name":"Boulangerie Brodin","opening_hours":"Mo-Fr 07:00-19:30; Sa 07:00-13:30","osm_id":9139763715}},{"type":"Feature","geometry":{"type":"Point","coordinates":[-1.6107383,48.0553218]},"properties":{"category":"compressed_air","osm_id":9758308828}},{"type":"Feature","geometry":{"type":"Point","coordinates":[-1.6770461,48.0826036]},"properties":{"category":"repair","osm_id":10103646312}},{"type":"Feature","geometry":{"type":"Point","coordinates":[-1.6986427,48.0912544]},"properties":{"category":"repair","opening_hours":"24/7","osm_id":10995356924}},{"type":"Feature","geometry":{"type":"Point","coordinates":[-1.6441464,48.0872969]},"properties":{"category":"compressed_air","osm_id":11077215300}},{"type":"Feature","geometry":{"type":"Point","coordinates":[-1.6346012,48.0966727]},"properties":{"category":"shop","name":"Vélo Chéri","opening_hours":"Tu-Sa 10:00-14:00,16:00-19:00","phone":"+33 2 99 41 15 32","osm_id":11889166681}},{"type":"Feature","geometry":{"type":"Point","coordinates":[-1.6611207,48.0866753]},"properties":{"category":"compressed_air","osm_id":12279150111}},{"type":"Feature","geometry":{"type":"Point","coordinates":[-1.6405916,48.0968443]},"properties":{"category":"bakery","name":"Boulangerie Ange","opening_hours":"Mo-Sa 07:00-20:00; Su off","phone":"+33 2 99 34 77 86","website":"https://www.boulangerie-ange.fr/stores/boulangerie-ange-rennes-chateaugiron/","osm_id":12387956936}},{"type":"Feature","geometry":{"type":"Point","coordinates":[-1.6655031,48.0422677]},"properties":{"category":"bakery","name":"Boulangerie du Moulin","osm_id":12574642139}},{"type":"Feature","geometry":{"type":"Point","coordinates":[-1.6263262,48.0904013]},"properties":{"category":"repair","osm_id":12691891073}},{"type":"Feature","geometry":{"type":"Point","coordinates":[-1.6667842,48.0419669]},"properties":{"category":"bakery","name":"Boulangerie Bouetard","osm_id":12915221263}},{"type":"Feature","geometry":{"type":"Point","coordinates":[-1.6681088,48.0440814]},"properties":{"category":"compressed_air","osm_id":13068312176}},{"type":"Feature","geometry":{"type":"Point","coordinates":[-1.6960862,48.0852777]},"properties":{"category":"compressed_air","osm_id":13376040222}},{"type":"Feature","geometry":{"type":"Point","coordinates":[-1.661662,48.0329574]},"properties":{"category":"bakery","name":"Chez PP","opening_hours":"Mo-Fr 07:00-19:30; Sa 07:30-14:30","phone":"+33 2 22 66 98 76","osm_id":13651143955}},{"type":"Feature","geometry":{"type":"Point","coordinates":[-1.6799891,48.0990667]},"properties":{"category":"bakery","name":"Breadly & Co","opening_hours":"Mo-Sa 07:30-19:00","osm_id":13969026337}}]}