{"type":"FeatureCollection","features":[{"type":"Feature","geometry":{"type":"Point","coordinates":[3.0595935,48.040651]},"properties":{"category":"bakery","name":"BOLANGERIE LEVRETTE","osm_id":11293539910}},{"type":"Feature","geometry":{"type":"Point","coordinates":[3.0569289,48.0404914]},"properties":{"category":"bakery","name":"Délices des Anges","osm_id":11293542530}},{"type":"Feature","geometry":{"type":"Point","coordinates":[3.0593392,48.040969]},"properties":{"category":"bakery","osm_id":11293585239}}]}