{"type":"FeatureCollection","features":[{"type":"Feature","geometry":{"type":"Point","coordinates":[-2.7519467,48.0694417]},"properties":{"category":"bakery","name":"La Baguettine","opening_hours":"Tu-Sa 07:00-19:00; Mo 07:00-12:45","phone":"+33 2 97 51 50 34","osm_id":1338445043}},{"type":"Feature","geometry":{"type":"Point","coordinates":[-2.7525902,48.0690831]},"properties":{"category":"bakery","name":"Josso","osm_id":6499599496}},{"type":"Feature","geometry":{"type":"Point","coordinates":[-2.7563618,48.0737714]},"properties":{"category":"repair","osm_id":9897381243}}]}