{"type":"FeatureCollection","features":[{"type":"Feature","geometry":{"type":"Point","coordinates":[-1.7889732,48.0527175]},"properties":{"category":"bakery","name":"La Fabrique","osm_id":285715244}},{"type":"Feature","geometry":{"type":"Point","coordinates":[-1.7903262,48.0536444]},"properties":{"category":"bakery","name":"La mie du pain","osm_id":285715245}},{"type":"Feature","geometry":{"type":"Point","coordinates":[-1.7903206,48.0526466]},"properties":{"category":"bakery","name":"Boulangerie Chocolaterie","osm_id":288040700}},{"type":"Feature","geometry":{"type":"Point","coordinates":[-1.7120898,48.0474584]},"properties":{"category":"shop","name":"Center Cycle Sport","opening_hours":"Tu-Fr 09:00-12:00, 14:00-19:00; Sa 09:00-12:00, 14:00-18:00","phone":"+332 99 05 09 70","website":"https://www.centercyclesport.com/","osm_id":320620919}},{"type":"Feature","geometry":{"type":"Point","coordinates":[-1.7135789,48.0814629]},"properties":{"category":"bakery","name":"La boulangerie de Camille","opening_hours":"Mo-Sa 07:00-19:45","phone":"+33 2 99 31 07 56","osm_id":646731033}},{"type":"Feature","geometry":{"type":"Point","coordinates":[-1.7475327,48.0243824]},"properties":{"category":"bakery","name":"Augustin","osm_id":1421211294}},{"type":"Feature","geometry":{"type":"Point","coordinates":[-1.7469099,48.023987]},"properties":{"category":"bakery","name":"La Fournée Bruzoise","osm_id":1421211295}},{"type":"Feature","geometry":{"type":"Point","coordinates":[-1.7430642,48.0225132]},"properties":{"category":"bakery","name":"Maison Thetiot","opening_hours":"Tu-Fr 07:00-19:00; Sa 07:00-18:00","osm_id":1421211299}},{"type":"Feature","geometry":{"type":"Point","coordinates":[-1.7061427,48.0415385]},"properties":{"category":"bakery","name":"Valérie et Frédéric Aubert","osm_id":1488485106}},{"type":"Feature","geometry":{"type":"Point","coordinates":[-1.7383097,48.0234345]},"properties":{"category":"bakery","name":"La Farandole des Pains","osm_id":1721457779}},{"type":"Feature","geometry":{"type":"Point","coordinates":[-1.7482611,48.0248198]},"properties":{"category":"bakery","name":"La Boulangerie des Gamins","osm_id":1741194706}},{"type":"Feature","geometry":{"type":"Point","coordinates":[-1.7588301,48.029506]},"properties":{"category":"bakery","name":"Boulangerie du Vert Buisson","opening_hours":"Mo-Fr 06:45-18:30; Sa 07:00-17:30; Su 07:30-13:00","phone":"+33 2 99 52 62 67","osm_id":1741439898}},{"type":"Feature","geometry":{"type":"Point","coordinates":[-1.7759193,48.0005585]},"properties":{"category":"bakery","name":"Nadia & Yvan Bellego","osm_id":1870077868}},{"type":"Feature","geometry":{"type":"Point","coordinates":[-1.7054346,48.0938542]},"properties":{"category":"bakery","name":"Le Fournil de la Courrouze","opening_hours":"Mo-Fr 07:00-15:00","osm_id":2048702906}},{"type":"Feature","geometry":{"type":"Point","coordinates":[-1.70326,48.0135339]},"properties":{"category":"bakery","name":"Boulangerie Graine De Sarrazin","opening_hours":"Tu-Fr 07:00-14:00, 16:00-19:30; Sa 07:00-14:00; Su 07:00-13:00","phone":"+33 2 99 65 33 02","website":"https://www.franceboulangerie.fr/boulangeries/boulangerie-graine-de-sarrazin/","osm_id":2260626243}},{"type":"Feature","geometry":{"type":"Point","coordinates":[-1.7516686,48.0282622]},"properties":{"category":"compressed_air","opening_hours":"24/7","osm_id":2975215933,"has_compressed_air":true}},{"type":"Feature","geometry":{"type":"Point","coordinates":[-1.7055741,48.0422424]},"properties":{"category":"bakery","name":"Les délices d'Erwann","opening_hours":"Mo-Sa 07:00-19:30; We off; Su 07:00-13:30","phone":"+33 2 99 41 21 45","osm_id":3827450758}},{"type":"Feature","geometry":{"type":"Point","coordinates":[-1.7755087,48.001953]},"properties":{"category":"bakery","name":"Boulangerie du Pont de la Vilaine","opening_hours":"Tu-Fr 07:00-19:30; Sa 07:00-19:00; 2026 Jul 27-Aug 16 off","phone":"+33299422361","osm_id":5202719322}},{"type":"Feature","geometry":{"type":"Point","coordinates":[-1.712372,48.0419835]},"properties":{"category":"bakery","name":"Le Fournil du Callouët","opening_hours":"Mo-Fr 06:30-19:30; Sa 06:30-16:00","osm_id":6276654949}},{"type":"Feature","geometry":{"type":"Point","coordinates":[-1.751964,48.0246269]},"properties":{"category":"bakery","name":"Boulangerie Pâtisserie Corlay","opening_hours":"Mo,Tu,Th,Fr,Sa 07:00-13:30,15:00-19:30; Su 07:00-13:00","phone":"+33 2 99 01 62 75","osm_id":9320628497}},{"type":"Feature","geometry":{"type":"Point","coordinates":[-1.7964606,48.099581]},"properties":{"category":"repair","opening_hours":"24/7","osm_id":9987643137}},{"type":"Feature","geometry":{"type":"Point","coordinates":[-1.7127556,48.0475197]},"properties":{"category":"shop","name":"Center Cycle Vélos électriques & City","opening_hours":"Tu-Fr 09:00-12:00, 14:00-19:00; Sa 09:00-12:00, 14:00-18:00","phone":"+332 99 50 89 13","website":"https://www.centercyclesport.com/","osm_id":10037991819}},{"type":"Feature","geometry":{"type":"Point","coordinates":[-1.7130795,48.0821266]},"properties":{"category":"repair","opening_hours":"24/7","osm_id":10948798545}},{"type":"Feature","geometry":{"type":"Point","coordinates":[-1.7209761,48.0677095]},"properties":{"category":"repair","opening_hours":"24/7","osm_id":12241318812}},{"type":"Feature","geometry":{"type":"Point","coordinates":[-1.7040213,48.0913955]},"properties":{"category":"compressed_air","osm_id":12278178123}},{"type":"Feature","geometry":{"type":"Point","coordinates":[-1.7727613,48.0280367]},"properties":{"category":"repair","osm_id":12388393273}},{"type":"Feature","geometry":{"type":"Point","coordinates":[-1.7522581,48.028676]},"properties":{"category":"repair","osm_id":13529641683}},{"type":"Feature","geometry":{"type":"Point","coordinates":[-1.747278,48.0248347]},"properties":{"category":"repair","osm_id":14132966115}}]}