{"type":"FeatureCollection","features":[{"type":"Feature","geometry":{"type":"Point","coordinates":[-4.3268722,48.0926456]},"properties":{"category":"bakery","name":"Boulangerie des Plomarc'h","opening_hours":"Mo-Sa 06:15-19:30","phone":"+33 2 98 92 37 24","website":"https://www.kouign-douarnenez.com/","osm_id":480717254}},{"type":"Feature","geometry":{"type":"Point","coordinates":[-4.3269661,48.0941467]},"properties":{"category":"bakery","name":"Fournil des Halles","osm_id":480717264}},{"type":"Feature","geometry":{"type":"Point","coordinates":[-4.3223821,48.0863658]},"properties":{"category":"bakery","name":"Le Fournil de Ploaré","opening_hours":"Mo-Sa 06:30-19:15; Su 07:00-13:00","phone":"+33 2 98 92 13 96","osm_id":847188626}},{"type":"Feature","geometry":{"type":"Point","coordinates":[-4.3313993,48.09192]},"properties":{"category":"bakery","name":"Le Fournil du Kreisker","opening_hours":"Tu-Fr 06:30-19:30, Sa 06:30-18:30, Su 07:00-13:00","phone":"+33 2 98 92 67 93","osm_id":2578126962}},{"type":"Feature","geometry":{"type":"Point","coordinates":[-4.3442163,48.0958711]},"properties":{"category":"bakery","name":"Pascal JAIN Maitre Artisan Boulanger","opening_hours":"Tu-Sa 07:00-21:00; Su 07:30-14:00,15:00-21:00","osm_id":3491215389}},{"type":"Feature","geometry":{"type":"Point","coordinates":[-4.331039,48.0906649]},"properties":{"category":"bakery","name":"La Miche Bretonne","osm_id":4276499460}},{"type":"Feature","geometry":{"type":"Point","coordinates":[-4.343053,48.0970784]},"properties":{"category":"bakery","name":"Boulangerie Pâtisserie de l'Yser","opening_hours":"Mo 07:00-14:00,16:00-19:00; Tu 07:00-13:30,16:30-19:00; We,Fr 07:00-13:30,16:00-19:00; Sa,Su 07:00-13:30,16:00-18:00","osm_id":4861896715}},{"type":"Feature","geometry":{"type":"Point","coordinates":[-4.3305643,48.0850177]},"properties":{"category":"shop","name":"Stephan Cycles","osm_id":5743737531}},{"type":"Feature","geometry":{"type":"Point","coordinates":[-4.3405685,48.0979858]},"properties":{"category":"shop","name":"VéloNova","opening_hours":"Mo-Sa 09:30-12:00, Mo-Fr 14:00-19:00, Sa 14:00-18:00","phone":"+33 2 90 94 14 56","website":"https://velonova.fr","osm_id":7794326369}},{"type":"Feature","geometry":{"type":"Point","coordinates":[-4.3475813,48.09001]},"properties":{"category":"bakery","name":"Boulangerie Louise","opening_hours":"Mo-Su 08:00-19:30","website":"https://www.boulangerielouise.com/boulangerie/boulangerie-louise-douarnenez/","osm_id":8887055130}},{"type":"Feature","geometry":{"type":"Point","coordinates":[-4.3290667,48.0880779]},"properties":{"category":"bakery","name":"Fournil du Stankou","osm_id":10034476499}},{"type":"Feature","geometry":{"type":"Point","coordinates":[-4.3255301,48.0808324]},"properties":{"category":"bakery","name":"Marie Blachère","opening_hours":"Mo-Sa 07:30-19:30","phone":"+33 2 29 20 86 23","website":"https://boulangeries.marieblachere.com/fr/france-FR/5391/marie-blachere-douarnenez/details","osm_id":10166333668}},{"type":"Feature","geometry":{"type":"Point","coordinates":[-4.3318519,48.079019]},"properties":{"category":"bakery","name":"La Muse du Meunier","opening_hours":"Mo-Sa 08:00-13:00","phone":"+33 2 98 51 34 32","website":"https://www.lemeunierdesaintthey.bzh","osm_id":10166350498}},{"type":"Feature","geometry":{"type":"Point","coordinates":[-4.3598945,48.0153733]},"properties":{"category":"bakery","name":"Carnec","osm_id":10656459374}},{"type":"Feature","geometry":{"type":"Point","coordinates":[-4.3376434,48.001444]},"properties":{"category":"bakery","name":"L'Auben","osm_id":13378099302}},{"type":"Feature","geometry":{"type":"Point","coordinates":[-4.3382552,48.0003038]},"properties":{"category":"shop","name":"Benji Cycles","osm_id":13378099320}},{"type":"Feature","geometry":{"type":"Point","coordinates":[-4.3271453,48.0817249]},"properties":{"category":"shop","name":"Penn Rustin'","osm_id":13541972239}}]}