{"type":"FeatureCollection","features":[{"type":"Feature","geometry":{"type":"Point","coordinates":[3.3221555,48.044901]},"properties":{"category":"bakery","name":"Le Fournil de Villeneuve","opening_hours":"Tu-Fr 06:30-13:00,16:00-19:00; Sa,Su 07:30-12:30","osm_id":3507373122}},{"type":"Feature","geometry":{"type":"Point","coordinates":[3.3161346,48.0284988]},"properties":{"category":"repair","osm_id":13075845602}},{"type":"Feature","geometry":{"type":"Point","coordinates":[3.3292965,48.004288]},"properties":{"category":"repair","osm_id":13091932150}},{"type":"Feature","geometry":{"type":"Point","coordinates":[3.3292367,48.004223]},"properties":{"category":"repair","osm_id":13101323901}}]}