{"type":"FeatureCollection","features":[{"type":"Feature","geometry":{"type":"Point","coordinates":[-4.1922086,48.0777375]},"properties":{"category":"bakery","name":"Le Fournil de Plogonnec","phone":"+33298518355","osm_id":2052847300}},{"type":"Feature","geometry":{"type":"Point","coordinates":[-4.1115341,48.0015342]},"properties":{"category":"bakery","name":"Boulangerie du Cosquer","osm_id":2072636606}},{"type":"Feature","geometry":{"type":"Point","coordinates":[-4.1051806,48.0092982]},"properties":{"category":"bakery","name":"Le Fournil Philippe","opening_hours":"Mo-Sa 07:00-19:30; Su 07:00-13:30","osm_id":2502174923}},{"type":"Feature","geometry":{"type":"Point","coordinates":[-4.1613276,48.060371]},"properties":{"category":"bakery","name":"Ti Bara Mat","osm_id":7392453970}},{"type":"Feature","geometry":{"type":"Point","coordinates":[-4.1081873,48.0007522]},"properties":{"category":"repair","osm_id":13042476888}}]}