{"type":"FeatureCollection","features":[{"type":"Feature","geometry":{"type":"Point","coordinates":[-2.0971968,48.0026325]},"properties":{"category":"shop","name":"Dzumac","opening_hours":"Tu-Fr 09:00-12:00,14:00-19:00; Th 14:00-19:00; Sa 09:00-12:00,14:00-18:00","phone":"+33299612833","osm_id":839197727}},{"type":"Feature","geometry":{"type":"Point","coordinates":[-2.0977848,48.0020648]},"properties":{"category":"bakery","name":"Maison Guichard","opening_hours":"We-Fr 07:00-19:00; Sa 07:00-18:00; Su 07:00-13:00","phone":"+33 2 99 06 96 27","osm_id":839208059}},{"type":"Feature","geometry":{"type":"Point","coordinates":[-2.0061,48.0393159]},"properties":{"category":"bakery","name":"Boulangerie Les Lutins","phone":"+33 2 99 61 00 78","osm_id":1360357070}},{"type":"Feature","geometry":{"type":"Point","coordinates":[-2.0978345,48.0932368]},"properties":{"category":"bakery","name":"Boulangerie Brulard Lionel","osm_id":1735021495}},{"type":"Feature","geometry":{"type":"Point","coordinates":[-2.0978529,48.002365]},"properties":{"category":"bakery","name":"La P'tite Boulange","opening_hours":"Mo-Sa 07:00-19:45; We off; Th off; Su 07:00-14:00","osm_id":2400318103}}]}