{"type":"FeatureCollection","features":[{"type":"Feature","geometry":{"type":"Point","coordinates":[3.0941581,48.1789743]},"properties":{"category":"bakery","name":"Fournil de Saint-Valérien Anaïs et Léopold","phone":"+33 3 86 86 65 70","osm_id":2349799605}},{"type":"Feature","geometry":{"type":"Point","coordinates":[3.0940037,48.1792668]},"properties":{"category":"bakery","name":"Noemie & Pierrick","osm_id":2349799607}},{"type":"Feature","geometry":{"type":"Point","coordinates":[3.0662968,48.1139066]},"properties":{"category":"bakery","name":"La Domatienne","osm_id":2502788554}}]}