{"type":"FeatureCollection","features":[{"type":"Feature","geometry":{"type":"Point","coordinates":[3.2798244,48.1970201]},"properties":{"category":"shop","name":"62 cycles","opening_hours":"Tu,We,Fr,Sa 10:00-13:00,14:00-19:00","phone":"+33 3 65 67 15 61","website":"https://62cycles.fr/","osm_id":7188515481}},{"type":"Feature","geometry":{"type":"Point","coordinates":[3.2872382,48.182853]},"properties":{"category":"shop","name":"cycles guenin","opening_hours":"Th-Tu 10:00-12:30, 14:00-18:30","phone":"+33 9 52 54 28 39","website":"https://www.cycles-guenin.fr/","osm_id":9721925117}},{"type":"Feature","geometry":{"type":"Point","coordinates":[3.2769748,48.1989196]},"properties":{"category":"repair","osm_id":13413006269}}]}