{"type":"FeatureCollection","features":[{"type":"Feature","geometry":{"type":"Point","coordinates":[0.183179,48.1458211]},"properties":{"category":"bakery","name":"Le grenier à pain","osm_id":2920752300}},{"type":"Feature","geometry":{"type":"Point","coordinates":[0.1939805,48.1132045]},"properties":{"category":"bakery","name":"Aux P'tits Mitrons","opening_hours":"Mo-Su 07:00-20:00","osm_id":7414292184}},{"type":"Feature","geometry":{"type":"Point","coordinates":[0.193847,48.1133312]},"properties":{"category":"shop","name":"L'atelier des Riders","phone":"+33 6 11 17 93 22","website":"https://www.latelierdesriders.fr/","osm_id":13165864925}}]}