{"type":"FeatureCollection","features":[{"type":"Feature","geometry":{"type":"Point","coordinates":[6.3378628,48.1742254]},"properties":{"category":"bakery","name":"Boulangerie M&B","opening_hours":"Mo, Tu, Th, Fr 06:30-13:00, 16:00-19:00; Sa, Su 07:00-13:00","phone":"+33 3 29 66 85 37","osm_id":6221984178}},{"type":"Feature","geometry":{"type":"Point","coordinates":[6.3867085,48.1785199]},"properties":{"category":"bakery","name":"Boula gerie Patisserie Nougeot Artisan","opening_hours":"Mo-Fr 06:30-12:30,15:00-19:30; Sa 07:00-12:30,15:00-19:00; Su 07:00-12:30","phone":"+33 3 29 82 49 67","osm_id":7114180481}},{"type":"Feature","geometry":{"type":"Point","coordinates":[6.3921319,48.176336]},"properties":{"category":"bakery","osm_id":7114211111}}]}