{"type":"FeatureCollection","features":[{"type":"Feature","geometry":{"type":"Point","coordinates":[-1.7080779,48.1156417]},"properties":{"category":"compressed_air","osm_id":2265955184}},{"type":"Feature","geometry":{"type":"Point","coordinates":[-1.7045592,48.1543612]},"properties":{"category":"shop","name":"Specialized","opening_hours":"Tu-Fr 09:30-12:30,14:00-19:00; Sa 09:30-12:30,14:00-18:00; Su-Mo off","phone":"+33 2 99 32 45 47","website":"https://www.obo-bike.com/","osm_id":3086265580}},{"type":"Feature","geometry":{"type":"Point","coordinates":[-1.7436286,48.1051999]},"properties":{"category":"compressed_air","osm_id":4383828398}},{"type":"Feature","geometry":{"type":"Point","coordinates":[-1.7036125,48.1209925]},"properties":{"category":"repair","opening_hours":"24/7","osm_id":4979664885,"has_compressed_air":true}},{"type":"Feature","geometry":{"type":"Point","coordinates":[-1.7095085,48.1077533]},"properties":{"category":"compressed_air","opening_hours":"24/7","osm_id":5754597950}},{"type":"Feature","geometry":{"type":"Point","coordinates":[-1.7073532,48.1533338]},"properties":{"category":"shop","name":"Giant","phone":"+33230061700","website":"https://www.giant-rennes-montgermont.fr/fr","osm_id":6113265273}},{"type":"Feature","geometry":{"type":"Point","coordinates":[-1.7657032,48.1409534]},"properties":{"category":"compressed_air","osm_id":6440260344}},{"type":"Feature","geometry":{"type":"Point","coordinates":[-1.7077488,48.1543607]},"properties":{"category":"shop","name":"Cyclable","opening_hours":"Tu-Sa 10:00-13:00, 14:00-19:00","phone":"+33 2 99 45 26 73","website":"https://rennes-montgermont.cyclable.com/","osm_id":8342790279}},{"type":"Feature","geometry":{"type":"Point","coordinates":[-1.7260698,48.199123]},"properties":{"category":"shop","name":"Bike +","opening_hours":"Mo-Sa 10:00-19:00","phone":"+33 2 99 13 19 34","website":"https://www.go-sport.com/stores?lang=default#/stores/1885-CYCLE","osm_id":9730085017}},{"type":"Feature","geometry":{"type":"Point","coordinates":[-1.7166476,48.1553541]},"properties":{"category":"repair","osm_id":9787467887}},{"type":"Feature","geometry":{"type":"Point","coordinates":[-1.7570942,48.1188735]},"properties":{"category":"repair","opening_hours":"24/7","osm_id":10983193626}},{"type":"Feature","geometry":{"type":"Point","coordinates":[-1.7019887,48.1119889]},"properties":{"category":"compressed_air","osm_id":12253436877}},{"type":"Feature","geometry":{"type":"Point","coordinates":[-1.7065103,48.1007551]},"properties":{"category":"repair","opening_hours":"24/7","osm_id":12278181159}},{"type":"Feature","geometry":{"type":"Point","coordinates":[-1.7259153,48.1074137]},"properties":{"category":"compressed_air","osm_id":12568394965}},{"type":"Feature","geometry":{"type":"Point","coordinates":[-1.7202435,48.1715415]},"properties":{"category":"compressed_air","opening_hours":"24/7","osm_id":12823694096}}]}