{"type":"FeatureCollection","features":[{"type":"Feature","geometry":{"type":"Point","coordinates":[-0.1276021,48.1836676]},"properties":{"category":"bakery","name":"Boulangerie-Pâtisserie Péronne","opening_hours":"Tu-Sa 07:00-13:45,15:45-19:30; Su 07:00-13:00","phone":"+33 2 43 20 10 20","osm_id":1667699285}},{"type":"Feature","geometry":{"type":"Point","coordinates":[-0.1286586,48.1846879]},"properties":{"category":"bakery","name":"Le Fournil de Sillé","opening_hours":"Mo-Sa 07:00-19:30","phone":"+33 2 43 20 10 71","osm_id":2912064601}},{"type":"Feature","geometry":{"type":"Point","coordinates":[-0.1151601,48.1402974]},"properties":{"category":"bakery","name":"Timeane","opening_hours":"Mo-Tu 07:30-13:30,16:00-19:30; Th-Sa 07:30-13:30,16:00-19:30; Su 07:00-13:00","phone":"+33 9 81 66 21 90","osm_id":4418942082}}]}