{"type":"FeatureCollection","features":[{"type":"Feature","geometry":{"type":"Point","coordinates":[7.1923985,48.104842]},"properties":{"category":"bakery","name":"La Main à la pâte","phone":"+33754040899","osm_id":276599577}},{"type":"Feature","geometry":{"type":"Point","coordinates":[7.1650837,48.126793]},"properties":{"category":"bakery","name":"Boulangerie Artisan","osm_id":4893450321}},{"type":"Feature","geometry":{"type":"Point","coordinates":[7.1682286,48.1532077]},"properties":{"category":"bakery","name":"Boulangerie Kieffer","opening_hours":"Mo-Fr 06:00-12:30,15:00-18:30; Sa 06:00-12:00","osm_id":6767453033}},{"type":"Feature","geometry":{"type":"Point","coordinates":[7.1617835,48.1258354]},"properties":{"category":"bakery","name":"Boulangerie Patisserie Weber","osm_id":6857971842}},{"type":"Feature","geometry":{"type":"Point","coordinates":[7.1940014,48.1699292]},"properties":{"category":"bakery","name":"Boulangerie Noël","opening_hours":"Mo-We,Fr 06:00-12:30,15:00-18:00; Th 07:00-12:00; Sa 06:00-13:00","osm_id":7188839318}},{"type":"Feature","geometry":{"type":"Point","coordinates":[7.1176012,48.1720427]},"properties":{"category":"bakery","name":"l’Ancienne","opening_hours":"Mo-Tu,Th-Fr 06:30-19:00; We,Sa 06:30-13:00; Su,PH off","osm_id":12193420807}},{"type":"Feature","geometry":{"type":"Point","coordinates":[7.1610519,48.1281272]},"properties":{"category":"bakery","name":"Les Kougelhopfs de Frédéric","phone":"+33 6 79 52 39 87","website":"https://www.facebook.com/leskougelhopfsdefrederic","osm_id":13626986535}}]}