{"type":"FeatureCollection","features":[{"type":"Feature","geometry":{"type":"Point","coordinates":[-2.0347731,48.1287795]},"properties":{"category":"bakery","name":"Zeste de gourmandise","opening_hours":"Tu-Sa 07:00-13:30, 15:30-19:30; Su 07:00-13:00","phone":"+33299097409","osm_id":5239548636}},{"type":"Feature","geometry":{"type":"Point","coordinates":[-2.035721,48.1289382]},"properties":{"category":"bakery","name":"Boulangerie Burel","opening_hours":"Tu-Fr 07:00-13:30, 15:00-19:00; Sa, Su 07:00-13:00","phone":"+33 2 99 09 71 97","osm_id":5293876647}},{"type":"Feature","geometry":{"type":"Point","coordinates":[-2.0484614,48.1969483]},"properties":{"category":"bakery","osm_id":11074553764}},{"type":"Feature","geometry":{"type":"Point","coordinates":[-2.0481033,48.1983111]},"properties":{"category":"shop","name":"XT Cycles","osm_id":11074553768}},{"type":"Feature","geometry":{"type":"Point","coordinates":[-2.0393137,48.1965853]},"properties":{"category":"compressed_air","opening_hours":"24/7","osm_id":11074553772}},{"type":"Feature","geometry":{"type":"Point","coordinates":[-2.036608,48.196014]},"properties":{"category":"bakery","name":"Graine des délices","osm_id":12560120848}},{"type":"Feature","geometry":{"type":"Point","coordinates":[-2.0323664,48.1005501]},"properties":{"category":"repair","osm_id":13001797141}}]}