{"type":"FeatureCollection","features":[{"type":"Feature","geometry":{"type":"Point","coordinates":[0.6232489,48.1252987]},"properties":{"category":"compressed_air","osm_id":10737088076}},{"type":"Feature","geometry":{"type":"Point","coordinates":[0.6540218,48.1783357]},"properties":{"category":"shop","name":"Cycles Val d'Huisne","osm_id":11142516944}},{"type":"Feature","geometry":{"type":"Point","coordinates":[0.6614902,48.1823791]},"properties":{"category":"compressed_air","osm_id":12891767660}}]}