{"type":"FeatureCollection","features":[{"type":"Feature","geometry":{"type":"Point","coordinates":[-0.7814084,48.1001025]},"properties":{"category":"compressed_air","osm_id":3858717771}},{"type":"Feature","geometry":{"type":"Point","coordinates":[-0.719982,48.1229967]},"properties":{"category":"bakery","osm_id":5156574611}},{"type":"Feature","geometry":{"type":"Point","coordinates":[-0.7185711,48.1234353]},"properties":{"category":"bakery","osm_id":5156581450}},{"type":"Feature","geometry":{"type":"Point","coordinates":[-0.7883094,48.1375836]},"properties":{"category":"bakery","name":"La Petite Germinoise","opening_hours":"Tu-Fr 07:30-13:00,15:30-19:30; Sa 07:30-13:00,15:30-18:30; Su 07:30-13:00","phone":"+33 2 43 69 15 84","osm_id":10113414840}},{"type":"Feature","geometry":{"type":"Point","coordinates":[-0.7521042,48.1326226]},"properties":{"category":"repair","name":"Place au Vélo","osm_id":10788777054}},{"type":"Feature","geometry":{"type":"Point","coordinates":[-0.7844869,48.176534]},"properties":{"category":"bakery","name":"Martinez","osm_id":13321767743}},{"type":"Feature","geometry":{"type":"Point","coordinates":[-0.7835129,48.1761753]},"properties":{"category":"bakery","name":"La Tendresse","osm_id":13321767745}},{"type":"Feature","geometry":{"type":"Point","coordinates":[-0.7192879,48.1227431]},"properties":{"category":"bakery","name":"Boulang' de Paulette","osm_id":14112519701}}]}