{"type":"FeatureCollection","features":[{"type":"Feature","geometry":{"type":"Point","coordinates":[2.2556627,48.1407007]},"properties":{"category":"bakery","name":"La Gâtinaise","osm_id":2051206148}},{"type":"Feature","geometry":{"type":"Point","coordinates":[2.2549583,48.1737335]},"properties":{"category":"bakery","name":"La boulangerie du sportif","osm_id":2615969260}},{"type":"Feature","geometry":{"type":"Point","coordinates":[2.2551379,48.1736005]},"properties":{"category":"bakery","name":"Gourmandise et Tradition","phone":"+33238300368","osm_id":2615969686}},{"type":"Feature","geometry":{"type":"Point","coordinates":[2.2538424,48.1743252]},"properties":{"category":"bakery","name":"À la renommée","phone":"+332 38 30 00 24","osm_id":2615984827}},{"type":"Feature","geometry":{"type":"Point","coordinates":[2.2500011,48.1863127]},"properties":{"category":"bakery","name":"Marie Blachère","opening_hours":"Mo-Sa 06:30-19:30","phone":"+33 2 38 30 26 28","website":"https://boulangeries.marieblachere.com/fr/france-FR/5371/marie-blachere-pithiviers/details","osm_id":8210032186}},{"type":"Feature","geometry":{"type":"Point","coordinates":[2.2546165,48.171965]},"properties":{"category":"bakery","name":"Le Fournil de Flo","phone":"+33238307578","osm_id":12486225945}}]}