{"type":"FeatureCollection","features":[{"type":"Feature","geometry":{"type":"Point","coordinates":[7.4679508,48.1019864]},"properties":{"category":"bakery","name":"Boulangerie Hertzog","osm_id":1372018426}},{"type":"Feature","geometry":{"type":"Point","coordinates":[7.47817,48.124785]},"properties":{"category":"bakery","name":"Il était une fois... le pain","osm_id":1651498965}},{"type":"Feature","geometry":{"type":"Point","coordinates":[7.402653,48.1877229]},"properties":{"category":"bakery","name":"Kaysers + Nicola","osm_id":4430484927}},{"type":"Feature","geometry":{"type":"Point","coordinates":[7.4232328,48.1106008]},"properties":{"category":"bakery","name":"Michel Herrscher","osm_id":6665027585}}]}