{"type":"FeatureCollection","features":[{"type":"Feature","geometry":{"type":"Point","coordinates":[-4.2202865,48.1252316]},"properties":{"category":"bakery","name":"Aux Délices du Porzay","osm_id":909272781}},{"type":"Feature","geometry":{"type":"Point","coordinates":[-4.2196071,48.1245348]},"properties":{"category":"bakery","name":"L'Angle Gourmand","osm_id":2272182872}},{"type":"Feature","geometry":{"type":"Point","coordinates":[-4.2330207,48.1812222]},"properties":{"category":"bakery","name":"Le Fournil du Menez","opening_hours":"Tu-Su 07:00-13:00, 15:30-19:00","osm_id":5382905988}},{"type":"Feature","geometry":{"type":"Point","coordinates":[-4.2595276,48.135281]},"properties":{"category":"bakery","osm_id":12151919426}},{"type":"Feature","geometry":{"type":"Point","coordinates":[-4.23379,48.1570925]},"properties":{"category":"bakery","name":"Le fournil de Ploéven","osm_id":13131256324}}]}