{"type":"FeatureCollection","features":[{"type":"Feature","geometry":{"type":"Point","coordinates":[-0.4014549,48.1543889]},"properties":{"category":"bakery","name":"Boulangerie Zuccarini","opening_hours":"Tu-Su 06:30-13:45,15:00-20:00","phone":"+33 2 43 01 61 94","osm_id":2000501284}},{"type":"Feature","geometry":{"type":"Point","coordinates":[-0.4035192,48.1506115]},"properties":{"category":"bakery","name":"Maison Vanille","opening_hours":"Mo-Tu 07:00-14:00,16:00-20:00; Th-Fr 07:00-14:00,16:00-20:00; Sa 07:00-20:00; Su 07:30-13:30","phone":"+33 2 43 01 64 69","osm_id":2000542264}},{"type":"Feature","geometry":{"type":"Point","coordinates":[-0.4623747,48.1340928]},"properties":{"category":"bakery","name":"Le Fournil du Luat","osm_id":8718113674}},{"type":"Feature","geometry":{"type":"Point","coordinates":[-0.4018425,48.1560752]},"properties":{"category":"bakery","name":"La boulangerie du bonheur","opening_hours":"Tu-Sa 06:30-19:30; Su 06:30-13:30","osm_id":13271539018}}]}