{"type":"FeatureCollection","features":[{"type":"Feature","geometry":{"type":"Point","coordinates":[-1.4833818,48.1108429]},"properties":{"category":"bakery","name":"Daniel Boulay","osm_id":635872814}},{"type":"Feature","geometry":{"type":"Point","coordinates":[-1.4608955,48.12114]},"properties":{"category":"bakery","name":"Saveur Dorée","phone":"+33 2 23 27 02 99","osm_id":837449342}},{"type":"Feature","geometry":{"type":"Point","coordinates":[-1.4592519,48.121271]},"properties":{"category":"bakery","name":"Boulangerie Gaulthier","osm_id":4900578700}},{"type":"Feature","geometry":{"type":"Point","coordinates":[-1.4045903,48.1076193]},"properties":{"category":"bakery","name":"Boulangerie Patisserie Guillard","opening_hours":"Mo-Fr 07:00-19:30; Sa off; Su 07:00-13:00","phone":"+33 2 99 00 36 42","osm_id":5964757491}},{"type":"Feature","geometry":{"type":"Point","coordinates":[-1.4039748,48.1087419]},"properties":{"category":"bakery","name":"D’Or et Mie","opening_hours":"Tu-Sa 07:00-19:30; Su 07:00-13:30","osm_id":5964850543}},{"type":"Feature","geometry":{"type":"Point","coordinates":[-1.4141007,48.1030314]},"properties":{"category":"bakery","name":"Le Semoir","opening_hours":"Mo-Fr 06:30-19:30; Sa 06:30-19:00","phone":"+33 2 23 37 12 67","website":"https://www.franceboulangerie.fr/boulangeries/le-semoir","osm_id":9912760540}}]}