{"type":"FeatureCollection","features":[{"type":"Feature","geometry":{"type":"Point","coordinates":[6.9214616,48.1495653]},"properties":{"category":"bakery","name":"Boulangerie Du Four au Moulin","opening_hours":"Tu-Th 06:30-12:30,16:30-18:00; Fr-Sa 06:30-12:30,16:30-21:00; Su 06:30-13:00","phone":"+33329554511","osm_id":2471724244}},{"type":"Feature","geometry":{"type":"Point","coordinates":[6.953506,48.188518]},"properties":{"category":"bakery","name":"Boulangerie Pâtisserie Tisserand","osm_id":9230992867}},{"type":"Feature","geometry":{"type":"Point","coordinates":[6.9513388,48.1917235]},"properties":{"category":"bakery","name":"Laroche Tradition","osm_id":14135313269}}]}