{"type":"FeatureCollection","features":[{"type":"Feature","geometry":{"type":"Point","coordinates":[7.0022729,48.1859116]},"properties":{"category":"bakery","name":"Boulangerie Pâtisserie","opening_hours":"Mo-Tu, Th-Fr 05:30-13:20, 15:00-19:00; Sa 05:30-18:00; Su 05:30-12:30; We off","phone":"+33 3 29 50 30 36","osm_id":3178442067}},{"type":"Feature","geometry":{"type":"Point","coordinates":[7.0068455,48.1801738]},"properties":{"category":"bakery","osm_id":6253521220}},{"type":"Feature","geometry":{"type":"Point","coordinates":[7.0153468,48.1720522]},"properties":{"category":"bakery","name":"Au Fournil de Plainfaing","opening_hours":"Tu-Sa 06:00-18:30; Su 06:00-12:30; PH 06:00-12:30","osm_id":6253521222}},{"type":"Feature","geometry":{"type":"Point","coordinates":[7.0083271,48.1788523]},"properties":{"category":"bakery","osm_id":13420617034}},{"type":"Feature","geometry":{"type":"Point","coordinates":[7.0030922,48.1831908]},"properties":{"category":"bakery","name":"Boulangerie Patisserie","osm_id":13922336194}}]}