{"type":"FeatureCollection","features":[{"type":"Feature","geometry":{"type":"Point","coordinates":[2.6959144,48.2664867]},"properties":{"category":"bakery","osm_id":2271102481}},{"type":"Feature","geometry":{"type":"Point","coordinates":[2.6865828,48.2676987]},"properties":{"category":"bakery","name":"La panetière de Nemours","osm_id":2372766203}},{"type":"Feature","geometry":{"type":"Point","coordinates":[2.6785109,48.2705035]},"properties":{"category":"bakery","name":"Saveurs et Traditions","opening_hours":"Mo,Th,Fr 07:00-13:00,15:00-19:30; Tu,Sa 07:00-13:00,15:00-19:00; Su 07:00-13:00","phone":"+33 1 64 28 91 64","osm_id":7391773782}},{"type":"Feature","geometry":{"type":"Point","coordinates":[2.6920235,48.2670913]},"properties":{"category":"bakery","name":"La pétrie","osm_id":9105550780}},{"type":"Feature","geometry":{"type":"Point","coordinates":[2.6866124,48.26771]},"properties":{"category":"bakery","name":"Boulangerie de la gare","osm_id":13030359101}},{"type":"Feature","geometry":{"type":"Point","coordinates":[2.6964831,48.2646878]},"properties":{"category":"shop","name":"Station Bees","phone":"+33 7 44 40 60 16","website":"https://www.nemours.stationsbees.com","osm_id":13041167056}}]}