{"type":"FeatureCollection","features":[{"type":"Feature","geometry":{"type":"Point","coordinates":[3.2046304,48.2867365]},"properties":{"category":"bakery","name":"Le Vieux Pont","osm_id":2472168694}},{"type":"Feature","geometry":{"type":"Point","coordinates":[3.2749031,48.2134192]},"properties":{"category":"bakery","name":"Marie Blachère","opening_hours":"Mo-Sa 07:00-19:30","website":"https://www.marieblachere.com/store/st-denis-les-sens/","osm_id":5992389796}},{"type":"Feature","geometry":{"type":"Point","coordinates":[3.2853374,48.2113865]},"properties":{"category":"bakery","name":"Le Délice de Marion","phone":"+33 3 86 97 04 80","osm_id":6280883280}},{"type":"Feature","geometry":{"type":"Point","coordinates":[3.2777085,48.2080472]},"properties":{"category":"bakery","name":"boulangerie feuillette","opening_hours":"Mo-Su 06:00-20:00","phone":"+33 3 10 45 40 45","website":"https://boulangerie.feuillette.fr/bourgogne-franche-comte/yonne/sens/boulangerie-feuillette-76","osm_id":12873565596}},{"type":"Feature","geometry":{"type":"Point","coordinates":[3.2923451,48.2019825]},"properties":{"category":"bakery","name":"La Gourmandise des Chaillots","opening_hours":"Mo-Su 06:00-20:30","phone":"+33 3 86 95 41 49","osm_id":13760825013}}]}