{"type":"FeatureCollection","features":[{"type":"Feature","geometry":{"type":"Point","coordinates":[5.8354477,48.2079018]},"properties":{"category":"bakery","name":"Boulangerie Pâtisserie","phone":"+33 3 29 09 11 12","osm_id":3864626905}},{"type":"Feature","geometry":{"type":"Point","coordinates":[5.8423483,48.2995541]},"properties":{"category":"compressed_air","osm_id":5996331557}},{"type":"Feature","geometry":{"type":"Point","coordinates":[5.834276,48.2087661]},"properties":{"category":"bakery","name":"Boulangerie Destrignéville","osm_id":7832852494}}]}