{"type":"FeatureCollection","features":[{"type":"Feature","geometry":{"type":"Point","coordinates":[-0.6136634,48.2885958]},"properties":{"category":"shop","name":"Bouticycle","phone":"+33 2 43 32 24 31","osm_id":4452999289}},{"type":"Feature","geometry":{"type":"Point","coordinates":[-0.6208001,48.2859162]},"properties":{"category":"bakery","name":"Marie Blachère","osm_id":10206866275}},{"type":"Feature","geometry":{"type":"Point","coordinates":[-0.619812,48.2388298]},"properties":{"category":"bakery","osm_id":12864780794}}]}