{"type":"FeatureCollection","features":[{"type":"Feature","geometry":{"type":"Point","coordinates":[-1.4092678,48.2593156]},"properties":{"category":"bakery","name":"Erussard","opening_hours":"Mo-Fr 07:00-13:30,14:30-19:30; Sa 07:30-13:00,14:00-19:00; PH off","osm_id":1379348160}},{"type":"Feature","geometry":{"type":"Point","coordinates":[-1.4321716,48.2957677]},"properties":{"category":"bakery","name":"Les Amoureux Du Pain","osm_id":8869895592}},{"type":"Feature","geometry":{"type":"Point","coordinates":[-1.462688,48.246243]},"properties":{"category":"bakery","name":"Boulanger Banette","osm_id":13673719058}}]}