{"type":"FeatureCollection","features":[{"type":"Feature","geometry":{"type":"Point","coordinates":[7.6032748,48.2508042]},"properties":{"category":"bakery","name":"Le Fournil de Marius","phone":"+33 3 88 57 51 86","osm_id":1477327924}},{"type":"Feature","geometry":{"type":"Point","coordinates":[7.600916,48.250917]},"properties":{"category":"bakery","name":"Boulangerie Helfter","opening_hours":"Mo-Sa 06:00-12:30","osm_id":1477327925}},{"type":"Feature","geometry":{"type":"Point","coordinates":[7.6055646,48.2513765]},"properties":{"category":"bakery","opening_hours":"04:30-12:30,16:00-19:00","osm_id":2416599205}},{"type":"Feature","geometry":{"type":"Point","coordinates":[7.6084996,48.2495155]},"properties":{"category":"repair","osm_id":9462725559}},{"type":"Feature","geometry":{"type":"Point","coordinates":[7.603275,48.2507966]},"properties":{"category":"bakery","name":"Le Fournil de Marius","opening_hours":"Mo-Fr 06:00-12:30, 16:00-18:30; Sa 06:00-12:30","phone":"03 88 57 51 86","website":"https://www.facebook.com/profile.php?id=61559663854170","osm_id":14134486202}}]}