{"type":"FeatureCollection","features":[{"type":"Feature","geometry":{"type":"Point","coordinates":[0.1567041,48.2337576]},"properties":{"category":"bakery","osm_id":1787384858}},{"type":"Feature","geometry":{"type":"Point","coordinates":[0.1291157,48.2257241]},"properties":{"category":"bakery","name":"Le Petit Gourmand","osm_id":1788263966}},{"type":"Feature","geometry":{"type":"Point","coordinates":[0.1302518,48.2251936]},"properties":{"category":"shop","name":"Il est Beaumont Vélo","osm_id":12290195517}}]}