{"type":"FeatureCollection","features":[{"type":"Feature","geometry":{"type":"Point","coordinates":[-4.1806075,48.2972091]},"properties":{"category":"bakery","name":"Boulangerie Guéguen","opening_hours":"Tu,Th-Sa 07:00-13:30,15:00-19:00;We 07:00-19:00;Su 07:00-13:00","phone":"+33 2 98 81 90 65","osm_id":3259061865}},{"type":"Feature","geometry":{"type":"Point","coordinates":[-4.1797653,48.2942037]},"properties":{"category":"bakery","name":"Aux Plaisirs du Faou","opening_hours":"07:00-19:30;We off","osm_id":3259063755}},{"type":"Feature","geometry":{"type":"Point","coordinates":[-4.1663769,48.2203081]},"properties":{"category":"bakery","osm_id":6831098894}}]}