{"type":"FeatureCollection","features":[{"type":"Feature","geometry":{"type":"Point","coordinates":[7.5699636,48.2022884]},"properties":{"category":"repair","osm_id":9462725558}},{"type":"Feature","geometry":{"type":"Point","coordinates":[7.5198922,48.2282737]},"properties":{"category":"bakery","name":"Boulangerie Matiane","osm_id":12058888448}},{"type":"Feature","geometry":{"type":"Point","coordinates":[7.5387775,48.2377944]},"properties":{"category":"bakery","name":"Boulangerie Gisselbrecht Rodolphe","osm_id":12747640881}},{"type":"Feature","geometry":{"type":"Point","coordinates":[7.5364129,48.2669504]},"properties":{"category":"bakery","name":"Boulangerie Bronner","osm_id":14058305822}},{"type":"Feature","geometry":{"type":"Point","coordinates":[7.5622745,48.2880482]},"properties":{"category":"bakery","name":"Boulangerie - Pâtisserie Biechel","phone":"+33 3 88 85 40 49","osm_id":14058305823}}]}