{"type":"FeatureCollection","features":[{"type":"Feature","geometry":{"type":"Point","coordinates":[0.0199464,48.2813198]},"properties":{"category":"bakery","name":"Au Pain Gourmand","osm_id":4240296472}},{"type":"Feature","geometry":{"type":"Point","coordinates":[0.0221751,48.2808052]},"properties":{"category":"bakery","name":"Aux mille et une mies","opening_hours":"We-Fr 06:00-19:30; Sa 06:00-19:00; Su 06:00-13:00","osm_id":4244423421}},{"type":"Feature","geometry":{"type":"Point","coordinates":[0.0267986,48.2001775]},"properties":{"category":"bakery","name":"Le fournil de Segrié","opening_hours":"Mo-Sa 07:30-13:00,15:30-19:00","phone":"+33 9 53 30 14 63","osm_id":9928159704}}]}