{"type":"FeatureCollection","features":[{"type":"Feature","geometry":{"type":"Point","coordinates":[6.4286312,48.2442946]},"properties":{"category":"shop","name":"Café Vélo l'Échappée Bleue","opening_hours":"Tu-Sa 09:30-12:00,14:00-18:30","phone":"+33 3 29 39 93 10","website":"https://www.cafevelo-echappeebleue.fr/","osm_id":3113360164}},{"type":"Feature","geometry":{"type":"Point","coordinates":[6.4368574,48.2375325]},"properties":{"category":"bakery","osm_id":3155122516}},{"type":"Feature","geometry":{"type":"Point","coordinates":[6.4366955,48.2196896]},"properties":{"category":"shop","name":"VeloEco","phone":"+33 3 29 34 60 00","osm_id":5536199089}},{"type":"Feature","geometry":{"type":"Point","coordinates":[6.4197325,48.2505637]},"properties":{"category":"bakery","name":"4 + 1","opening_hours":"Mo-We, Fr-Su 06:30-20:00","osm_id":6616551751}},{"type":"Feature","geometry":{"type":"Point","coordinates":[6.4376101,48.2173118]},"properties":{"category":"bakery","name":"Allan Cussenot","phone":"+33 329 395 557","osm_id":6672519469}},{"type":"Feature","geometry":{"type":"Point","coordinates":[6.4884084,48.202056]},"properties":{"category":"bakery","name":"Boulangerie Protin","opening_hours":"Mo-We,Fr 06:45-12:30,16:00-19:30; Sa 06:45-12:30,16:00-19:00; Su 07:00-12:30","phone":"+33 3 29 34 10 36","osm_id":7026574266}},{"type":"Feature","geometry":{"type":"Point","coordinates":[6.4187746,48.2486858]},"properties":{"category":"bakery","name":"Boulangerie Pâtisserie Rouyer","phone":"+33 3 29 39 23 67","website":"https://www.facebook.com/boulangerierouyer/","osm_id":8715534305}},{"type":"Feature","geometry":{"type":"Point","coordinates":[6.4106057,48.2605362]},"properties":{"category":"bakery","name":"Boulangerie du Port","osm_id":9978551077}},{"type":"Feature","geometry":{"type":"Point","coordinates":[6.4286549,48.2442728]},"properties":{"category":"shop","name":"Café Vélo L'Échappée Bleue","opening_hours":"Tu-Sa 09:30-12:00,14:00-18:30","website":"https://www.cafevelo-echappeebleue.fr/","osm_id":13114312255}}]}