{"type":"FeatureCollection","features":[{"type":"Feature","geometry":{"type":"Point","coordinates":[-0.930249,48.2263416]},"properties":{"category":"bakery","osm_id":2008851803}},{"type":"Feature","geometry":{"type":"Point","coordinates":[-0.929765,48.226913]},"properties":{"category":"bakery","osm_id":2008894926}},{"type":"Feature","geometry":{"type":"Point","coordinates":[-0.9382311,48.2971055]},"properties":{"category":"bakery","osm_id":3829982783}},{"type":"Feature","geometry":{"type":"Point","coordinates":[-0.9248932,48.2910341]},"properties":{"category":"bakery","name":"O'Délices d'Ernée","opening_hours":"Tu-Sa 06:00-19:30; Su 06:00-12:30","osm_id":6828667885}}]}