{"type":"FeatureCollection","features":[{"type":"Feature","geometry":{"type":"Point","coordinates":[6.7977689,48.2014389]},"properties":{"category":"bakery","name":"Boulangerie Frédéric Karcher SARL","phone":"+33 3 29 56 84 92","osm_id":2324205362}},{"type":"Feature","geometry":{"type":"Point","coordinates":[6.7184235,48.2111227]},"properties":{"category":"bakery","name":"Les moulins de Barbara","opening_hours":"Mo-We, Fr, Sa 05:30-19:00; Su 05:30-12:00","osm_id":3140627491}},{"type":"Feature","geometry":{"type":"Point","coordinates":[6.7219383,48.2087449]},"properties":{"category":"bakery","name":"La Panetière du Mirador","opening_hours":"Tu-Su 06:00-19:30","osm_id":3141279762}},{"type":"Feature","geometry":{"type":"Point","coordinates":[6.7314706,48.2364903]},"properties":{"category":"bakery","osm_id":14094167140}},{"type":"Feature","geometry":{"type":"Point","coordinates":[6.722878,48.2033666]},"properties":{"category":"compressed_air","osm_id":14125187915}}]}