{"type":"FeatureCollection","features":[{"type":"Feature","geometry":{"type":"Point","coordinates":[-4.5959856,48.2767805]},"properties":{"category":"bakery","name":"Le fournil de Camaret","osm_id":291613504}},{"type":"Feature","geometry":{"type":"Point","coordinates":[-4.5046295,48.2250894]},"properties":{"category":"bakery","name":"Le Spot","opening_hours":"Mo-Sa 12:00-16:00; Su 12:00-16:00","osm_id":1392861728}},{"type":"Feature","geometry":{"type":"Point","coordinates":[-4.5966961,48.2775611]},"properties":{"category":"bakery","name":"Tamm Bara","osm_id":1787802624}},{"type":"Feature","geometry":{"type":"Point","coordinates":[-4.5041296,48.2247231]},"properties":{"category":"bakery","name":"Fourn’ile du Kador","opening_hours":"Nov-Mar Mo-Su,PH 07:00-13:30,15:30-18:30; Apr-Oct Mo-Su 07:00-19:00; Sep-Jun We off","osm_id":6738045169}}]}