{"type":"FeatureCollection","features":[{"type":"Feature","geometry":{"type":"Point","coordinates":[-1.5153036,48.2111735]},"properties":{"category":"bakery","name":"L'Eco Pain Liffréen","osm_id":203202884}},{"type":"Feature","geometry":{"type":"Point","coordinates":[-1.516501,48.2559242]},"properties":{"category":"bakery","name":"Festival des pains","osm_id":2218097147}},{"type":"Feature","geometry":{"type":"Point","coordinates":[-1.5041097,48.2147729]},"properties":{"category":"bakery","name":"Boulangerie Patisserie","opening_hours":"Mo,Tu,Th-Sa 07:00-19:20; Su 07:00-13:15,15:30-19:00","osm_id":3774714551}}]}