{"type":"FeatureCollection","features":[{"type":"Feature","geometry":{"type":"Point","coordinates":[0.3688372,48.3504277]},"properties":{"category":"bakery","name":"Maison Delaroche","opening_hours":"We-Sa 07:00-19:30, Mo 07:00-19:30, Su 07:00-13:00","phone":"+33 2 43 97 61 48","osm_id":4475350054}},{"type":"Feature","geometry":{"type":"Point","coordinates":[0.3707872,48.3489481]},"properties":{"category":"bakery","name":"Au Fournil Mamertin","opening_hours":"Mo-Sa 07:00-19:00; Th off; Su 07:00-13:00","osm_id":6035012031}},{"type":"Feature","geometry":{"type":"Point","coordinates":[0.3701448,48.3501638]},"properties":{"category":"bakery","osm_id":6035012032}},{"type":"Feature","geometry":{"type":"Point","coordinates":[0.3706637,48.351129]},"properties":{"category":"bakery","name":"L'épi doré","opening_hours":"Tu-Fr 07:00-13:30,14:30-19:00; Sa 07:00-13:00,15:00-19:00; PH,Su 07:00-13:00","osm_id":8612220007}}]}