{"type":"FeatureCollection","features":[{"type":"Feature","geometry":{"type":"Point","coordinates":[-1.2021537,48.3545606]},"properties":{"category":"bakery","name":"La Mie Câline","phone":"+33 2 99 99 97 26","osm_id":4303007702}},{"type":"Feature","geometry":{"type":"Point","coordinates":[-1.2020521,48.3493617]},"properties":{"category":"bakery","name":"Le Croissant","opening_hours":"Tu-Fr 07:00-13:30,14:30-19:30; Sa 07:00-19:30","osm_id":5174406740}},{"type":"Feature","geometry":{"type":"Point","coordinates":[-1.2017074,48.3539676]},"properties":{"category":"bakery","name":"Brunet","opening_hours":"Mo-Sa 07:15-19:00","osm_id":5911854689}},{"type":"Feature","geometry":{"type":"Point","coordinates":[-1.2243907,48.3533763]},"properties":{"category":"bakery","name":"Maison Génevée","opening_hours":"Mo-Sa 05:00-19:30","phone":"+33 2 99 94 17 07","osm_id":7335069446}},{"type":"Feature","geometry":{"type":"Point","coordinates":[-1.2097987,48.3622541]},"properties":{"category":"bakery","name":"Banette","osm_id":7343279941}},{"type":"Feature","geometry":{"type":"Point","coordinates":[-1.2004003,48.3545991]},"properties":{"category":"bakery","name":"Banette","phone":"+33 2 99 99 09 14","osm_id":7344664782}},{"type":"Feature","geometry":{"type":"Point","coordinates":[-1.2159607,48.3194576]},"properties":{"category":"bakery","name":"Le Fournil de Javené","osm_id":7363476381}},{"type":"Feature","geometry":{"type":"Point","coordinates":[-1.2786037,48.3406683]},"properties":{"category":"bakery","name":"Au Four et aux Saveurs","osm_id":7371763732}},{"type":"Feature","geometry":{"type":"Point","coordinates":[-1.2754816,48.3431785]},"properties":{"category":"bakery","name":"Boulangerie Ferron","osm_id":7371774890}},{"type":"Feature","geometry":{"type":"Point","coordinates":[-1.2277956,48.3523611]},"properties":{"category":"shop","name":"Les Rouleurs Cyclists Shop","osm_id":11371277498}},{"type":"Feature","geometry":{"type":"Point","coordinates":[-1.2270033,48.3522707]},"properties":{"category":"bakery","name":"Le Fournil du Parc","osm_id":11527748258}}]}