{"type":"FeatureCollection","features":[{"type":"Feature","geometry":{"type":"Point","coordinates":[-4.5068361,48.3910611]},"properties":{"category":"bakery","name":"Le Fournil des Provinces","opening_hours":"PH,Mo-Su 07:00-21:00","osm_id":738042069}},{"type":"Feature","geometry":{"type":"Point","coordinates":[-4.5878398,48.3690016]},"properties":{"category":"bakery","name":"La Fontaine à Pain","opening_hours":"Mo-Fr 06:30-19:30; Sa 06:30-18:00","osm_id":738042107}},{"type":"Feature","geometry":{"type":"Point","coordinates":[-4.5361573,48.3833353]},"properties":{"category":"bakery","name":"Le Fournil des Provinces","opening_hours":"PH,Mo-Su 06:30-19:30","osm_id":738042154}},{"type":"Feature","geometry":{"type":"Point","coordinates":[-4.5253147,48.3818571]},"properties":{"category":"bakery","name":"Le Fournil des Provinces","osm_id":738042256}},{"type":"Feature","geometry":{"type":"Point","coordinates":[-4.5095615,48.3815024]},"properties":{"category":"bakery","name":"Véronique et Laurent Gestin","osm_id":738042278}},{"type":"Feature","geometry":{"type":"Point","coordinates":[-4.5054605,48.3840652]},"properties":{"category":"bakery","name":"Les Délices du Prat Lédan","opening_hours":"Mo-We,Fr,Sa 07:00-19:00; Su 07:00-13:00; Th off","osm_id":738042290}},{"type":"Feature","geometry":{"type":"Point","coordinates":[-4.5146298,48.3826448]},"properties":{"category":"bakery","name":"Boulangerie Patisserie Peron","opening_hours":"Tu-Sa 06:30-13:00,15:00-19:00; Su 07:30-12:30","osm_id":738042332}},{"type":"Feature","geometry":{"type":"Point","coordinates":[-4.5904714,48.3723204]},"properties":{"category":"bakery","name":"La tradition du pain","opening_hours":"Tu-Sa 06:30-19:00; Su 07:00-13:00","osm_id":3445310607}},{"type":"Feature","geometry":{"type":"Point","coordinates":[-4.5337667,48.3799916]},"properties":{"category":"bakery","name":"Les gourmandises de Saint-Pierre","opening_hours":"Tu-Sa 07:00-19:30;Su 07:00-13:00","osm_id":4672026820}},{"type":"Feature","geometry":{"type":"Point","coordinates":[-4.5363309,48.3841339]},"properties":{"category":"bakery","name":"Les Gourmandises du Château","opening_hours":"Mo-We,Fr,Sa 06:30-19:30","osm_id":6131341187}},{"type":"Feature","geometry":{"type":"Point","coordinates":[-4.5206892,48.3847653]},"properties":{"category":"shop","name":"Les bicyclettes de Cachou","phone":"+33 6 74 52 25 63","website":"https://m.facebook.com/Les.Bicyclettes.de.Cachou/","osm_id":9990003779}},{"type":"Feature","geometry":{"type":"Point","coordinates":[-4.5278701,48.3881325]},"properties":{"category":"compressed_air","osm_id":12077170736}},{"type":"Feature","geometry":{"type":"Point","coordinates":[-4.5181368,48.3923335]},"properties":{"category":"bakery","name":"Les délices de Jack London","phone":"+33229026097","osm_id":12755237224}},{"type":"Feature","geometry":{"type":"Point","coordinates":[-4.5051618,48.39824]},"properties":{"category":"shop","name":"Atelier vélo Écomobilité UBO","opening_hours":"Tu,Th 12:00-14:00","phone":"+33 2 98 01 67 15","osm_id":13153019603}},{"type":"Feature","geometry":{"type":"Point","coordinates":[-4.5776058,48.3561323]},"properties":{"category":"repair","opening_hours":"Mo-Fr 08:30-12:00, 13:30-18:30","osm_id":14133047401}}]}