{"type":"FeatureCollection","features":[{"type":"Feature","geometry":{"type":"Point","coordinates":[7.4411945,48.3832431]},"properties":{"category":"bakery","osm_id":876463694}},{"type":"Feature","geometry":{"type":"Point","coordinates":[7.4250438,48.325584]},"properties":{"category":"bakery","name":"Pâtisserie Kamm","opening_hours":"Mo off; Tu-Fr 09:00-18:30, Sa-Su 08:00-18:00","phone":"+33 3 88 92 40 65","website":"https://patisserie-kamm.fr/","osm_id":1382986448}},{"type":"Feature","geometry":{"type":"Point","coordinates":[7.4254258,48.3221221]},"properties":{"category":"bakery","name":"Boulangerie Pâtisserie Friant","phone":"+33 3 88 92 43 73","osm_id":2140192217}},{"type":"Feature","geometry":{"type":"Point","coordinates":[7.4242967,48.3238832]},"properties":{"category":"bakery","name":"Ronde des Pains","opening_hours":"Mo-Sa 05:30-12:30, Mo,We-Fr 15:30-18:30, PH,Su 07:00-12:00","phone":"+33 3 88 92 41 09","osm_id":6431631385}},{"type":"Feature","geometry":{"type":"Point","coordinates":[7.4656693,48.358889]},"properties":{"category":"bakery","name":"Aux Délices Epfig","opening_hours":"Mo-Fr 06:15-13:15, 15:30-18:30; Sa 07:00-13:00; Su 07:00-12:00","osm_id":10110730492}},{"type":"Feature","geometry":{"type":"Point","coordinates":[7.4173806,48.385735]},"properties":{"category":"bakery","name":"Boulangerie Rietsch","opening_hours":"Tu-Fr 06:20-12:20,14:30-19:00; Sa 06:20-12:20,14:30-17:00; Su 07:30-13:00","phone":"+33 3 88 08 91 73","osm_id":14058137326}}]}