{"type":"FeatureCollection","features":[{"type":"Feature","geometry":{"type":"Point","coordinates":[-4.1604051,48.3267703]},"properties":{"category":"bakery","name":"La Ronde des Pains","opening_hours":"Tu-Sa 07:00-13:00,15:00-19:30;Su 07:00-13:00","phone":"+33 2 98 21 93 62","osm_id":2997748854}},{"type":"Feature","geometry":{"type":"Point","coordinates":[-4.1288746,48.3965339]},"properties":{"category":"shop","name":"Recyclerie","opening_hours":"We 14:00-18:30;Sa 10:00-18:30","phone":"+33767489693","osm_id":11061955490}}]}