{"type":"FeatureCollection","features":[{"type":"Feature","geometry":{"type":"Point","coordinates":[-0.2742337,48.3447604]},"properties":{"category":"bakery","name":"Boulangerie pâtisserie Cybèle","osm_id":3207954838}},{"type":"Feature","geometry":{"type":"Point","coordinates":[-0.2488378,48.3059048]},"properties":{"category":"bakery","osm_id":3207955410}},{"type":"Feature","geometry":{"type":"Point","coordinates":[-0.2761756,48.3451541]},"properties":{"category":"bakery","osm_id":3207955445}}]}