{"type":"FeatureCollection","features":[{"type":"Feature","geometry":{"type":"Point","coordinates":[-4.2604908,48.3616771]},"properties":{"category":"bakery","name":"Boulangerie Patisserie Le Goff","opening_hours":"Tu,Th,Fr 07:00-19:30;Sa 07:00-13:00,15:00-19:00;We,Su 07:00-13:00;Mo Off","phone":"+33 2 98 47 43 45","osm_id":1584512712}},{"type":"Feature","geometry":{"type":"Point","coordinates":[-4.2408721,48.3276662]},"properties":{"category":"bakery","name":"Boulangerie Le Goff","opening_hours":"Mo-Su 07:15-13:00;We off","osm_id":2544277033}},{"type":"Feature","geometry":{"type":"Point","coordinates":[-4.2983607,48.3218764]},"properties":{"category":"bakery","name":"Boulangerie Lemaire","opening_hours":"Tu 07:00-12:30,16:00-19:00; Th,Fr 07:00-12:30,16:00-19:00;Sa ,Su 07:00-12:30;Mo,We off","phone":"+33 9 86 52 44 74","osm_id":9241605571}},{"type":"Feature","geometry":{"type":"Point","coordinates":[-4.2974293,48.3229751]},"properties":{"category":"shop","name":"Happy Cyclette","opening_hours":"Jul-Aug Th[1] 09:00-18:00","osm_id":9915292869}},{"type":"Feature","geometry":{"type":"Point","coordinates":[-4.2618035,48.3612767]},"properties":{"category":"repair","osm_id":11053241577}},{"type":"Feature","geometry":{"type":"Point","coordinates":[-4.2576303,48.3589505]},"properties":{"category":"compressed_air","osm_id":13430902051}}]}