{"type":"FeatureCollection","features":[{"type":"Feature","geometry":{"type":"Point","coordinates":[-1.9809876,48.3834638]},"properties":{"category":"bakery","name":"Boulangerie du canal","osm_id":1670041531}},{"type":"Feature","geometry":{"type":"Point","coordinates":[-1.9801501,48.3839764]},"properties":{"category":"repair","osm_id":9904511526}},{"type":"Feature","geometry":{"type":"Point","coordinates":[-1.9942215,48.3616315]},"properties":{"category":"shop","name":"Pignons sur Roue","phone":"+33 2 96 86 42 07","osm_id":10259633007}},{"type":"Feature","geometry":{"type":"Point","coordinates":[-1.9033369,48.3988269]},"properties":{"category":"bakery","osm_id":12999549502}},{"type":"Feature","geometry":{"type":"Point","coordinates":[-1.9799765,48.3812767]},"properties":{"category":"bakery","name":"Le Kap Breton","opening_hours":"Mo off; Tu-We 07:00-14:00,16:00-20:00; Th-Sa 07:00-14:00,16:00-24:00; Su 07:00-14:00,18:00-22:00","osm_id":14080472331}}]}