{"type":"FeatureCollection","features":[{"type":"Feature","geometry":{"type":"Point","coordinates":[7.5920123,48.3709062]},"properties":{"category":"bakery","name":"Pâtisserie Sucretsel","opening_hours":"Tu-Fr 07:00-12:00,14:00-18:00; Sa 07:00-14:30; Su 08:00-12:00","phone":"+33 3 88 74 43 71","website":"https://sucretsel.fr","osm_id":950635685}},{"type":"Feature","geometry":{"type":"Point","coordinates":[7.5959017,48.3696883]},"properties":{"category":"bakery","name":"Boulangerie Pâtisserie Pfeiffer","opening_hours":"Mo-Fr 05:30-12:30, Mo,We-Fr 15:00-18:30; Sa 05:30-13:30","phone":"+33 388745116","osm_id":955605652}},{"type":"Feature","geometry":{"type":"Point","coordinates":[7.5934357,48.3706998]},"properties":{"category":"bakery","name":"Maison Botten","opening_hours":"Mo-Fr 05:30-13:30,15:00-19:00; Sa 06:00-13:00; Su 07:00-12:00","phone":"+33 3 88 74 45 59","website":"https://maisonbotten.fr","osm_id":956659529}},{"type":"Feature","geometry":{"type":"Point","coordinates":[7.5832283,48.361363]},"properties":{"category":"bakery","name":"Josiane et Fredy Walter","opening_hours":"Mo-Fr 06:00-18:00; We off; Sa 06:00-12:30; Su 07:00-11:30","phone":"+33 388744707","osm_id":1550671223}},{"type":"Feature","geometry":{"type":"Point","coordinates":[7.5911095,48.3752054]},"properties":{"category":"bakery","name":"Le Fournil de Louise","opening_hours":"Mo-Sa 08:00-20:00","phone":"+33 3 88 08 87 49","osm_id":3133010031}},{"type":"Feature","geometry":{"type":"Point","coordinates":[7.5017643,48.3076247]},"properties":{"category":"bakery","name":"Maison Botten","opening_hours":"Mo 06:00-13:00; Tu-Fr 06:00-20:00; Sa 06:00-13:00; Su 07:00-12:00","phone":"+33 3 88 92 16 10","osm_id":4147107397}},{"type":"Feature","geometry":{"type":"Point","coordinates":[7.5839785,48.3734445]},"properties":{"category":"repair","opening_hours":"24/7","osm_id":8506522021}},{"type":"Feature","geometry":{"type":"Point","coordinates":[7.5696436,48.3799395]},"properties":{"category":"bakery","name":"Jaeger Boulangerie Pâtisserie","opening_hours":"Mo-Fr 06:00-12:30,15:00-18:30; We 06:00-12:30; Sa 06:00-12:00","phone":"+33 3 88 74 45 21","website":"https://boulangeriejaeger.wixsite.com/boulangeriejaeger","osm_id":11262690793}},{"type":"Feature","geometry":{"type":"Point","coordinates":[7.5516917,48.3449543]},"properties":{"category":"bakery","name":"Boulangerie - Pâtisserie Biechel","opening_hours":"Mo-Fr 05:00-12:30,14:00-18:30; Sa 05:00-16:00","phone":"+33 3 90 57 82 47","osm_id":11342018274}},{"type":"Feature","geometry":{"type":"Point","coordinates":[7.5248784,48.310875]},"properties":{"category":"bakery","name":"Boulangerie Meyer-Klipfel","opening_hours":"Tu-Th 06:00-12:30; Fr 06:00-12:30,16:00-19:30; Sa 06:00-13:00","phone":"+33 3 88 85 71 69","website":"https://boulangerie-meyer-klipfel.business.site/","osm_id":11473398393}},{"type":"Feature","geometry":{"type":"Point","coordinates":[7.5941176,48.3699506]},"properties":{"category":"shop","name":"Niko Bike","opening_hours":"Tu-Fr 09:00-12:00,14:00-18:00; Sa 09:00-12:00,14:00-16:00","website":"https://www.nikobike.fr/","osm_id":12570799175}},{"type":"Feature","geometry":{"type":"Point","coordinates":[7.5959775,48.373194]},"properties":{"category":"bakery","name":"Boulangerie Kevin","phone":"+33 388088165","osm_id":14022347016}}]}