{"type":"FeatureCollection","features":[{"type":"Feature","geometry":{"type":"Point","coordinates":[-1.1832424,48.3493991]},"properties":{"category":"shop","name":"Cycles Chan Tsin","phone":"+33 2 99 99 21 60","website":"https://www.cycles-chan-tsin.fr","osm_id":5002042304}},{"type":"Feature","geometry":{"type":"Point","coordinates":[-1.1977981,48.3530176]},"properties":{"category":"shop","name":"Cycles Hubert","osm_id":8083784887}},{"type":"Feature","geometry":{"type":"Point","coordinates":[-1.1754878,48.3439565]},"properties":{"category":"shop","name":"Wareega","osm_id":11207108278}}]}