{"type":"FeatureCollection","features":[{"type":"Feature","geometry":{"type":"Point","coordinates":[-1.7708976,48.3109596]},"properties":{"category":"bakery","name":"Le P'tit Fournil","osm_id":3442794549}},{"type":"Feature","geometry":{"type":"Point","coordinates":[-1.7151954,48.3575551]},"properties":{"category":"bakery","name":"Boulangerie La Couronne Dorée","opening_hours":"Tu-Fr 07:00-13:00,15:30-19:30; Sa 07:00-13:00,15:30-19:00; Su 07:00-13:00","osm_id":6256219103}},{"type":"Feature","geometry":{"type":"Point","coordinates":[-1.793742,48.3051417]},"properties":{"category":"repair","opening_hours":"24/7","osm_id":11934638607}}]}