{"type":"FeatureCollection","features":[{"type":"Feature","geometry":{"type":"Point","coordinates":[6.3853055,48.3061913]},"properties":{"category":"bakery","osm_id":3188083722}},{"type":"Feature","geometry":{"type":"Point","coordinates":[6.3333533,48.3412985]},"properties":{"category":"bakery","name":"Fuentes","osm_id":7880916352}},{"type":"Feature","geometry":{"type":"Point","coordinates":[6.3864362,48.3092178]},"properties":{"category":"bakery","name":"Boulangerie La Gare","osm_id":10980442737}},{"type":"Feature","geometry":{"type":"Point","coordinates":[6.387543,48.3103158]},"properties":{"category":"repair","osm_id":11120032038}}]}