{"type":"FeatureCollection","features":[{"type":"Feature","geometry":{"type":"Point","coordinates":[-2.6352545,48.36039]},"properties":{"category":"bakery","osm_id":2690876312}},{"type":"Feature","geometry":{"type":"Point","coordinates":[-2.6169538,48.3601456]},"properties":{"category":"bakery","name":"Briend Christophe","osm_id":2692948308}},{"type":"Feature","geometry":{"type":"Point","coordinates":[-2.6841527,48.384595]},"properties":{"category":"bakery","name":"Artisan Boulanger Patissier Bouder","osm_id":13197361035}}]}