{"type":"FeatureCollection","features":[{"type":"Feature","geometry":{"type":"Point","coordinates":[3.1210363,48.326091]},"properties":{"category":"bakery","name":"Le Fournil de Johan","osm_id":1835419727}},{"type":"Feature","geometry":{"type":"Point","coordinates":[3.1871349,48.3989735]},"properties":{"category":"bakery","name":"Le Fournil De Bazoches","phone":"+33 1 60 67 14 34","osm_id":6764199785}},{"type":"Feature","geometry":{"type":"Point","coordinates":[3.1208196,48.3434468]},"properties":{"category":"compressed_air","osm_id":13860562045}}]}