{"type":"FeatureCollection","features":[{"type":"Feature","geometry":{"type":"Point","coordinates":[-0.4972821,48.4378323]},"properties":{"category":"bakery","name":"Boulangerie du château","phone":"+33 2 43 04 72 25","osm_id":1794233054}},{"type":"Feature","geometry":{"type":"Point","coordinates":[-0.4955134,48.437438]},"properties":{"category":"bakery","name":"Aux délices de Lassay","opening_hours":"Tu-Sa 06:45-19:45; Su 06:45-18:00","phone":"+33 2 43 04 70 95","osm_id":1887460959}},{"type":"Feature","geometry":{"type":"Point","coordinates":[-0.4088123,48.4178301]},"properties":{"category":"bakery","osm_id":10839579055}}]}