{"type":"FeatureCollection","features":[{"type":"Feature","geometry":{"type":"Point","coordinates":[0.7722169,48.4283449]},"properties":{"category":"bakery","name":"Aux gourmandises de Claire","opening_hours":"We-Sa 07:00-19:30; Su 07:00-13:00","osm_id":1933852819}},{"type":"Feature","geometry":{"type":"Point","coordinates":[0.7725156,48.4285158]},"properties":{"category":"bakery","name":"Aux Délices Rémalardais","phone":"+33 2 33 85 71 73","osm_id":1933852828}},{"type":"Feature","geometry":{"type":"Point","coordinates":[0.7120333,48.4411607]},"properties":{"category":"bakery","name":"Boulangerie Beaumet","phone":"+33 2 33 73 73 04","osm_id":2872569847}},{"type":"Feature","geometry":{"type":"Point","coordinates":[0.7905993,48.4277218]},"properties":{"category":"compressed_air","osm_id":9939717691}}]}