{"type":"FeatureCollection","features":[{"type":"Feature","geometry":{"type":"Point","coordinates":[-0.624951,48.4937629]},"properties":{"category":"bakery","osm_id":1829365876}},{"type":"Feature","geometry":{"type":"Point","coordinates":[-0.6307481,48.4025926]},"properties":{"category":"bakery","name":"Boulangerie Pâtisserie","osm_id":14072432168}},{"type":"Feature","geometry":{"type":"Point","coordinates":[-0.6239234,48.4937944]},"properties":{"category":"bakery","name":"Boulangerie-Patisserie","osm_id":14074446101}}]}