{"type":"FeatureCollection","features":[{"type":"Feature","geometry":{"type":"Point","coordinates":[-2.5458137,48.4680666]},"properties":{"category":"shop","name":"Giant","website":"https://www.giant-lamballe.fr/","osm_id":8163539831}},{"type":"Feature","geometry":{"type":"Point","coordinates":[-2.5003231,48.481465]},"properties":{"category":"shop","name":"Armor Cycles","osm_id":10102957734}},{"type":"Feature","geometry":{"type":"Point","coordinates":[-2.5108697,48.4651219]},"properties":{"category":"shop","name":"Plestan Cycles","phone":"+33 2 96 34 16 90","osm_id":12989103478}}]}