{"type":"FeatureCollection","features":[{"type":"Feature","geometry":{"type":"Point","coordinates":[5.1367482,48.4403967]},"properties":{"category":"bakery","name":"Boulangerie HANNEQUIN","opening_hours":"We-Mo 07:00-20:00","osm_id":3066519036}},{"type":"Feature","geometry":{"type":"Point","coordinates":[5.1413852,48.442768]},"properties":{"category":"bakery","osm_id":11290691430}},{"type":"Feature","geometry":{"type":"Point","coordinates":[5.1811397,48.4006967]},"properties":{"category":"bakery","osm_id":12918866909}}]}