{"type":"FeatureCollection","features":[{"type":"Feature","geometry":{"type":"Point","coordinates":[1.5205191,48.4376865]},"properties":{"category":"shop","name":"Univers Velo","osm_id":11171425546}},{"type":"Feature","geometry":{"type":"Point","coordinates":[1.5079904,48.4317829]},"properties":{"category":"shop","name":"Épicentre Solution","phone":"+33 7 50 31 08 24","website":"https://epicentresolution.wixsite.com/electricvelo","osm_id":11171425547}},{"type":"Feature","geometry":{"type":"Point","coordinates":[1.5314013,48.4944622]},"properties":{"category":"shop","name":"Cranium","phone":"+33 6 76 11 18 75","osm_id":11171425548}},{"type":"Feature","geometry":{"type":"Point","coordinates":[1.5100797,48.4717565]},"properties":{"category":"compressed_air","osm_id":14100408388}}]}