{"type":"FeatureCollection","features":[{"type":"Feature","geometry":{"type":"Point","coordinates":[6.1358842,48.4678787]},"properties":{"category":"bakery","osm_id":3847226499}},{"type":"Feature","geometry":{"type":"Point","coordinates":[6.1773651,48.4693333]},"properties":{"category":"bakery","name":"Le Fournil du Château","phone":"+33 3 83942209","osm_id":11533573382}},{"type":"Feature","geometry":{"type":"Point","coordinates":[6.1008802,48.4319378]},"properties":{"category":"bakery","name":"Le Fournil du Vivant","phone":"+33 684 410 712","website":"https://producteurs.souke.fr/lefournilduvivant","osm_id":13819220659}},{"type":"Feature","geometry":{"type":"Point","coordinates":[6.1009837,48.4337338]},"properties":{"category":"bakery","name":"Le pain d'Armelle","opening_hours":"Tu-Th 15:30-17:30","website":"https://producteurs.souke.fr/lepaindarmelle","osm_id":14096922864}}]}