{"type":"FeatureCollection","features":[{"type":"Feature","geometry":{"type":"Point","coordinates":[-1.4839353,48.4608087]},"properties":{"category":"bakery","name":"Au Bon Pain d'Antrain","opening_hours":"Tu-Sa 06:30-19:00; Su 06:30-12:45","phone":"+33 9 67 78 31 36","osm_id":9693210100}},{"type":"Feature","geometry":{"type":"Point","coordinates":[-1.4839407,48.4608057]},"properties":{"category":"bakery","name":"Au Bon Pain d'Antrain","opening_hours":"Tu-Sa 06:30-19:00; Su 06:30-12:45","phone":"+33 9 67 78 31 36","osm_id":9697158400}}]}