{"type":"FeatureCollection","features":[{"type":"Feature","geometry":{"type":"Point","coordinates":[0.6532414,48.4841127]},"properties":{"category":"bakery","name":"Le fournil de Jishua","opening_hours":"Su 07:00-13:00; Mo-Tu, Th-Sa 07:00-13:00, 15:30-19:00","osm_id":1584752737}},{"type":"Feature","geometry":{"type":"Point","coordinates":[0.6212541,48.4469797]},"properties":{"category":"bakery","name":"Boulangerie Hélaine","opening_hours":"Tu-Fr 07:30-13:30,15:30-19:30; Sa 07:30-19:30; Su 07:45-13:00","phone":"+33 2 33 83 84 36","osm_id":1953179578}}]}