{"type":"FeatureCollection","features":[{"type":"Feature","geometry":{"type":"Point","coordinates":[6.8469502,48.4048383]},"properties":{"category":"bakery","name":"Maison Adam","opening_hours":"Tu-Sa 04:30-13:00, 16:00-19:30; Su 04:30-13:00","phone":"+33 329 570 559","osm_id":1755818295}},{"type":"Feature","geometry":{"type":"Point","coordinates":[6.8439974,48.4067169]},"properties":{"category":"bakery","name":"Maison Merling","phone":"+33 329414551","osm_id":1755818306}},{"type":"Feature","geometry":{"type":"Point","coordinates":[6.83635,48.402944]},"properties":{"category":"bakery","name":"Kieffer Patrick","opening_hours":"Mo-Fr 06:15-12:30,15:30-19:00; Sa 06:15-12:30,15:30-18:00","phone":"+33 3 29 41 72 68","osm_id":7646985391}},{"type":"Feature","geometry":{"type":"Point","coordinates":[6.8374536,48.4037855]},"properties":{"category":"repair","osm_id":12647264038}},{"type":"Feature","geometry":{"type":"Point","coordinates":[6.8407388,48.4053991]},"properties":{"category":"bakery","osm_id":13191905077}}]}