{"type":"FeatureCollection","features":[{"type":"Feature","geometry":{"type":"Point","coordinates":[-1.7534478,48.5501858]},"properties":{"category":"bakery","name":"L'Atelier des Saveurs","opening_hours":"Tu-Sa 07:00-19:30; Su 07:00-12:00","phone":"+33299480312","osm_id":4474167915}},{"type":"Feature","geometry":{"type":"Point","coordinates":[-1.7552862,48.5495347]},"properties":{"category":"bakery","name":"Au Vieux Dol","opening_hours":"Tu-Sa 07:00-19:30; Su 07:00-13:00","osm_id":4474167916}},{"type":"Feature","geometry":{"type":"Point","coordinates":[-1.7566398,48.5493646]},"properties":{"category":"bakery","name":"Banette","opening_hours":"We-Mo 06:50-19:00; Tu off","osm_id":4474167921}},{"type":"Feature","geometry":{"type":"Point","coordinates":[-1.7478965,48.5463185]},"properties":{"category":"bakery","name":"La Doloise","phone":"+33299482293","osm_id":8221705029}},{"type":"Feature","geometry":{"type":"Point","coordinates":[-1.7478517,48.546563]},"properties":{"category":"shop","name":"Électricycles de la Baie","opening_hours":"Mo-Fr 09:00-12:00,14:00-18:30; Sa \"sur rendez-vous\"; PH off","phone":"+33 6 17 87 00 76","website":"https://electricyclesdelabaie.fr/","osm_id":10156583417}},{"type":"Feature","geometry":{"type":"Point","coordinates":[-1.757193,48.5499002]},"properties":{"category":"bakery","name":"Au Four d'Antan","osm_id":12147620372}},{"type":"Feature","geometry":{"type":"Point","coordinates":[-1.7244288,48.5513146]},"properties":{"category":"compressed_air","name":"Station de gonflage de pneus","osm_id":12182265519}},{"type":"Feature","geometry":{"type":"Point","coordinates":[-1.7504604,48.54388]},"properties":{"category":"repair","osm_id":13092267950}}]}