{"type":"FeatureCollection","features":[{"type":"Feature","geometry":{"type":"Point","coordinates":[-3.874596,48.5050666]},"properties":{"category":"shop","name":"Quéméner Cycles","opening_hours":"Mo-Sa 09:15-12:15,14:00-19:00","osm_id":3714780775}},{"type":"Feature","geometry":{"type":"Point","coordinates":[-3.8259558,48.5764286]},"properties":{"category":"shop","name":"La Clef à Morlette","opening_hours":"Tu-Sa 12:00-19:00; We 14:00-21:00","phone":"+33 2 56 36 94 72","osm_id":6133515392}},{"type":"Feature","geometry":{"type":"Point","coordinates":[-3.8246437,48.5760921]},"properties":{"category":"shop","name":"MLCycles","phone":"+33 09 51 38 15 06","website":"https://www.mlcycles.com/","osm_id":8929757350}},{"type":"Feature","geometry":{"type":"Point","coordinates":[-3.8496854,48.5725143]},"properties":{"category":"compressed_air","osm_id":10273107656}},{"type":"Feature","geometry":{"type":"Point","coordinates":[-3.8531555,48.5700043]},"properties":{"category":"compressed_air","osm_id":10273107657}},{"type":"Feature","geometry":{"type":"Point","coordinates":[-3.8682849,48.5166128]},"properties":{"category":"compressed_air","osm_id":10679144413}},{"type":"Feature","geometry":{"type":"Point","coordinates":[-3.8140087,48.5874133]},"properties":{"category":"compressed_air","osm_id":10705911145}},{"type":"Feature","geometry":{"type":"Point","coordinates":[-3.8120637,48.5873408]},"properties":{"category":"compressed_air","osm_id":10705911146}},{"type":"Feature","geometry":{"type":"Point","coordinates":[-3.8336216,48.5777038]},"properties":{"category":"repair","osm_id":12512079434}},{"type":"Feature","geometry":{"type":"Point","coordinates":[-3.8339266,48.5783739]},"properties":{"category":"repair","osm_id":13045885997}},{"type":"Feature","geometry":{"type":"Point","coordinates":[-3.8159268,48.5741859]},"properties":{"category":"repair","osm_id":13063480516}}]}