{"type":"FeatureCollection","features":[{"type":"Feature","geometry":{"type":"Point","coordinates":[7.32444,48.5268687]},"properties":{"category":"bakery","name":"Boulangerie Pâtisserie Banette - Felder","opening_hours":"Mo-Tu, Th-Fr 05:30-12:30, 15:00-19:00; Sa 05:30-12:30","phone":"+33 3 88 97 40 39","osm_id":1816359828}},{"type":"Feature","geometry":{"type":"Point","coordinates":[7.3855209,48.5068743]},"properties":{"category":"bakery","name":"Boulangerie Pâtisseries les Délices du Guirbaden","opening_hours":"Mo-Tu, Th-Fr 06:00-12:00, 15:00-18:30; Sa 06:00-12:00; Su 07:00-11:30","phone":"+33 9 86 24 58 99","osm_id":2226490511}},{"type":"Feature","geometry":{"type":"Point","coordinates":[7.3322137,48.5491942]},"properties":{"category":"bakery","name":"Boulangerie Pâtisserie Michael","phone":"+33388509140","osm_id":2333554345}},{"type":"Feature","geometry":{"type":"Point","coordinates":[7.3418069,48.5426308]},"properties":{"category":"bakery","name":"Boulangerie Pâtisserie Bac","opening_hours":"Tu-Fr 05:30-12:30,15:00-19:00; Sa,Su 06:00-12:00","phone":"+33388509006","osm_id":5664358765}}]}