{"type":"FeatureCollection","features":[{"type":"Feature","geometry":{"type":"Point","coordinates":[7.5272204,48.5671833]},"properties":{"category":"repair","osm_id":11056887618}},{"type":"Feature","geometry":{"type":"Point","coordinates":[7.5573327,48.5867541]},"properties":{"category":"repair","opening_hours":"24/7","osm_id":11306782770}},{"type":"Feature","geometry":{"type":"Point","coordinates":[7.5864666,48.5603325]},"properties":{"category":"compressed_air","osm_id":11401181782}},{"type":"Feature","geometry":{"type":"Point","coordinates":[7.5107595,48.5660185]},"properties":{"category":"repair","osm_id":12995656290}}]}