{"type":"FeatureCollection","features":[{"type":"Feature","geometry":{"type":"Point","coordinates":[6.1686347,48.5952767]},"properties":{"category":"bakery","name":"Maison Villa","opening_hours":"Tu-Sa 06:00-13:00;15:00-19:45; Su 06:00-13:00","phone":"+33 3 83256752","osm_id":1846935618}},{"type":"Feature","geometry":{"type":"Point","coordinates":[6.1421661,48.5416106]},"properties":{"category":"bakery","name":"La Mie de Pulligny","opening_hours":"Tu-Fr 06:30-13:30,15:30-19:00; Sa,Su 06:30-13:00","osm_id":1882312299}},{"type":"Feature","geometry":{"type":"Point","coordinates":[6.1507449,48.5917358]},"properties":{"category":"bakery","name":"Maison Pourchet et fils","osm_id":3300397889}},{"type":"Feature","geometry":{"type":"Point","coordinates":[6.1637512,48.5243478]},"properties":{"category":"bakery","name":"La Place Gourmande","opening_hours":"Tu-Fr 06:30-13:00,16:00-19:00; Sa 06:30-13:00; Su 06:30-12:30","phone":"+33 3 83252387","osm_id":3990002439}},{"type":"Feature","geometry":{"type":"Point","coordinates":[6.1881474,48.568637]},"properties":{"category":"bakery","osm_id":4400704493}}]}