{"type":"FeatureCollection","features":[{"type":"Feature","geometry":{"type":"Point","coordinates":[6.4827715,48.5858432]},"properties":{"category":"bakery","name":"Boulangerie - Pâtisserie Emilie et Stéphane","opening_hours":"Tu-Fr 06:00-19:15; Sa 06:00-19:00; Su 06:00-13:00,15:00-19:00","phone":"+33 3 83 73 41 12","osm_id":1390080537}},{"type":"Feature","geometry":{"type":"Point","coordinates":[6.4894511,48.5946783]},"properties":{"category":"bakery","name":"Boulangerie du château","osm_id":2371731932}},{"type":"Feature","geometry":{"type":"Point","coordinates":[6.4911496,48.5936118]},"properties":{"category":"bakery","name":"Au Pain Qui Chante","osm_id":2371732944}},{"type":"Feature","geometry":{"type":"Point","coordinates":[6.4950979,48.5909546]},"properties":{"category":"bakery","name":"Boulangerie Simon","opening_hours":"Mo-Sa 05:30-19:00","phone":"+33 9 87021266","osm_id":2371733478}},{"type":"Feature","geometry":{"type":"Point","coordinates":[6.4889595,48.5866561]},"properties":{"category":"shop","name":"VéloLun'","opening_hours":"Sa[2,4] 14:00-16:30","website":"https://velolun.jimdo.com/","osm_id":5193383185}},{"type":"Feature","geometry":{"type":"Point","coordinates":[6.48166,48.5830982]},"properties":{"category":"bakery","name":"Au Pain Qui Chante","phone":"+33 3 83740938","osm_id":7405783755}},{"type":"Feature","geometry":{"type":"Point","coordinates":[6.4868774,48.5972568]},"properties":{"category":"bakery","name":"Boulangerie Christophe Guillem","opening_hours":"05:00-13:00; Th off","phone":"+33 3 83732994","osm_id":7405783791}},{"type":"Feature","geometry":{"type":"Point","coordinates":[6.4947783,48.5925147]},"properties":{"category":"bakery","name":"Boulangerie du Château","phone":"+33 3 83894019","osm_id":7406280426}},{"type":"Feature","geometry":{"type":"Point","coordinates":[6.4961744,48.5901222]},"properties":{"category":"bakery","name":"Saint Remy","osm_id":10839484068}},{"type":"Feature","geometry":{"type":"Point","coordinates":[6.4067991,48.5555606]},"properties":{"category":"bakery","opening_hours":"Tu-Su 03:30-12:30,16:00-19:00","osm_id":13069545462}},{"type":"Feature","geometry":{"type":"Point","coordinates":[6.4984352,48.5906798]},"properties":{"category":"bakery","name":"Boulangerie Patisserie des Bosquets","osm_id":13664357781}}]}