{"type":"FeatureCollection","features":[{"type":"Feature","geometry":{"type":"Point","coordinates":[7.7512738,48.5592523]},"properties":{"category":"bakery","name":"Boulangerie Pâtisserie Gerome","opening_hours":"Mo-Fr 06:00-13:00; Sa 07:00-13:00","osm_id":251005567}},{"type":"Feature","geometry":{"type":"Point","coordinates":[7.7628449,48.5688266]},"properties":{"category":"bakery","name":"Boulangerie- Pâtisserie JM","opening_hours":"Tu-Fr 06:30-19:00; Sa 06:30-14:00; Su 06:30-12:00","osm_id":263360863}},{"type":"Feature","geometry":{"type":"Point","coordinates":[7.7212934,48.5966573]},"properties":{"category":"bakery","name":"Banette","opening_hours":"Mo-Sa 06:00-13:00, Mo-Fr 15:00-19:00, Su 07:00-12:00","osm_id":380671212}},{"type":"Feature","geometry":{"type":"Point","coordinates":[7.7222433,48.5956896]},"properties":{"category":"bakery","name":"La P'tite Boulange","opening_hours":"Mo-Fr 07:00-13:00,16:00-19:00; Sa,Su 07:00-13:00","phone":"+33 3 88 28 08 11","osm_id":462670932}},{"type":"Feature","geometry":{"type":"Point","coordinates":[7.759626,48.578689]},"properties":{"category":"bakery","name":"Boulangerie Patisserie Cassoret (Banette)","opening_hours":"Mo-Fr 06:00-19:00; Sa 07:00-13:00","phone":"+33 3 88 35 62 10","osm_id":494394614}},{"type":"Feature","geometry":{"type":"Point","coordinates":[7.7362668,48.5840696]},"properties":{"category":"bakery","name":"La Gare'Mandise","opening_hours":"Mo-Fr 06:00-19:00; Sa 07:00-18:00; Su 08:00-13:00","osm_id":501836918}},{"type":"Feature","geometry":{"type":"Point","coordinates":[7.7363504,48.5841343]},"properties":{"category":"bakery","name":"Les Mains Dans la Farine","osm_id":501839748}},{"type":"Feature","geometry":{"type":"Point","coordinates":[7.776825,48.583059]},"properties":{"category":"bakery","name":"Fanel and co","opening_hours":"Mo-Fr 06:30-13:30,15:30-18:00; We 06:30-13:30; Sa 07:00-12:00","phone":"+33973208248","osm_id":503610973}},{"type":"Feature","geometry":{"type":"Point","coordinates":[7.7007901,48.5783796]},"properties":{"category":"bakery","name":"La boulangerie pâtisserie Rita","opening_hours":"Tu-Fr 05:30-18:00; Sa 06:00-13:00; Su 06:00-12:00","phone":"+33 9 81 54 19 90","osm_id":528732585}},{"type":"Feature","geometry":{"type":"Point","coordinates":[7.7592338,48.5669352]},"properties":{"category":"shop","name":"VéloStation - Neudorf","opening_hours":"Tu 17:30-19:30; We 15:00-18:00; Th 18:00-20:00; Fr 18:00-20:00; Sa 14:30-17:30","phone":"+33 3 88 84 66 67","website":"https://velostation-strasbourg.org","osm_id":559734283}},{"type":"Feature","geometry":{"type":"Point","coordinates":[7.758439,48.5664071]},"properties":{"category":"bakery","name":"Le P'tit Caprice","opening_hours":"Tu-Fr 06:00-19:00; Sa 06:15-16:30; Su 06:15-13:00; Mo off","osm_id":560071714}},{"type":"Feature","geometry":{"type":"Point","coordinates":[7.7496092,48.5561444]},"properties":{"category":"bakery","name":"Boulangerie Kucia","osm_id":568814195}},{"type":"Feature","geometry":{"type":"Point","coordinates":[7.7200995,48.5920239]},"properties":{"category":"bakery","name":"Boulangerie Pâtisserie Olland","opening_hours":"Mo-Fr 04:00-19:00; Sa 04:00-13:00; Su off","phone":"+33 3 88 27 00 32","osm_id":585297803}},{"type":"Feature","geometry":{"type":"Point","coordinates":[7.7188311,48.5323286]},"properties":{"category":"bakery","name":"Boulangerie - Patisserie  La Boulangerie de L'Ill","osm_id":636085678}},{"type":"Feature","geometry":{"type":"Point","coordinates":[7.7523589,48.5681569]},"properties":{"category":"bakery","name":"Boulangerie Pâtisserie Du Schluthfeld","opening_hours":"Su 07:00-12:00; Mo-Fr 07:00-13:00; Sa 07:00-13:00","osm_id":638590795}},{"type":"Feature","geometry":{"type":"Point","coordinates":[7.7101238,48.5448114]},"properties":{"category":"bakery","name":"Boulangerie Christophe Cleiss","osm_id":656498929}},{"type":"Feature","geometry":{"type":"Point","coordinates":[7.7673002,48.590091]},"properties":{"category":"bakery","name":"L'Atelier 116","phone":"+33 3 90 41 73 08","osm_id":661330407}},{"type":"Feature","geometry":{"type":"Point","coordinates":[7.7614388,48.5659066]},"properties":{"category":"bakery","name":"La Groseille","opening_hours":"Mo-Fr 06:30-19:00, Sa 06:30-13:00, Su,PH 07:00-12:30","osm_id":661592290}},{"type":"Feature","geometry":{"type":"Point","coordinates":[7.7673784,48.5455621]},"properties":{"category":"bakery","name":"Le Moulin des Saveurs","phone":"+33 388403172","osm_id":665558545}},{"type":"Feature","geometry":{"type":"Point","coordinates":[7.7575729,48.5825744]},"properties":{"category":"bakery","name":"Au Wegele","opening_hours":"Mo-Fr 06:45-19:00","phone":"+33 3 88 35 41 91","osm_id":666115078}},{"type":"Feature","geometry":{"type":"Point","coordinates":[7.7127808,48.5569584]},"properties":{"category":"shop","name":"Véloplus Race Bike","opening_hours":"Tu-Fr 09:00-12:00, 13:30-18:30; Sa 09:00-16:00","phone":"+33 3 88 29 73 15","website":"https://cycl-ollier-veloplus-bike-avenue.fr/","osm_id":684212733}},{"type":"Feature","geometry":{"type":"Point","coordinates":[7.7607042,48.5931275]},"properties":{"category":"bakery","name":"Boulangerie Christian & Co","opening_hours":"Mo-Fr 05:00-19:00; Sa 05:00-13:00","phone":"+33 3 88 35 42 71","osm_id":777347095}},{"type":"Feature","geometry":{"type":"Point","coordinates":[7.746593,48.5905873]},"properties":{"category":"bakery","name":"La Mie Do Ré","opening_hours":"Mo-We 06:30-19:30; Th 08:00-14:00; Su 08:00-14:30","phone":"+33388365259","osm_id":1210841315}},{"type":"Feature","geometry":{"type":"Point","coordinates":[7.7496823,48.5913333]},"properties":{"category":"bakery","name":"Hanau","opening_hours":"Mo-Fr 05:00-20:00; Su 06:00-13:00","osm_id":1210841490}},{"type":"Feature","geometry":{"type":"Point","coordinates":[7.7531557,48.5889127]},"properties":{"category":"bakery","name":"Pâtisserie Kubler","opening_hours":"\"Horaires d'été (du 14 juillet au 18 août 2025)\"","website":"https://www.kubler.fr","osm_id":1211016214}},{"type":"Feature","geometry":{"type":"Point","coordinates":[7.7526493,48.5890406]},"properties":{"category":"shop","name":"Bike Avenue","opening_hours":"Tu-Fr 08:30-12:00,13:30-18:30; Sa 09:00-17:00","phone":"+33 3 88 36 20 33","website":"https://cycl-ollier-veloplus-bike-avenue.fr/","osm_id":1211016718}},{"type":"Feature","geometry":{"type":"Point","coordinates":[7.757944,48.5797109]},"properties":{"category":"bakery","name":"Au Pain de mon Grand-Père","opening_hours":"Tu-Sa 06:00-19:00; Su 06:00-13:00","phone":"+33 3 88 36 59 66","osm_id":1211141251}},{"type":"Feature","geometry":{"type":"Point","coordinates":[7.7447444,48.5899913]},"properties":{"category":"bakery","name":"Boulangerie Cyrille Keller","opening_hours":"Mo-Sa 05:30-19:00; Su,PH 07:00-12:00","phone":"+33 3 88 22 66 60","osm_id":1212096245}},{"type":"Feature","geometry":{"type":"Point","coordinates":[7.7695387,48.5775382]},"properties":{"category":"bakery","name":"Fournil des Délices","phone":"+33 3 88 44 54 96","osm_id":1230002126}},{"type":"Feature","geometry":{"type":"Point","coordinates":[7.7705721,48.5813319]},"properties":{"category":"bakery","name":"Boulangerie Maulbecker Maurer","phone":"+33 3 88 61 79 97","osm_id":1230015660}},{"type":"Feature","geometry":{"type":"Point","coordinates":[7.7537031,48.5771085]},"properties":{"category":"shop","name":"Cycles Blondin - B Cycles","opening_hours":"We-Fr 10:00-12:00,13:30-18:30; Sa 10:00-12:00,13:00-18:00; Tu 09:00-12:00,13:30-18:30","phone":"+33 3 88 36 22 15","osm_id":1235168093}},{"type":"Feature","geometry":{"type":"Point","coordinates":[7.7739025,48.5669191]},"properties":{"category":"bakery","name":"La Place des Délices","opening_hours":"Mo-Fr 05:00-19:00; Sa 05:00-13:00; PH 06:00-12:00","phone":"+33 3 88 84 94 72","osm_id":1241204293}},{"type":"Feature","geometry":{"type":"Point","coordinates":[7.7324524,48.5768882]},"properties":{"category":"bakery","name":"Boulangerie Amry","opening_hours":"Mo-Fr 06:30-13:30,15:30-19:00; Sa,Su 06:00-13:00","phone":"+33 3 88 32 29 58","osm_id":1245322650}},{"type":"Feature","geometry":{"type":"Point","coordinates":[7.731442,48.5767361]},"properties":{"category":"bakery","name":"Blé d'Or","osm_id":1245322799}},{"type":"Feature","geometry":{"type":"Point","coordinates":[7.7386683,48.5836024]},"properties":{"category":"bakery","name":"Durrenberger","opening_hours":"Mo-Su 06:00-20:00","phone":"+33 3 88 22 13 33","website":"https://durrenberger.fr","osm_id":1248867907}},{"type":"Feature","geometry":{"type":"Point","coordinates":[7.7417648,48.5840237]},"properties":{"category":"bakery","name":"Patisserie Michel","osm_id":1249709893}},{"type":"Feature","geometry":{"type":"Point","coordinates":[7.7574488,48.587697]},"properties":{"category":"bakery","name":"Hanau","opening_hours":"Mo-Fr 06:30-19:30; Su 06:30-14:00","osm_id":1264146537}},{"type":"Feature","geometry":{"type":"Point","coordinates":[7.764342,48.5678139]},"properties":{"category":"bakery","name":"Chez Jérémy","opening_hours":"Sa 06:30-12:30; Mo-Fr 06:30-18:30","phone":"+33 3 88 34 49 52","website":"https://www.chezjeremy.com/","osm_id":1353480920}},{"type":"Feature","geometry":{"type":"Point","coordinates":[7.7131036,48.5793191]},"properties":{"category":"bakery","name":"Boulangerie Pâtisserie Alain Hohwald","osm_id":1445515549}},{"type":"Feature","geometry":{"type":"Point","coordinates":[7.7122027,48.530455]},"properties":{"category":"bakery","osm_id":1525966749}},{"type":"Feature","geometry":{"type":"Point","coordinates":[7.7901293,48.5991241]},"properties":{"category":"bakery","name":"Framboisier","opening_hours":"Tu-Fr 07:30-18:00; Sa 08:00-17:00; Su 08:00-13:00","phone":"+33 3 88 39 52 69","website":"https://framboisier.eatbu.com/","osm_id":1595544428}},{"type":"Feature","geometry":{"type":"Point","coordinates":[7.7499684,48.5505202]},"properties":{"category":"bakery","name":"Boulangerie Banette - Le Fournil de la Meinau","opening_hours":"Mo-Fr 05:30-13:00,15:00-18:30; Sa 05:30-12:30; Su 07:30-12:00","phone":"+33 3 88 39 30 69","osm_id":1666574517}},{"type":"Feature","geometry":{"type":"Point","coordinates":[7.7462745,48.5802054]},"properties":{"category":"bakery","name":"Maison Alsacienne de Biscuiterie","opening_hours":"Mo-Su 09:00-19:00","phone":"+33 3 89 21 85 10","website":"https://www.maison-alsacienne-biscuiterie.com","osm_id":1716689678}},{"type":"Feature","geometry":{"type":"Point","coordinates":[7.7408647,48.5850017]},"properties":{"category":"shop","name":"CityZenBike","opening_hours":"Tu-Fr 09:30-12:30, 13:30-18:30; Sa 10:00-17:30","phone":"+33 3 88 75 01 53","osm_id":1784934014}},{"type":"Feature","geometry":{"type":"Point","coordinates":[7.7642106,48.5873809]},"properties":{"category":"bakery","name":"Boulangerie Patisserie Matthias","osm_id":1945315518}},{"type":"Feature","geometry":{"type":"Point","coordinates":[7.749904,48.581363]},"properties":{"category":"bakery","name":"Pâtisserie Christian","phone":"+33 3 88 32 04 41","osm_id":1945411869}},{"type":"Feature","geometry":{"type":"Point","coordinates":[7.7510722,48.578668]},"properties":{"category":"shop","name":"Bretz'Selle","opening_hours":"Tu 14:00-20:30; We 17:00-20:30; Th 16:30-20:00; Sa 14:00-17:30; Fr 11:00-17:30","phone":"+33 9 51 29 87 59","osm_id":1970477046}},{"type":"Feature","geometry":{"type":"Point","coordinates":[7.7004586,48.5626059]},"properties":{"category":"bakery","name":"Boulangerie Carciofi","phone":"+33 3 88 76 50 58","osm_id":2298903404}},{"type":"Feature","geometry":{"type":"Point","coordinates":[7.7126014,48.5304097]},"properties":{"category":"bakery","name":"Boulangerie Gantzer","osm_id":2591862562}},{"type":"Feature","geometry":{"type":"Point","coordinates":[7.7510263,48.5786037]},"properties":{"category":"shop","name":"Cadr67","opening_hours":"We-Sa 12:00-18:00","phone":"+33 3 88 75 17 50","osm_id":2597712876}},{"type":"Feature","geometry":{"type":"Point","coordinates":[7.7739472,48.5848651]},"properties":{"category":"bakery","name":"Boulangerie Keil","opening_hours":"Tu-Fr 06:30-19:00; Sa 06:30-13:00; Su 07:30-12:00","phone":"+33 3 88 61 82 93","osm_id":2854444559}},{"type":"Feature","geometry":{"type":"Point","coordinates":[7.7721039,48.5851839]},"properties":{"category":"bakery","name":"Caouette","osm_id":2854448015}},{"type":"Feature","geometry":{"type":"Point","coordinates":[7.7792886,48.5996989]},"properties":{"category":"bakery","name":"Du Blé au Pain","opening_hours":"Mo-Sa 06:30-19:30; Su 07:00-12:30","phone":"+33 3 88 37 11 09","osm_id":2987434687}},{"type":"Feature","geometry":{"type":"Point","coordinates":[7.7615224,48.5832209]},"properties":{"category":"bakery","name":"Ma boulangerie de la Victoire","opening_hours":"Mo-Fr 06:30-17:30","osm_id":3049194550}},{"type":"Feature","geometry":{"type":"Point","coordinates":[7.7580973,48.5788292]},"properties":{"category":"shop","name":"Re-Cycle","opening_hours":"Mo 14:00-18:30; Tu-Fr 10:00-13:30,14:00-18:30; Sa 10:00-13:00","phone":"+33 7 70 70 43 51","osm_id":3049374106}},{"type":"Feature","geometry":{"type":"Point","coordinates":[7.7479514,48.5817426]},"properties":{"category":"bakery","name":"Dreher","opening_hours":"Mo-Sa 07:30-20:00; Su 08:00-19:00","phone":"+33 3 90 23 59 76","website":"https://www.drehers.eu/","osm_id":3062718112}},{"type":"Feature","geometry":{"type":"Point","coordinates":[7.7472287,48.5828437]},"properties":{"category":"bakery","name":"Paul","osm_id":3259766198}},{"type":"Feature","geometry":{"type":"Point","coordinates":[7.7354963,48.583333]},"properties":{"category":"bakery","name":"O P'train","opening_hours":"Mo-Fr 06:00-19:00; Sa 06:00-16:30; Su,PH off","osm_id":3270376342}},{"type":"Feature","geometry":{"type":"Point","coordinates":[7.7525096,48.5827751]},"properties":{"category":"bakery","name":"Banette","opening_hours":"Mo-Sa 07:00-19:00, Su 08:00-14:30","osm_id":3575015996}},{"type":"Feature","geometry":{"type":"Point","coordinates":[7.7490605,48.5823395]},"properties":{"category":"bakery","name":"Les Mains Dans la Farine","osm_id":3791427168}},{"type":"Feature","geometry":{"type":"Point","coordinates":[7.7510072,48.5779463]},"properties":{"category":"shop","name":"StrasBike","opening_hours":"Mo-Fr 09:15-12:00,14:00-18:00; Sa,Su off","phone":"+33 9 53 10 83 24","website":"https://www.strasbike.com/velos/","osm_id":3818947530}},{"type":"Feature","geometry":{"type":"Point","coordinates":[7.7684946,48.5387786]},"properties":{"category":"bakery","name":"Boulangerie Pâtisserie Eric Kloster","osm_id":4111088162}},{"type":"Feature","geometry":{"type":"Point","coordinates":[7.7486863,48.5817365]},"properties":{"category":"bakery","name":"Au Pain de mon Grand-Père","opening_hours":"Mo-Sa 07:00-19:30, Su 07:00-19:00, PH 07:00-19:00","phone":"+33390412944","osm_id":4112849889}},{"type":"Feature","geometry":{"type":"Point","coordinates":[7.7448545,48.5838679]},"properties":{"category":"bakery","name":"Poulaillon","opening_hours":"Mo-Sa 06:00-19:30","phone":"+33 3 88 32 96 60","website":"https://www.poulaillon.fr/","osm_id":4137198290}},{"type":"Feature","geometry":{"type":"Point","coordinates":[7.7521309,48.5910959]},"properties":{"category":"bakery","name":"Baraka","phone":"+33 956231849","osm_id":4213131687}},{"type":"Feature","geometry":{"type":"Point","coordinates":[7.7468784,48.5803582]},"properties":{"category":"bakery","name":"Woerlé","opening_hours":"Mo-Sa 07:00-19:00; Su 08:00-18:00","phone":"+33 3 88 15 19 30","osm_id":4429511927}},{"type":"Feature","geometry":{"type":"Point","coordinates":[7.7433332,48.5816527]},"properties":{"category":"bakery","name":"Banette","osm_id":4431494274}},{"type":"Feature","geometry":{"type":"Point","coordinates":[7.7516911,48.578838]},"properties":{"category":"bakery","name":"Le Fournil d'Austerlitz","opening_hours":"Mo-Fr 07:00-19:30; Sa 07:00-19:00; Su 08:00-18:00","phone":"+33 3 88 36 24 92","website":"https://le-fournil-dausterlitz.business.site/","osm_id":4431523246}},{"type":"Feature","geometry":{"type":"Point","coordinates":[7.7526754,48.5784636]},"properties":{"category":"bakery","name":"L'allégorie","opening_hours":"Mo-Sa 07:00-20:00; Su 08:00-20:00","phone":"+33 3 88 66 89 59","website":"https://lallegorie.com/","osm_id":4431523247}},{"type":"Feature","geometry":{"type":"Point","coordinates":[7.7511184,48.5790465]},"properties":{"category":"bakery","name":"Dreher","opening_hours":"Mo-Sa 07:30-20:00; Su 08:00-19:00","phone":"+33 3 88 64 17 94","osm_id":4431523248}},{"type":"Feature","geometry":{"type":"Point","coordinates":[7.7568008,48.5822328]},"properties":{"category":"bakery","name":"Campaillette","phone":"+33 7 86 95 00 68","osm_id":4483052043}},{"type":"Feature","geometry":{"type":"Point","coordinates":[7.7432265,48.5871687]},"properties":{"category":"bakery","name":"Mokka","opening_hours":"Mo-Fr 07:00-19:00; Sa 07:00-18:00","phone":"+33 3 69 48 32 19","website":"https://mokka-strasbourg.fr/","osm_id":4519297606}},{"type":"Feature","geometry":{"type":"Point","coordinates":[7.7473815,48.5807237]},"properties":{"category":"bakery","name":"Biscottes Sante","opening_hours":"Mo-Sa 07:00-19:00","osm_id":4543001649}},{"type":"Feature","geometry":{"type":"Point","coordinates":[7.722648,48.5148754]},"properties":{"category":"bakery","name":"Boulangerie La Corbeille à Pain","osm_id":4550389029}},{"type":"Feature","geometry":{"type":"Point","coordinates":[7.7477303,48.5833553]},"properties":{"category":"bakery","name":"L'Eden","opening_hours":"Tu-Fr 10:00-18:30; Sa 10:00-17:00","phone":"+33390417495","website":"https://boulangerie-eden.fr/","osm_id":4598296542}},{"type":"Feature","geometry":{"type":"Point","coordinates":[7.7704501,48.5777415]},"properties":{"category":"bakery","name":"Boulangerie Stievenard","opening_hours":"Mo 06:30-13:00; Tu-Fr 06:30-17:30; Sa 06:30-12:15","phone":"+33 3 88 61 06 13","osm_id":4600677787}},{"type":"Feature","geometry":{"type":"Point","coordinates":[7.7769131,48.5692156]},"properties":{"category":"bakery","name":"Aux Grains Gourmands","opening_hours":"Mo-Fr 06:00-19:00; Sa 06:00-14:00","phone":"+33 6 63 03 09 33","osm_id":4605492474}},{"type":"Feature","geometry":{"type":"Point","coordinates":[7.7417524,48.5827314]},"properties":{"category":"bakery","name":"Les mains dans la farine","opening_hours":"Mo-Sa 06:30-20:00; Su 07:00-20:00","phone":"+33 3 88 22 28 27","website":"https://www.lesmainsdanslafarine.fr/","osm_id":4614044705}},{"type":"Feature","geometry":{"type":"Point","coordinates":[7.717981,48.522595]},"properties":{"category":"bakery","name":"Boulangerie - Patisserie Banette","opening_hours":"Mo-Fr 06:00-19:00; Sa 06:00-13:00; Su 07:00-12:00","osm_id":4637999689}},{"type":"Feature","geometry":{"type":"Point","coordinates":[7.7561061,48.572287]},"properties":{"category":"shop","name":"Cyclable","opening_hours":"Tu-Fr 10:00-14:00,15:00-19:00; Sa 10:00-18:00","phone":"+33 3 88 34 47 53","website":"https://strasbourg-etoile.cyclable.com/","osm_id":4929034789}},{"type":"Feature","geometry":{"type":"Point","coordinates":[7.7596338,48.5752867]},"properties":{"category":"bakery","name":"La Friandise","phone":"+33 3 88 25 17 20","osm_id":5065170921}},{"type":"Feature","geometry":{"type":"Point","coordinates":[7.7540436,48.5845312]},"properties":{"category":"bakery","name":"Authentique","opening_hours":"Mo-Sa 07:00-19:30; Su,PH 07:00-12:30","phone":"+33 3 88 25 68 62","osm_id":5097838659}},{"type":"Feature","geometry":{"type":"Point","coordinates":[7.7387548,48.5821872]},"properties":{"category":"bakery","name":"Chez Steph","opening_hours":"Mo-Fr 06:00-14:30,16:00-19:00; Sa 06:00-13:00","phone":"+33 3 88 32 60 44","osm_id":5190858434}},{"type":"Feature","geometry":{"type":"Point","coordinates":[7.7095681,48.5776271]},"properties":{"category":"shop","name":"Syndicat technique d'initiative cyclable de Koenigshoffen","opening_hours":"Th 18:00-20:00; Su 13:00-15:00","website":"https://lestick.azqs.com","osm_id":5293565436}},{"type":"Feature","geometry":{"type":"Point","coordinates":[7.7756598,48.5842066]},"properties":{"category":"shop","name":"Cycl'Ollier","opening_hours":"Mo-Fr 08:30-12:00,13:30-18:00; Sa 09:00-15:00","phone":"+33 3 88 34 36 55","website":"https://cycl-ollier-veloplus-bike-avenue.fr/","osm_id":5297380140}},{"type":"Feature","geometry":{"type":"Point","coordinates":[7.7442309,48.5814225]},"properties":{"category":"bakery","name":"L'Atelier 116","opening_hours":"Mo-Sa 07:00-19:00; Su 08:00-19:00","phone":"+33 3 90 41 73 08","osm_id":5338688758}},{"type":"Feature","geometry":{"type":"Point","coordinates":[7.7762705,48.5862404]},"properties":{"category":"bakery","name":"Salon de thé Car&Mel","osm_id":5399264521}},{"type":"Feature","geometry":{"type":"Point","coordinates":[7.7709364,48.5835955]},"properties":{"category":"bakery","name":"Pâtisserie Pauline","opening_hours":"Su 08:00-12:00; Mo off; Tu-Fr 07:00-17:30; Sa 08:00-13:30","phone":"+33 3 88 55 74 33","osm_id":5554074746}},{"type":"Feature","geometry":{"type":"Point","coordinates":[7.7194384,48.5736931]},"properties":{"category":"bakery","name":"Au plaisir du pain","opening_hours":"Mo-Fr 06:00-18:30; Sa-Su 06:00-13:00","phone":"+33 3 88 28 90 38","osm_id":5754652662}},{"type":"Feature","geometry":{"type":"Point","coordinates":[7.7442201,48.5838453]},"properties":{"category":"bakery","name":"La Mie Câline","opening_hours":"Mo-Su 07:00-20:00","phone":"+33 3 88 35 30 94","website":"https://lamiecaline.com/magasin/strasbourg/323","osm_id":5786271950}},{"type":"Feature","geometry":{"type":"Point","coordinates":[7.7759651,48.5679949]},"properties":{"category":"bakery","name":"La Gourmande","opening_hours":"Mo-Fr 06:00-19:00; Sa 06:00-14:00; Su 07:00-14:00; PH 07:00-14:00","osm_id":5817340243}},{"type":"Feature","geometry":{"type":"Point","coordinates":[7.7675637,48.5729457]},"properties":{"category":"bakery","name":"Pétrin Bistrot du Boulanger","opening_hours":"06:30-19:00","phone":"+33 6 15 50 51 24","website":"https://petrin-bistrot-du-boulanger.eatbu.com/","osm_id":5817350201}},{"type":"Feature","geometry":{"type":"Point","coordinates":[7.7421487,48.5787998]},"properties":{"category":"bakery","name":"Plein la moustache","opening_hours":"Mo-Fr 07:00-19:00; Sa 09:00-13:00; Su 08:00-13:00","phone":"+33 9 52 79 88 35","osm_id":5860545385}},{"type":"Feature","geometry":{"type":"Point","coordinates":[7.7256429,48.5916258]},"properties":{"category":"bakery","name":"Station R","phone":"+33 3 88 27 11 54","osm_id":6004905209}},{"type":"Feature","geometry":{"type":"Point","coordinates":[7.748842,48.5527063]},"properties":{"category":"bakery","name":"La Gourmande","opening_hours":"Mo-Fr 06:00-19:00; Sa 06:00-13:00; Su 07:00-13:00","phone":"+33 9 84 06 38 59","osm_id":6226677453}},{"type":"Feature","geometry":{"type":"Point","coordinates":[7.7599787,48.5873263]},"properties":{"category":"shop","name":"Tendance Cycles","opening_hours":"Mo-Sa 09:00-19:00","phone":"+33 3 88 24 13 25","osm_id":6413958352}},{"type":"Feature","geometry":{"type":"Point","coordinates":[7.7550837,48.5714085]},"properties":{"category":"bakery","name":"Boulangerie de l'Étoile","opening_hours":"Mo-Fr 05:00-19:30; Sa 05:00-18:30","osm_id":6579689682}},{"type":"Feature","geometry":{"type":"Point","coordinates":[7.7544653,48.5764713]},"properties":{"category":"shop","name":"La Maison du Vélo by Trace Verte","opening_hours":"Mo 14:00-19:00; Tu-Fr 10:00-19:00; Sa 10:00-18:00","phone":"+33 3 88 21 08 30","osm_id":6786097130}},{"type":"Feature","geometry":{"type":"Point","coordinates":[7.7754203,48.5681438]},"properties":{"category":"shop","name":"DS Vélo","opening_hours":"Mo-Sa 10:00-18:00","phone":"+33 6 51 44 30 69","osm_id":6871883667}},{"type":"Feature","geometry":{"type":"Point","coordinates":[7.7449368,48.5851307]},"properties":{"category":"shop","name":"La Tête dans le Guidon","opening_hours":"Mo-Sa 09:00-19:00","phone":"+33 3 88 22 61 95","website":"https://www.latetedansleguidon.eu/","osm_id":7096071103}},{"type":"Feature","geometry":{"type":"Point","coordinates":[7.7611466,48.5641106]},"properties":{"category":"bakery","name":"Boulangerie Pâtisserie Bienfait","opening_hours":"Mo-Sa 05:30-14:00","phone":"+33 388340674","osm_id":7139257888}},{"type":"Feature","geometry":{"type":"Point","coordinates":[7.7102751,48.5627949]},"properties":{"category":"bakery","name":"Le fournil d'Ostwald","opening_hours":"Mo-Tu,Th-Fr 06:00-19:15; We 06:00-13:00,15:00-19:15; Sa 06:00-13:00; Su 06:30-12:30","phone":"+33 3 88 30 14 87","osm_id":7383464130}},{"type":"Feature","geometry":{"type":"Point","coordinates":[7.7504102,48.583179]},"properties":{"category":"bakery","name":"Maison Alsacienne de Biscuiterie","opening_hours":"Tu-Sa 09:00-19:00; Mo 10:00-19:00; Su 10:00-18:00","phone":"+33 3 89 21 85 10","osm_id":7660527186}},{"type":"Feature","geometry":{"type":"Point","coordinates":[7.7552829,48.5741309]},"properties":{"category":"repair","osm_id":7743075185}},{"type":"Feature","geometry":{"type":"Point","coordinates":[7.7353981,48.584786]},"properties":{"category":"repair","opening_hours":"24/7","osm_id":7781574368}},{"type":"Feature","geometry":{"type":"Point","coordinates":[7.763098,48.5616153]},"properties":{"category":"shop","name":"Méga Vélo","opening_hours":"Tu-Sa 10:00-18:00","phone":"+33 6 12 16 31 68","osm_id":7816135781}},{"type":"Feature","geometry":{"type":"Point","coordinates":[7.7356531,48.5891605]},"properties":{"category":"repair","opening_hours":"24/7","osm_id":7902428285}},{"type":"Feature","geometry":{"type":"Point","coordinates":[7.7080003,48.5631806]},"properties":{"category":"shop","name":"VéloStation - Montagne Verte","opening_hours":"Mo 17:00-19:00; We 17:00-20:00; Sa 14:30-17:30","website":"https://www.velostation-strasbourg.org","osm_id":8384540477}},{"type":"Feature","geometry":{"type":"Point","coordinates":[7.7565525,48.5794259]},"properties":{"category":"shop","name":"L'increvable","opening_hours":"Apr-Oct Tu-Fr 07:30-12:30,14:00-19:00, We 12:00-14:00 open; Apr-Oct Sa 09:00-13:00; Nov-Mar Tu-Fr 08:00-12:00,14:00-18:30, We 12:00-14:00 open","phone":"+33 9 83 52 86 44","website":"https://lincrevable-cycles.fr/","osm_id":8384692950}},{"type":"Feature","geometry":{"type":"Point","coordinates":[7.7432293,48.5787271]},"properties":{"category":"bakery","name":"Hanss","opening_hours":"Mo-Fr 06:00-19:00; Sa 07:00-13:00","phone":"+33388361244","website":"https://boulangeriehanss.fr/","osm_id":8428628788}},{"type":"Feature","geometry":{"type":"Point","coordinates":[7.7647708,48.5988466]},"properties":{"category":"bakery","name":"Maison Keil","opening_hours":"Mo-Fr 06:30-19:00; Sa 07:00-13:00","osm_id":8675241105}},{"type":"Feature","geometry":{"type":"Point","coordinates":[7.7406726,48.5447531]},"properties":{"category":"bakery","name":"Paul","phone":"+33 3 88 40 20 31","osm_id":8913105254}},{"type":"Feature","geometry":{"type":"Point","coordinates":[7.7175404,48.5911372]},"properties":{"category":"shop","name":"Cycle St Florent","opening_hours":"Mo-Fr 09:30-12:00,14:00-19:00; Sa 09:30-13:00","osm_id":8925402944}},{"type":"Feature","geometry":{"type":"Point","coordinates":[7.7551505,48.5666751]},"properties":{"category":"bakery","name":"Woerlé","opening_hours":"Mo,Tu,Th,Fr 07:00-13:00,16:00-19:00; We,Sa,Su off","osm_id":8963322442}},{"type":"Feature","geometry":{"type":"Point","coordinates":[7.7487618,48.5829181]},"properties":{"category":"bakery","name":"Le Pain des Fromagers","opening_hours":"Tu-Fr 08:00-19:15; Sa 08:00-19:00","phone":"+33 3 88 22 56 45","osm_id":8979350136}},{"type":"Feature","geometry":{"type":"Point","coordinates":[7.7385542,48.5847309]},"properties":{"category":"bakery","name":"Maison Amry & Banette","opening_hours":"Mo-Fr 06:00-19:00; Sa 06:15-13:15","phone":"+33 3 88 37 96 45","osm_id":9000691191}},{"type":"Feature","geometry":{"type":"Point","coordinates":[7.7440546,48.5845335]},"properties":{"category":"bakery","name":"Paul","opening_hours":"Mo-Fr 07:00-19:30","phone":"+33 3 59 28 97 68","website":"https://www.paul.fr/","osm_id":9023068435}},{"type":"Feature","geometry":{"type":"Point","coordinates":[7.7465859,48.5826011]},"properties":{"category":"bakery","name":"Xoxo","website":"https://fournil-kristof.com/","osm_id":9023121444}},{"type":"Feature","geometry":{"type":"Point","coordinates":[7.7028367,48.5868293]},"properties":{"category":"bakery","name":"Marie Blachère","opening_hours":"Mo-Sa 07:00-19:30","phone":"+33 3 88 29 44 72","website":"https://www.marieblachere.com/","osm_id":9028760257}},{"type":"Feature","geometry":{"type":"Point","coordinates":[7.7678999,48.5998378]},"properties":{"category":"repair","osm_id":9056717389}},{"type":"Feature","geometry":{"type":"Point","coordinates":[7.7869399,48.5754412]},"properties":{"category":"shop","name":"Cycles Manivelle","opening_hours":"Mo-Fr 09:30-18:00 \"Sur rendez-vous\"","phone":"+33 7 52 63 33 17","website":"https://cyclesmanivelle.com/","osm_id":9236332048}},{"type":"Feature","geometry":{"type":"Point","coordinates":[7.7559721,48.5712888]},"properties":{"category":"shop","name":"Cyclable Services","opening_hours":"Mo-Fr 09:00-14:00,15:00-18:00","phone":"+33388344753","osm_id":9239185138}},{"type":"Feature","geometry":{"type":"Point","coordinates":[7.7552217,48.5766362]},"properties":{"category":"shop","name":"Chez Biclou","opening_hours":"Tu-Fr 09:00-12:30,13:30-19:00; Mo 14:00-19:00; Sa 10:00-17:00; Aug 2-Aug 25 : off","phone":"+33 3 88 10 9832","website":"https://www.chezbiclou.com/","osm_id":9308326025}},{"type":"Feature","geometry":{"type":"Point","coordinates":[7.7480166,48.5820541]},"properties":{"category":"bakery","name":"Les mains dans la farine","opening_hours":"Mo-Sa 06:30-20:00; Su 07:00-16:00","phone":"+33 3 88 22 28 27","website":"https://www.lesmainsdanslafarine.fr/","osm_id":9341091587}},{"type":"Feature","geometry":{"type":"Point","coordinates":[7.7420712,48.5857676]},"properties":{"category":"tube_vending","osm_id":9345844627}},{"type":"Feature","geometry":{"type":"Point","coordinates":[7.7949047,48.5724266]},"properties":{"category":"repair","osm_id":9406680470}},{"type":"Feature","geometry":{"type":"Point","coordinates":[7.7600769,48.5669165]},"properties":{"category":"shop","name":"Urban Ride","opening_hours":"Mo-Fr 09:00-13:00,14:00-18:00","phone":"+339 51 22 49 61","website":"https://www.urban-ride-strasbourg.fr","osm_id":9806569890}},{"type":"Feature","geometry":{"type":"Point","coordinates":[7.7502998,48.5800588]},"properties":{"category":"bakery","name":"Poulaillon","opening_hours":"Mo-Sa 07:00-19:00; Su 09:00-19:00","phone":"+33 3 88 21 78 75","osm_id":10121700782}},{"type":"Feature","geometry":{"type":"Point","coordinates":[7.758833,48.5662287]},"properties":{"category":"compressed_air","osm_id":10129122146}},{"type":"Feature","geometry":{"type":"Point","coordinates":[7.7261789,48.5676088]},"properties":{"category":"compressed_air","osm_id":10200141621}},{"type":"Feature","geometry":{"type":"Point","coordinates":[7.750312,48.5746248]},"properties":{"category":"compressed_air","osm_id":10200185310}},{"type":"Feature","geometry":{"type":"Point","coordinates":[7.7183909,48.5798745]},"properties":{"category":"bakery","name":"Le pain boulanger","opening_hours":"Mo-Fr 05:00-19:00; Sa 05:00-17:30","osm_id":10223322254}},{"type":"Feature","geometry":{"type":"Point","coordinates":[7.7755042,48.5843416]},"properties":{"category":"repair","opening_hours":"24/7","osm_id":10308897903}},{"type":"Feature","geometry":{"type":"Point","coordinates":[7.7566736,48.5702632]},"properties":{"category":"shop","name":"Ohm & Watt","opening_hours":"Mo 14:00-19:00; Tu-Fr 10:00-19:00","phone":"+33 3 69 74 74 02","website":"https://ohmetwatt.com/","osm_id":10597224406}},{"type":"Feature","geometry":{"type":"Point","coordinates":[7.760998,48.5985376]},"properties":{"category":"compressed_air","opening_hours":"24/7","osm_id":10858104462}},{"type":"Feature","geometry":{"type":"Point","coordinates":[7.736702,48.5824974]},"properties":{"category":"bakery","name":"Banette","osm_id":11189035863}},{"type":"Feature","geometry":{"type":"Point","coordinates":[7.7531662,48.5773143]},"properties":{"category":"bakery","name":"La Boul'ange","opening_hours":"Tu-Fr 07:30-18:30","phone":"+33 3 88 35 59 89","website":"https://laboulangebio.fr/","osm_id":11379441869}},{"type":"Feature","geometry":{"type":"Point","coordinates":[7.7678523,48.5773045]},"properties":{"category":"repair","opening_hours":"24/7","osm_id":11401181777}},{"type":"Feature","geometry":{"type":"Point","coordinates":[7.7278619,48.5770486]},"properties":{"category":"repair","osm_id":11401181778}},{"type":"Feature","geometry":{"type":"Point","coordinates":[7.7508937,48.5499962]},"properties":{"category":"compressed_air","osm_id":11401181783}},{"type":"Feature","geometry":{"type":"Point","coordinates":[7.7210339,48.5262747]},"properties":{"category":"compressed_air","osm_id":11401181784}},{"type":"Feature","geometry":{"type":"Point","coordinates":[7.7694311,48.5275095]},"properties":{"category":"compressed_air","osm_id":11401181785}},{"type":"Feature","geometry":{"type":"Point","coordinates":[7.7665365,48.5550152]},"properties":{"category":"compressed_air","osm_id":11401181786}},{"type":"Feature","geometry":{"type":"Point","coordinates":[7.7434733,48.5857094]},"properties":{"category":"compressed_air","osm_id":11401181787}},{"type":"Feature","geometry":{"type":"Point","coordinates":[7.7039447,48.5866925]},"properties":{"category":"compressed_air","osm_id":11402852053}},{"type":"Feature","geometry":{"type":"Point","coordinates":[7.706712,48.5649061]},"properties":{"category":"compressed_air","osm_id":11402852060}},{"type":"Feature","geometry":{"type":"Point","coordinates":[7.7755579,48.5842274]},"properties":{"category":"compressed_air","osm_id":11402852064}},{"type":"Feature","geometry":{"type":"Point","coordinates":[7.7445296,48.590828]},"properties":{"category":"compressed_air","osm_id":11402852065}},{"type":"Feature","geometry":{"type":"Point","coordinates":[7.7662834,48.5555242]},"properties":{"category":"bakery","name":"Boulangerie - Pâtisserie Chez Sandra (Banette)","osm_id":11508187990}},{"type":"Feature","geometry":{"type":"Point","coordinates":[7.7885811,48.5747507]},"properties":{"category":"shop","name":"VéloStation - Port Du Rhin","opening_hours":"Tu 17:30-19:30; Th-Fr 17:30-19:30; Sa 14:30-17:30","website":"https://velostation-strasbourg.org","osm_id":11530590034}},{"type":"Feature","geometry":{"type":"Point","coordinates":[7.75319,48.5740517]},"properties":{"category":"repair","opening_hours":"24/7","osm_id":11597508434}},{"type":"Feature","geometry":{"type":"Point","coordinates":[7.7573778,48.5736895]},"properties":{"category":"bakery","name":"Poulaillon","phone":"+33 3 69 57 98 73","osm_id":11607383283}},{"type":"Feature","geometry":{"type":"Point","coordinates":[7.7595642,48.5736129]},"properties":{"category":"bakery","name":"Paul","osm_id":11607383284}},{"type":"Feature","geometry":{"type":"Point","coordinates":[7.7075576,48.523503]},"properties":{"category":"bakery","name":"Les pains et autres délices de Martine","opening_hours":"Mo-Fr 07:00-19:15; Sa 07:00-12:45","osm_id":11664640213}},{"type":"Feature","geometry":{"type":"Point","coordinates":[7.745739,48.5888305]},"properties":{"category":"shop","name":"Åven Bike & Fika ( et réparation de vélo)","opening_hours":"Mo-Sa 09:00-19:30","phone":"+33 3 88 76 08 44","website":"https://www.aven.bike/","osm_id":11741417318}},{"type":"Feature","geometry":{"type":"Point","coordinates":[7.7658705,48.5640317]},"properties":{"category":"bakery","name":"Maison Wahl","opening_hours":"We-Sa 06:15-13:00; Su 06:30-12:00","phone":"+33 3 88 34 17 40","osm_id":11909223684}},{"type":"Feature","geometry":{"type":"Point","coordinates":[7.7512215,48.5783256]},"properties":{"category":"shop","name":"L'ATELIER DE LA TROTT - Réparation et entretien de trottinette électrique Strasbourg","phone":"+33 9 55 09 82 12","website":"https://www.atelierdelatrott.fr/","osm_id":11920264269}},{"type":"Feature","geometry":{"type":"Point","coordinates":[7.727002,48.5322618]},"properties":{"category":"bakery","name":"Boulangerie Pâtisserie Fritsch","osm_id":11962807552}},{"type":"Feature","geometry":{"type":"Point","coordinates":[7.7467933,48.5799642]},"properties":{"category":"shop","name":"Vélo Saint-Thomas","opening_hours":"Mo-Fr 09:00-19:00; Sa 09:00-17:00","phone":"+33 6 20 71 87 00","website":"https://www.velo-saint-thomas.com/","osm_id":12079785575}},{"type":"Feature","geometry":{"type":"Point","coordinates":[7.7280688,48.581486]},"properties":{"category":"shop","name":"Le Cyclosouk","osm_id":12092118511}},{"type":"Feature","geometry":{"type":"Point","coordinates":[7.7379748,48.5637719]},"properties":{"category":"bakery","name":"Boulangerie Ange","osm_id":12434256326}},{"type":"Feature","geometry":{"type":"Point","coordinates":[7.7260592,48.5670322]},"properties":{"category":"bakery","name":"Maison Tari - Fournil de l'Elsau","opening_hours":"Mo-Fr 06:15-19:00; Sa,Su 06:30-13:00","phone":"+33 388125456","osm_id":12444201400}},{"type":"Feature","geometry":{"type":"Point","coordinates":[7.725478,48.5360719]},"properties":{"category":"shop","name":"Vélos de l'Ill","phone":"+33 3 67 97 36 38","website":"https://www.velosdelill.com/","osm_id":12882884994}},{"type":"Feature","geometry":{"type":"Point","coordinates":[7.7575116,48.5633131]},"properties":{"category":"bakery","name":"Ma Boulangerie Au Feu de Bois","opening_hours":"Tu-Fr 06:30-19:00; Sa-Su 07:00-13:00","phone":"+33 3 88 45 24 03","website":"https://www.maboulangerieaufeudebois.fr/","osm_id":13001071772}},{"type":"Feature","geometry":{"type":"Point","coordinates":[7.7570883,48.5813659]},"properties":{"category":"shop","name":"Parco","opening_hours":"Tu 11:00-14:00,15:00-19:00; We-Sa 10:00-14:00,15:00-19:00","phone":"+33 6 50 99 65 30","osm_id":13060759413}},{"type":"Feature","geometry":{"type":"Point","coordinates":[7.7529124,48.5838492]},"properties":{"category":"bakery","name":"Manufacture de la pâte","osm_id":13105311301}},{"type":"Feature","geometry":{"type":"Point","coordinates":[7.7960244,48.5701984]},"properties":{"category":"bakery","name":"Fournil 2 rives","opening_hours":"Tu-Fr 06:30-13:30, 15:00-18:30; Sa 07:30-13:00, 15:00-18:00; Su 07:30-13:30","phone":"+33 7 67 66 38 55","osm_id":13105788634}},{"type":"Feature","geometry":{"type":"Point","coordinates":[7.7676594,48.5870227]},"properties":{"category":"bakery","name":"Du pain et des gâteaux","opening_hours":"Mo-Fr 06:30-19:00; Sa 06:30-12:30; Su 07:00-12:30","osm_id":13252546977}},{"type":"Feature","geometry":{"type":"Point","coordinates":[7.7076482,48.5245145]},"properties":{"category":"bakery","name":"L'Authentique","opening_hours":"Tu-Fr 06:00-19:00; Sa 06:30-14:30; Su 07:00-12:00","phone":"+33 3 88 61 81 61","website":"https://boulangerie-authentique.fr/","osm_id":13431267101}},{"type":"Feature","geometry":{"type":"Point","coordinates":[7.7529416,48.583829]},"properties":{"category":"bakery","name":"Wunder Baker","opening_hours":"Mo-Sa 07:00-19:00","phone":"+33 3 90 22 60 89","osm_id":13514567860}},{"type":"Feature","geometry":{"type":"Point","coordinates":[7.7394579,48.5999747]},"properties":{"category":"shop","name":"La Filière","phone":"+33 3 65 67 77 93","osm_id":13620263049}},{"type":"Feature","geometry":{"type":"Point","coordinates":[7.7670288,48.5857344]},"properties":{"category":"bakery","name":"Maison Keil","opening_hours":"Mo-Fr 06:30-19:00; Sa 06:30-13:00; PH off","phone":"+33 3 88 61 82 53","osm_id":13644536740}},{"type":"Feature","geometry":{"type":"Point","coordinates":[7.7669532,48.5771848]},"properties":{"category":"bakery","name":"La Fournée Dorée","opening_hours":"Mo-Sa 06:00-20:00; Su 06:00-14:00","phone":"+33 3 88 61 86 81","osm_id":13774691030}},{"type":"Feature","geometry":{"type":"Point","coordinates":[7.7496827,48.5478962]},"properties":{"category":"bakery","name":"Boulangerie de la Canardière (Bayburt)","opening_hours":"Mo-Su 06:30-18:30","osm_id":14003926601}},{"type":"Feature","geometry":{"type":"Point","coordinates":[7.7578859,48.5737486]},"properties":{"category":"bakery","name":"Paul","osm_id":14058286016}},{"type":"Feature","geometry":{"type":"Point","coordinates":[7.7709211,48.5784105]},"properties":{"category":"bakery","name":"Au moulin de l'esplanade","osm_id":14058489744}},{"type":"Feature","geometry":{"type":"Point","coordinates":[7.7096382,48.5483514]},"properties":{"category":"bakery","name":"Le kiosque salé-sucré","opening_hours":"Mo-We 06:00-19:30; Th 06:30-19:30; Fr 06:30-19:30; Sa 06:30-14:00; Su 06:30-12:30","phone":"+33 3 88 30 55 01","osm_id":14058489747}},{"type":"Feature","geometry":{"type":"Point","coordinates":[7.7424881,48.5860414]},"properties":{"category":"bakery","name":"Poulaillon","osm_id":14058529352}},{"type":"Feature","geometry":{"type":"Point","coordinates":[7.7418548,48.5866298]},"properties":{"category":"bakery","name":"Paul","opening_hours":"Mo-Sa 09:00-20:00","phone":"+33 3 88 75 99 37","website":"https://www.placedeshalles.com/paul/","osm_id":14058529354}},{"type":"Feature","geometry":{"type":"Point","coordinates":[7.7188891,48.579393]},"properties":{"category":"bakery","name":"Détour","opening_hours":"Tu,We,Fr 15:30-19:30; Sa 08:00-13:00","osm_id":14132804559}}]}