{"type":"FeatureCollection","features":[{"type":"Feature","geometry":{"type":"Point","coordinates":[3.2988088,48.56013]},"properties":{"category":"bakery","name":"Maison Gaufillier","osm_id":6959970526}},{"type":"Feature","geometry":{"type":"Point","coordinates":[3.2991219,48.560437]},"properties":{"category":"bakery","name":"Le Comte de Champagne","opening_hours":"Tu-Sa 06:30-19:30; Su 06:30-15:30; Mo off","phone":"+33 1 64 00 09 82","website":"https://lecomtedechampagne-77.fr/","osm_id":6959970528}},{"type":"Feature","geometry":{"type":"Point","coordinates":[3.2470763,48.5150985]},"properties":{"category":"bakery","name":"Au délice de Lenny","opening_hours":"We-Tu 06:30-13:00,16:00-20:00; Sa 07:30-13:00,16:00-19:30; Su 07:30-13:00","phone":"+33 1 64 00 29 46","osm_id":8472115911}},{"type":"Feature","geometry":{"type":"Point","coordinates":[3.2533899,48.5290597]},"properties":{"category":"bakery","osm_id":11583660969}}]}