{"type":"FeatureCollection","features":[{"type":"Feature","geometry":{"type":"Point","coordinates":[-0.3556615,48.5891304]},"properties":{"category":"bakery","osm_id":2970209354}},{"type":"Feature","geometry":{"type":"Point","coordinates":[-0.3551672,48.5939719]},"properties":{"category":"shop","name":"Tendance vélos","phone":"+33 2 33 66 20 25","osm_id":6907890685}},{"type":"Feature","geometry":{"type":"Point","coordinates":[-0.3581078,48.5889599]},"properties":{"category":"shop","name":"Tendance Vélo","opening_hours":"Mo,Su off; Tu-Fr 09:30-12:30,14:00-18:30; Sa 09:00-12:00,14:00-17:00","osm_id":12723587700}},{"type":"Feature","geometry":{"type":"Point","coordinates":[-0.3575724,48.5905138]},"properties":{"category":"bakery","name":"Boulangerie Martin","opening_hours":"Mo off","osm_id":12964442358}},{"type":"Feature","geometry":{"type":"Point","coordinates":[-0.3567634,48.5919012]},"properties":{"category":"bakery","name":"Boulangerie Patisserie Marie","phone":"+33 2 33 37 21 45","osm_id":13580343440}},{"type":"Feature","geometry":{"type":"Point","coordinates":[-0.3566581,48.5893691]},"properties":{"category":"bakery","name":"Au Pain Délice","osm_id":13580343473}},{"type":"Feature","geometry":{"type":"Point","coordinates":[-0.3579545,48.5891478]},"properties":{"category":"bakery","name":"La Saveur du Bon Pain","phone":"+33 2 33 37 08 24","osm_id":13580343491}}]}