{"type":"FeatureCollection","features":[{"type":"Feature","geometry":{"type":"Point","coordinates":[1.9396533,48.571989]},"properties":{"category":"bakery","name":"La boulange d’Elise et Alex","opening_hours":"Tu, Fr-Sa 06:30-13:00, 15:00-19:00; Su, Th 06:30-13:00","osm_id":1351126034}},{"type":"Feature","geometry":{"type":"Point","coordinates":[1.9391348,48.5717416]},"properties":{"category":"bakery","name":"L'Autre Boulangerie","opening_hours":"We-Sa 06:30-13:00, 15:00-19:00; Su 06:30-13:00","osm_id":1351126050}},{"type":"Feature","geometry":{"type":"Point","coordinates":[1.9880778,48.5855788]},"properties":{"category":"bakery","name":"Boulangerie Patault","osm_id":2493756899}},{"type":"Feature","geometry":{"type":"Point","coordinates":[1.9372141,48.582218]},"properties":{"category":"compressed_air","osm_id":14102646095}}]}