{"type":"FeatureCollection","features":[{"type":"Feature","geometry":{"type":"Point","coordinates":[-1.1729722,48.5464004]},"properties":{"category":"bakery","name":"Boulangerie Patrick Lefrère","opening_hours":"Tu-Sa 07:30-13:00,15:00-19:30; Su 07:30-12:30","phone":"+33 2 33 49 17 25","osm_id":6433745799}},{"type":"Feature","geometry":{"type":"Point","coordinates":[-1.1054121,48.5801127]},"properties":{"category":"shop","name":"Vélonaturel","phone":"+33 2 33 51 29 44","website":"https://www.velonaturel.com/","osm_id":9835504944}}]}