{"type":"FeatureCollection","features":[{"type":"Feature","geometry":{"type":"Point","coordinates":[0.1018508,48.5031227]},"properties":{"category":"bakery","name":"Patricia & Emmanuel Renault","osm_id":7749873249}},{"type":"Feature","geometry":{"type":"Point","coordinates":[0.1711951,48.5988925]},"properties":{"category":"bakery","osm_id":10865067975}},{"type":"Feature","geometry":{"type":"Point","coordinates":[0.1709865,48.5998103]},"properties":{"category":"bakery","name":"Maison Perreaux","phone":"+33 2 33 82 02 42","osm_id":13901677609}}]}