{"type":"FeatureCollection","features":[{"type":"Feature","geometry":{"type":"Point","coordinates":[2.7548382,48.527719]},"properties":{"category":"bakery","name":"Boulangerie Épicerie","opening_hours":"Mo,Tu,Th-Sa 07:00-19:30; Su 07:00-13:30","osm_id":2427117547}},{"type":"Feature","geometry":{"type":"Point","coordinates":[2.7130934,48.5818577]},"properties":{"category":"bakery","name":"Bread&Bio","phone":"+33 1 64 52 48 42","osm_id":8825886518}},{"type":"Feature","geometry":{"type":"Point","coordinates":[2.714186,48.5834277]},"properties":{"category":"shop","name":"L'Atelier d'Arnaud","opening_hours":"Mo-Sa 09:00-12:00,14:00-18:30","phone":"+33 7 66 78 72 40","website":"https://atelier-arnaud.fr/","osm_id":12546221910}}]}