{"type":"FeatureCollection","features":[{"type":"Feature","geometry":{"type":"Point","coordinates":[-4.699663,48.555096]},"properties":{"category":"bakery","name":"Le pain des Abers","opening_hours":"Mo-We, Fr-Su 07:30-13:30; Mo-We, Fr-Su 14:30-19:15","osm_id":3556591563}},{"type":"Feature","geometry":{"type":"Point","coordinates":[-4.6588663,48.5416321]},"properties":{"category":"bakery","name":"Boulangerie Petton","osm_id":4031051313}},{"type":"Feature","geometry":{"type":"Point","coordinates":[-4.6591405,48.5414383]},"properties":{"category":"bakery","name":"Boulangerie Patisserie des Abers","opening_hours":"Fr-We 06:15-19:00","osm_id":5994847325}},{"type":"Feature","geometry":{"type":"Point","coordinates":[-4.6581496,48.5417576]},"properties":{"category":"bakery","name":"Le Fournil de Ploudal","osm_id":11101890323}},{"type":"Feature","geometry":{"type":"Point","coordinates":[-4.6865855,48.5092184]},"properties":{"category":"bakery","osm_id":12837832085}}]}