{"type":"FeatureCollection","features":[{"type":"Feature","geometry":{"type":"Point","coordinates":[1.5510326,48.5116535]},"properties":{"category":"bakery","name":"Boulangerie pâtisserie Mathias et Lucie","opening_hours":"Mo,Tu,Th,Fr,Sa 06:00-13:30,15:30-19:30; We 07:00-13:00,15:30-19:00; Su 06:00-13:00","phone":"+33 2 37 22 20 35","osm_id":5183877046}},{"type":"Feature","geometry":{"type":"Point","coordinates":[1.5777935,48.5869118]},"properties":{"category":"bakery","name":"Le Fournil du Château","opening_hours":"Mo-Fr 06:30-19:30; Sa 07:00-19:30; Su 07:30-13:00,15:00-19:00","phone":"+33237230116","website":"https://www.lefournilduchateau-maintenon.fr/","osm_id":12853414575}},{"type":"Feature","geometry":{"type":"Point","coordinates":[1.5835514,48.5469484]},"properties":{"category":"bakery","name":"Rétrodor","opening_hours":"Tu-Sa 07:00-13:00,15:30-19:00; Su 07:30-13:00","osm_id":13011361667}},{"type":"Feature","geometry":{"type":"Point","coordinates":[1.5682669,48.5897135]},"properties":{"category":"bakery","name":"Boulangeries-pâtisseries Ragueneau","osm_id":13137293197}}]}