{"type":"FeatureCollection","features":[{"type":"Feature","geometry":{"type":"Point","coordinates":[-1.844393,48.5935887]},"properties":{"category":"bakery","name":"Honoré","phone":"+33 2 23 17 85 10","website":"https://www.artisan-honore.com/","osm_id":2203600579}},{"type":"Feature","geometry":{"type":"Point","coordinates":[-1.8833856,48.5764407]},"properties":{"category":"bakery","osm_id":2286840887}},{"type":"Feature","geometry":{"type":"Point","coordinates":[-1.883238,48.5757043]},"properties":{"category":"bakery","name":"Ô sourdin gourmand","opening_hours":"Tu-Fr 07:00-13:00, 16:00-19:00; Sa-Su 07:00-13:00","phone":"+33 2 99 58 85 37","osm_id":12287700892}},{"type":"Feature","geometry":{"type":"Point","coordinates":[-1.8992641,48.5136658]},"properties":{"category":"bakery","name":"Boulanger pâtissier","osm_id":13959630501}},{"type":"Feature","geometry":{"type":"Point","coordinates":[-1.8999305,48.5156255]},"properties":{"category":"bakery","name":"Le Fournil de Laëtitia et Gaëtan","osm_id":13959653401}}]}