{"type":"FeatureCollection","features":[{"type":"Feature","geometry":{"type":"Point","coordinates":[6.505281,48.5897236]},"properties":{"category":"bakery","name":"Boulangerie Jory","opening_hours":"Mo,Tu,Th,Fr 06:30-19:00; Sa,Su 06:30-13:30","phone":"+33 3 83731716","osm_id":1308091276}},{"type":"Feature","geometry":{"type":"Point","coordinates":[6.5160736,48.5790564]},"properties":{"category":"shop","name":"Espace 2 roues","phone":"+33 3 83 73 00 68","website":"https://veloland.fr/magasins/veloland-luneville-espace-2-roues.php","osm_id":6203330277}},{"type":"Feature","geometry":{"type":"Point","coordinates":[6.5172384,48.5785006]},"properties":{"category":"bakery","name":"Boulangerie","osm_id":6532145973}},{"type":"Feature","geometry":{"type":"Point","coordinates":[6.5067081,48.5916412]},"properties":{"category":"bakery","name":"Boulangerie Simon","opening_hours":"Mo-Sa 05:30-19:00","phone":"+33 9 87021266","osm_id":7411405032}},{"type":"Feature","geometry":{"type":"Point","coordinates":[6.5128418,48.5845687]},"properties":{"category":"bakery","name":"Marie Blachère","opening_hours":"Mo-Sa 06:30-19:30","phone":"+33 3 83 77 13 48","website":"https://boulangeries.marieblachere.com/fr/france-FR/5512/marie-blachere-luneville/details","osm_id":13394743005}}]}