{"type":"FeatureCollection","features":[{"type":"Feature","geometry":{"type":"Point","coordinates":[-2.8171125,48.5707866]},"properties":{"category":"bakery","name":"Nina","opening_hours":"Mo, Tu, Th-Sa 07:00-19:30; Su 07:00-12:30","phone":"+33 2 96 79 00 36","osm_id":3721569703}},{"type":"Feature","geometry":{"type":"Point","coordinates":[-2.826034,48.5998565]},"properties":{"category":"bakery","name":"Boulangerie","osm_id":5018690396}},{"type":"Feature","geometry":{"type":"Point","coordinates":[-2.817913,48.5712074]},"properties":{"category":"bakery","name":"Maison Chérel et filles","opening_hours":"Mo-We, Fr, Sa 07:00-19:30; Su 07:00-13:30","phone":"+33 2 96 79 13 42","website":"https://www.maison-chereletfilles.fr/","osm_id":7890654264}},{"type":"Feature","geometry":{"type":"Point","coordinates":[-2.8534808,48.5234995]},"properties":{"category":"bakery","name":"Boulangerie Le Gall","opening_hours":"Mo-Fr 06:00-20:00; Sa 07:00-18:30","phone":"+33296948708","website":"https://www.boulangerielegall.fr","osm_id":12092063769}}]}