{"type":"FeatureCollection","features":[{"type":"Feature","geometry":{"type":"Point","coordinates":[5.8972031,48.527051]},"properties":{"category":"bakery","name":"Place Aux Délices","osm_id":1791794326}},{"type":"Feature","geometry":{"type":"Point","coordinates":[5.8964217,48.5349613]},"properties":{"category":"compressed_air","osm_id":4880859686}},{"type":"Feature","geometry":{"type":"Point","coordinates":[5.8102346,48.5475832]},"properties":{"category":"bakery","name":"Aux Délices d'Allamps","opening_hours":"Mo-Fr 06:30-12:30,16:00-19:00; We off; Sa 06:30-12:30,16:00-18:00; Su 06:30-13:00","phone":"+33 3 83254020","osm_id":6431676679}},{"type":"Feature","geometry":{"type":"Point","coordinates":[5.8318594,48.5980942]},"properties":{"category":"bakery","name":"L'Épi de Blé","phone":"+33 6 48395892","osm_id":8455645001}}]}