{"type":"FeatureCollection","features":[{"type":"Feature","geometry":{"type":"Point","coordinates":[1.0362161,48.5600814]},"properties":{"category":"bakery","name":"Aux délices de Senonches","opening_hours":"Mo,Tu,Fr,Sa 07:00-19:00; Su 07:00-13:00","osm_id":1364524970}},{"type":"Feature","geometry":{"type":"Point","coordinates":[1.0382037,48.5607154]},"properties":{"category":"shop","name":"Cycles Motoculture","opening_hours":"Tu,Th,Fr 09:00-12:00,14:30-18:30; We 14:30-18:30; Sa 09:00-12:00,14:30-17:30","osm_id":13706226223}},{"type":"Feature","geometry":{"type":"Point","coordinates":[1.0374745,48.5599649]},"properties":{"category":"bakery","osm_id":13706265447}}]}