{"type":"FeatureCollection","features":[{"type":"Feature","geometry":{"type":"Point","coordinates":[7.6925913,48.5213836]},"properties":{"category":"shop","name":"Mondovélo","opening_hours":"Mo 14:00-19:00; Tu-Fr 09:30-12:00,14:00-19:00; Sa 09:00-18:00","osm_id":246215047}},{"type":"Feature","geometry":{"type":"Point","coordinates":[7.633673,48.531486]},"properties":{"category":"bakery","name":"Boulangerie Pâtisserie Schlosser","opening_hours":"Mo-Fr 05:30-19:00, We off; Sa 05:30-13:00; Su 07:00-12:00","phone":"+33 3 88 69 31 74","osm_id":676652244}},{"type":"Feature","geometry":{"type":"Point","coordinates":[7.6875336,48.578705]},"properties":{"category":"bakery","name":"Flocon de sucre","osm_id":761060022}},{"type":"Feature","geometry":{"type":"Point","coordinates":[7.6816549,48.5245303]},"properties":{"category":"shop","name":"Atelier Cycles Boos","osm_id":1047920706}},{"type":"Feature","geometry":{"type":"Point","coordinates":[7.6529552,48.5166178]},"properties":{"category":"bakery","name":"Banette","osm_id":1070489838}},{"type":"Feature","geometry":{"type":"Point","coordinates":[7.6479951,48.5860024]},"properties":{"category":"bakery","osm_id":1192318910}},{"type":"Feature","geometry":{"type":"Point","coordinates":[7.6892436,48.5530326]},"properties":{"category":"bakery","name":"Boulangerie Pâtisserie Khanouchi","opening_hours":"Mo-Fr 06:00-19:00; Su 06:00-12:30; Sa 06:00-13:00","phone":"+33 3 88 78 64 48","osm_id":1632621506}},{"type":"Feature","geometry":{"type":"Point","coordinates":[7.6940799,48.563844]},"properties":{"category":"bakery","name":"Au levain d'Lingo","phone":"+33 3 88 78 27 04","osm_id":1634476290}},{"type":"Feature","geometry":{"type":"Point","coordinates":[7.6042806,48.5794128]},"properties":{"category":"bakery","name":"L'atelier du pain","opening_hours":"Mo-Fr 05:00-13:00,15:00-19:00; Sa,Su 06:00-12:30","phone":"+33 9 81 13 78 20","osm_id":6681065124}},{"type":"Feature","geometry":{"type":"Point","coordinates":[7.6471798,48.5388538]},"properties":{"category":"bakery","name":"Le Fournil de Séraphin","opening_hours":"Mo-Fr 06:00-19:00; Sa 06:00-12:30; Su 06:00-12:00","phone":"+33 9 74 56 55 53","website":"https://www.lefournildeseraphin.fr/","osm_id":6771901105}},{"type":"Feature","geometry":{"type":"Point","coordinates":[7.6815366,48.5831372]},"properties":{"category":"bakery","name":"Les Panificateurs Réunis","osm_id":9721601444}},{"type":"Feature","geometry":{"type":"Point","coordinates":[7.666416,48.5797076]},"properties":{"category":"repair","osm_id":11071658905}},{"type":"Feature","geometry":{"type":"Point","coordinates":[7.6431712,48.5575204]},"properties":{"category":"repair","osm_id":11401181779}},{"type":"Feature","geometry":{"type":"Point","coordinates":[7.6431786,48.5575111]},"properties":{"category":"compressed_air","osm_id":11401181780}},{"type":"Feature","geometry":{"type":"Point","coordinates":[7.6459957,48.5388339]},"properties":{"category":"compressed_air","osm_id":11401181788}},{"type":"Feature","geometry":{"type":"Point","coordinates":[7.6838098,48.5186397]},"properties":{"category":"repair","osm_id":11401181789}},{"type":"Feature","geometry":{"type":"Point","coordinates":[7.6077517,48.5052782]},"properties":{"category":"compressed_air","osm_id":11401181792}},{"type":"Feature","geometry":{"type":"Point","coordinates":[7.6239143,48.5811078]},"properties":{"category":"compressed_air","osm_id":11402852047}},{"type":"Feature","geometry":{"type":"Point","coordinates":[7.6950745,48.5987263]},"properties":{"category":"compressed_air","osm_id":11402852048}},{"type":"Feature","geometry":{"type":"Point","coordinates":[7.6433814,48.584637]},"properties":{"category":"compressed_air","osm_id":11402852052}},{"type":"Feature","geometry":{"type":"Point","coordinates":[7.6664985,48.5838034]},"properties":{"category":"compressed_air","osm_id":11402852054}},{"type":"Feature","geometry":{"type":"Point","coordinates":[7.6111949,48.5801447]},"properties":{"category":"compressed_air","osm_id":11402852055}},{"type":"Feature","geometry":{"type":"Point","coordinates":[7.6780774,48.5595388]},"properties":{"category":"compressed_air","osm_id":11402852061}},{"type":"Feature","geometry":{"type":"Point","coordinates":[7.6826619,48.5573777]},"properties":{"category":"compressed_air","osm_id":11402852062}},{"type":"Feature","geometry":{"type":"Point","coordinates":[7.68726,48.5803141]},"properties":{"category":"compressed_air","osm_id":11402852063}},{"type":"Feature","geometry":{"type":"Point","coordinates":[7.6970808,48.5868509]},"properties":{"category":"bakery","name":"Boulangerie Banette - Fournil des Poteries","opening_hours":"Mo-Fr 06:00-19:00; Sa,Su 06:30-13:00","phone":"+33 388287049","osm_id":11807369536}},{"type":"Feature","geometry":{"type":"Point","coordinates":[7.6179752,48.5602258]},"properties":{"category":"shop","name":"Jo Répar'Cycles","phone":"+33 6 45 37 97 81","osm_id":12110689056}},{"type":"Feature","geometry":{"type":"Point","coordinates":[7.6981495,48.5646264]},"properties":{"category":"bakery","osm_id":13207688742}},{"type":"Feature","geometry":{"type":"Point","coordinates":[7.6799746,48.5516918]},"properties":{"category":"shop","name":"Velopump - S'Boebber Atelier","opening_hours":"week 02-52/2 We 16:00-19:00","phone":"+33 6 61 13 99 52","osm_id":13845155859}},{"type":"Feature","geometry":{"type":"Point","coordinates":[7.6297876,48.5823858]},"properties":{"category":"bakery","name":"Saveurs 49","phone":"+33 3 88 59 55 89","osm_id":13956790790}},{"type":"Feature","geometry":{"type":"Point","coordinates":[7.6447033,48.5129702]},"properties":{"category":"bakery","name":"Lucien Geschang","osm_id":14022279171}},{"type":"Feature","geometry":{"type":"Point","coordinates":[7.636305,48.5596037]},"properties":{"category":"bakery","name":"Boulangerie Pfeiffer","phone":"+33 3 88 26 16 31","osm_id":14058107674}},{"type":"Feature","geometry":{"type":"Point","coordinates":[7.6812802,48.5567216]},"properties":{"category":"bakery","name":"Boulangerie Marie-Rose","opening_hours":"Tu-Fr 06:00-14:00,15:00-18:00; Sa 06:00-14:00; Su,PH 07:00-12:30","phone":"+33 3 88 78 06 45","osm_id":14058137328}},{"type":"Feature","geometry":{"type":"Point","coordinates":[7.6956572,48.5916358]},"properties":{"category":"bakery","name":"Paul","phone":"+33 3 88 27 01 30","osm_id":14058546038}},{"type":"Feature","geometry":{"type":"Point","coordinates":[7.6054992,48.5795252]},"properties":{"category":"bakery","name":"le fournil de Breusch","osm_id":14135819083}}]}