{"type":"FeatureCollection","features":[{"type":"Feature","geometry":{"type":"Point","coordinates":[-1.3243458,48.5246073]},"properties":{"category":"bakery","name":"Boulangerie Pinson","opening_hours":"Mo-Sa 07:00-19:30; We off; Su 07:00-13:00","phone":"+33 2 33 70 80 07","osm_id":9674047417}},{"type":"Feature","geometry":{"type":"Point","coordinates":[-1.3442037,48.5991396]},"properties":{"category":"bakery","name":"Au Petit Pétrin","opening_hours":"Mo, Tu, Th, Fr 06:30-19:30; Sa 07:30-19:30; Su 07:30-13:00","phone":"+33 9 81 81 50 87","osm_id":9685150351}},{"type":"Feature","geometry":{"type":"Point","coordinates":[-1.3224766,48.5232612]},"properties":{"category":"bakery","name":"Boulangerie Stéphanie et Vincent","phone":"+33 2 33 48 20 34","osm_id":13384426850}},{"type":"Feature","geometry":{"type":"Point","coordinates":[-1.3529904,48.512755]},"properties":{"category":"bakery","name":"Le Fournil 1705","opening_hours":"We,Fr 15:00-19:00","phone":"+33 7 71 58 42 37","osm_id":13431155564}}]}