{"type":"FeatureCollection","features":[{"type":"Feature","geometry":{"type":"Point","coordinates":[-3.3960501,48.6702739]},"properties":{"category":"bakery","name":"Boulangerie Patisserie","osm_id":2920306724}},{"type":"Feature","geometry":{"type":"Point","coordinates":[-3.3011854,48.6261022]},"properties":{"category":"bakery","name":"Le Pétrin Gourmand","opening_hours":"Mo-Sa 06:30-19:00","phone":"+33 2 96 35 88 69","osm_id":12446846191}},{"type":"Feature","geometry":{"type":"Point","coordinates":[-3.3012787,48.6295304]},"properties":{"category":"bakery","name":"Pain Singulier","opening_hours":"Mo 17:00-19:00; Sa 10:00-12:00","website":"http://p1.souke.fr/","osm_id":13760093964}}]}