{"type":"FeatureCollection","features":[{"type":"Feature","geometry":{"type":"Point","coordinates":[-2.8354215,48.6274922]},"properties":{"category":"bakery","name":"La Fournée des Tagarins","osm_id":1561997827}},{"type":"Feature","geometry":{"type":"Point","coordinates":[-2.8289405,48.6469415]},"properties":{"category":"bakery","name":"Le Fournil du Port","opening_hours":"Mo,Tu,Th-Su 07:30-13:00","osm_id":4774623322}},{"type":"Feature","geometry":{"type":"Point","coordinates":[-2.83156,48.6514172]},"properties":{"category":"bakery","name":"Le Fournil de Saint-Quay","opening_hours":"Mo-Tu,Th-Su 06:30-20:00","osm_id":4774624206}},{"type":"Feature","geometry":{"type":"Point","coordinates":[-2.8342968,48.6533106]},"properties":{"category":"bakery","name":"La maison Hodcent","opening_hours":"Tu-Sa 07:30-13:00, 15:30-19:00","phone":"+33296704055","osm_id":4774629177}},{"type":"Feature","geometry":{"type":"Point","coordinates":[-2.8363478,48.6545781]},"properties":{"category":"bakery","name":"Le fournil du Casino","opening_hours":"Apr-Sep: Mo-Su 07:00-20:00; Oct-Dec,Jan-Mar: Mo-We, Fr-Su 07:30-19:30","osm_id":4775129848}},{"type":"Feature","geometry":{"type":"Point","coordinates":[-2.828152,48.6016371]},"properties":{"category":"repair","osm_id":12077399424}},{"type":"Feature","geometry":{"type":"Point","coordinates":[-2.8302727,48.6111997]},"properties":{"category":"bakery","name":"C&R Dosser","osm_id":13983234052}}]}