{"type":"FeatureCollection","features":[{"type":"Feature","geometry":{"type":"Point","coordinates":[5.9591772,48.6908339]},"properties":{"category":"bakery","name":"Aux délices de Candice","osm_id":4363584999}},{"type":"Feature","geometry":{"type":"Point","coordinates":[5.9736041,48.6908122]},"properties":{"category":"bakery","name":"Boulangerie Pâtisserie Lalance","opening_hours":"Mo-Sa 06:30-13:00,15:00-19:30; We off; Su 06:30-13:00","phone":"+33 3 83631165","osm_id":4412217593}},{"type":"Feature","geometry":{"type":"Point","coordinates":[5.9023715,48.6910985]},"properties":{"category":"bakery","name":"Marie Blachère","opening_hours":"Mo-Sa 06:30-19:30","phone":"+33 3 83 63 29 75","website":"https://www.marieblachere.com/","osm_id":8238257882}},{"type":"Feature","geometry":{"type":"Point","coordinates":[5.9296118,48.6712743]},"properties":{"category":"bakery","name":"Marie Blachère","opening_hours":"Mo-Sa 07:00-19:30","phone":"+33 3 83 62 77 93","website":"https://boulangeries.marieblachere.com/dommartin-les-toul/","osm_id":12556197372}},{"type":"Feature","geometry":{"type":"Point","coordinates":[5.9218888,48.6730795]},"properties":{"category":"shop","name":"Toul Vélo","phone":"+33 3 83640337","osm_id":12556234705}}]}