{"type":"FeatureCollection","features":[{"type":"Feature","geometry":{"type":"Point","coordinates":[7.6981313,48.6852202]},"properties":{"category":"compressed_air","osm_id":11401181795}},{"type":"Feature","geometry":{"type":"Point","coordinates":[7.6979895,48.6007838]},"properties":{"category":"compressed_air","osm_id":11402852051}},{"type":"Feature","geometry":{"type":"Point","coordinates":[7.6940945,48.6142731]},"properties":{"category":"compressed_air","osm_id":11402852059}},{"type":"Feature","geometry":{"type":"Point","coordinates":[7.6478268,48.6204641]},"properties":{"category":"repair","osm_id":12759801068}}]}