{"type":"FeatureCollection","features":[{"type":"Feature","geometry":{"type":"Point","coordinates":[7.7621983,48.6301355]},"properties":{"category":"compressed_air","osm_id":3682517410}},{"type":"Feature","geometry":{"type":"Point","coordinates":[7.71366,48.6041255]},"properties":{"category":"shop","name":"A'Cro du Vélo","opening_hours":"Tu, Th 18:00-20:00","website":"https://www.acroduvelo.fr/","osm_id":3719111196}},{"type":"Feature","geometry":{"type":"Point","coordinates":[7.750833,48.6103242]},"properties":{"category":"shop","name":"La Bicicleta Strasbourgeoise","opening_hours":"Mo-Sa 09:00-12:00, 14:00-19:00","phone":"+33 7 82 53 81 18","osm_id":4081086809}},{"type":"Feature","geometry":{"type":"Point","coordinates":[7.7793476,48.6081629]},"properties":{"category":"shop","name":"Cycles Tédone","osm_id":5681258640}},{"type":"Feature","geometry":{"type":"Point","coordinates":[7.7517872,48.6134968]},"properties":{"category":"repair","opening_hours":"24/7","osm_id":8434470112}},{"type":"Feature","geometry":{"type":"Point","coordinates":[7.7525178,48.6058718]},"properties":{"category":"shop","name":"La Schilyclette","opening_hours":"Fr 18:00-20:00; Su 10:00-12:00","website":"https://azqs.com/schilyclette","osm_id":8999062877}},{"type":"Feature","geometry":{"type":"Point","coordinates":[7.731645,48.6503936]},"properties":{"category":"repair","opening_hours":"24/7","osm_id":9237671757}},{"type":"Feature","geometry":{"type":"Point","coordinates":[7.7001632,48.6231018]},"properties":{"category":"compressed_air","osm_id":9439883014}},{"type":"Feature","geometry":{"type":"Point","coordinates":[7.7512135,48.6116399]},"properties":{"category":"shop","name":"Cycle Isler","phone":"+33 3 88 33 61 31","osm_id":9677166776}},{"type":"Feature","geometry":{"type":"Point","coordinates":[7.7829208,48.6022828]},"properties":{"category":"compressed_air","opening_hours":"24/7","osm_id":10185396377}},{"type":"Feature","geometry":{"type":"Point","coordinates":[7.7553237,48.6213233]},"properties":{"category":"repair","opening_hours":"24/7","osm_id":10784164501}},{"type":"Feature","geometry":{"type":"Point","coordinates":[7.7478248,48.6051852]},"properties":{"category":"compressed_air","opening_hours":"24/7","osm_id":10858104461}},{"type":"Feature","geometry":{"type":"Point","coordinates":[7.7739444,48.61287]},"properties":{"category":"compressed_air","opening_hours":"24/7","osm_id":10858104463}},{"type":"Feature","geometry":{"type":"Point","coordinates":[7.7281737,48.6581515]},"properties":{"category":"shop","name":"Culture Vélo","opening_hours":"Tu-Fr 09:30-12:00,13:30-18:30; Sa 09:30-18:30","phone":"+33367109833","website":"https://www.culturevelo.com/-Vendenheim-","osm_id":11099141930}},{"type":"Feature","geometry":{"type":"Point","coordinates":[7.7518384,48.6341161]},"properties":{"category":"compressed_air","osm_id":11401181793}},{"type":"Feature","geometry":{"type":"Point","coordinates":[7.7517431,48.6485879]},"properties":{"category":"compressed_air","osm_id":11401181794}},{"type":"Feature","geometry":{"type":"Point","coordinates":[7.7009393,48.650938]},"properties":{"category":"compressed_air","osm_id":11402852050}},{"type":"Feature","geometry":{"type":"Point","coordinates":[7.7113526,48.6654756]},"properties":{"category":"compressed_air","osm_id":11402852056}},{"type":"Feature","geometry":{"type":"Point","coordinates":[7.7063682,48.6243782]},"properties":{"category":"compressed_air","osm_id":11402852058}},{"type":"Feature","geometry":{"type":"Point","coordinates":[7.756059,48.62104]},"properties":{"category":"shop","name":"Cycle & Recycle","opening_hours":"We 16:00-19:00; Sa 08:30-12:00, 13:30-17:00","website":"https://www.cycleandrecyclehoenheim.fr/","osm_id":11524161558}},{"type":"Feature","geometry":{"type":"Point","coordinates":[7.7176184,48.6662941]},"properties":{"category":"repair","osm_id":11763280906}}]}