{"type":"FeatureCollection","features":[{"type":"Feature","geometry":{"type":"Point","coordinates":[-1.4783449,48.6845831]},"properties":{"category":"bakery","name":"Boulangerie Houel","opening_hours":"Mo-We 07:00-13:30,15:00-19:00; Fr-Sa 07:00-13:30,15:00-19:00; Su 07:00-13:15,15:30-19:30","osm_id":1681796056}},{"type":"Feature","geometry":{"type":"Point","coordinates":[-1.4271591,48.6349131]},"properties":{"category":"bakery","name":"Le Fournil de la Roche Torin","opening_hours":"Tu,Fr 16:30-18:00","website":"https://www.lefournildelarochetorin.com/","osm_id":7006444573}}]}