{"type":"FeatureCollection","features":[{"type":"Feature","geometry":{"type":"Point","coordinates":[-4.0052858,48.6779499]},"properties":{"category":"bakery","name":"Le Fournil de Fernand","opening_hours":"Mo-Sa 07:00-19:30","osm_id":1933553722}},{"type":"Feature","geometry":{"type":"Point","coordinates":[-4.0822364,48.6869872]},"properties":{"category":"bakery","name":"Distributeur de baguettes","opening_hours":"24/7","website":"https://mabaguette.com/","osm_id":11104517706}},{"type":"Feature","geometry":{"type":"Point","coordinates":[-4.0424216,48.6735244]},"properties":{"category":"compressed_air","osm_id":11987173433}}]}