{"type":"FeatureCollection","features":[{"type":"Feature","geometry":{"type":"Point","coordinates":[6.1807283,48.6958809]},"properties":{"category":"shop","name":"Atelier Dynamo","opening_hours":"Nov-Mar Tu-We 14:00-20:00; Fr-Sa 14:00-17:00; Apr-Oct Tu-We 14:00-21:00; Th 18:00-22:00; Fr 10:00-12:00,14:00-17:00; Sa 14:00-17:00","phone":"+33 3 83 37 32 71","website":"https://atelierdynamo.fr/","osm_id":1606992228}},{"type":"Feature","geometry":{"type":"Point","coordinates":[6.186093,48.6900462]},"properties":{"category":"shop","name":"Cyclomaniak","opening_hours":"Mo-Fr 10:00-13:30,14:30-19:00; Sa 10:00-17:00","phone":"+33 627 848 481","website":"https://cyclomaniak.fr","osm_id":2327548872}},{"type":"Feature","geometry":{"type":"Point","coordinates":[6.1833378,48.6595004]},"properties":{"category":"compressed_air","opening_hours":"24/7","osm_id":3008884453}},{"type":"Feature","geometry":{"type":"Point","coordinates":[6.1122776,48.6579227]},"properties":{"category":"compressed_air","opening_hours":"24/7","osm_id":3040103392}},{"type":"Feature","geometry":{"type":"Point","coordinates":[6.187113,48.6442471]},"properties":{"category":"shop","name":"Specialized Nancy","opening_hours":"Tu-Fr 09:30-12:30,14:00-19:00; Sa 10:00-12:00,14:00-18:00","phone":"+33 3 83 56 66 80","website":"https://www.specialized.com/fr/fr/nancy","osm_id":3075170321}},{"type":"Feature","geometry":{"type":"Point","coordinates":[6.1787961,48.6813857]},"properties":{"category":"compressed_air","opening_hours":"24/7","osm_id":3931750962}},{"type":"Feature","geometry":{"type":"Point","coordinates":[6.1751375,48.6897855]},"properties":{"category":"compressed_air","name":"Gare de Nancy","opening_hours":"24/7","osm_id":4421010352}},{"type":"Feature","geometry":{"type":"Point","coordinates":[6.1536822,48.6732406]},"properties":{"category":"compressed_air","name":"Villers-lès-Nancy","opening_hours":"24/7","osm_id":5041910956}},{"type":"Feature","geometry":{"type":"Point","coordinates":[6.153365,48.6727346]},"properties":{"category":"compressed_air","opening_hours":"24/7","osm_id":5584761128}},{"type":"Feature","geometry":{"type":"Point","coordinates":[6.193185,48.6914517]},"properties":{"category":"compressed_air","opening_hours":"24/7","osm_id":7035706554}},{"type":"Feature","geometry":{"type":"Point","coordinates":[6.1845887,48.6922767]},"properties":{"category":"shop","name":"Maison du Vélo","opening_hours":"Tu-Sa 10:00-12:30,13:30-18:45","phone":"+33 3 83 48 88 20","website":"https://maisonduvelo.grand-nancy.org/","osm_id":7079457856}},{"type":"Feature","geometry":{"type":"Point","coordinates":[6.1614794,48.6894253]},"properties":{"category":"compressed_air","osm_id":7140858805}},{"type":"Feature","geometry":{"type":"Point","coordinates":[6.1945993,48.6534327]},"properties":{"category":"shop","name":"vélOstan'boutic Mairie d'Heillecourt","opening_hours":"Mo-Th 09:00-12:00,13:30-17:30; Fr 09:00-12:00,13:30-17:00","phone":"+33 3 83551720","website":"https://maisonduvelo.grandnancy.eu/location-de-velo/points-de-location/","osm_id":7282835188}},{"type":"Feature","geometry":{"type":"Point","coordinates":[6.1481879,48.680725]},"properties":{"category":"shop","name":"L'Atelier des Provinces","opening_hours":"Apr-Sep We,Th 14:00-17:00; Oct-Mar We 14:00-17:00","phone":"+33 683 971 366","website":"https://clavetteducoin.fr/atelier-des-provinces","osm_id":7618279055}},{"type":"Feature","geometry":{"type":"Point","coordinates":[6.1543997,48.6289369]},"properties":{"category":"repair","osm_id":7849459259}},{"type":"Feature","geometry":{"type":"Point","coordinates":[6.1848545,48.6923941]},"properties":{"category":"compressed_air","name":"Maison du Vélo","opening_hours":"24/7","osm_id":7881153111}},{"type":"Feature","geometry":{"type":"Point","coordinates":[6.1729267,48.6649175]},"properties":{"category":"shop","name":"Cyclo'Minus","opening_hours":"Fr 14:30-18:00","website":"https://clavetteducoin.fr/atelier-cylominus","osm_id":7909493605}},{"type":"Feature","geometry":{"type":"Point","coordinates":[6.193541,48.6920278]},"properties":{"category":"repair","opening_hours":"24/7","osm_id":7985877191}},{"type":"Feature","geometry":{"type":"Point","coordinates":[6.1934942,48.6920413]},"properties":{"category":"compressed_air","name":"Port de Plaisance","opening_hours":"24/7","osm_id":7985877192}},{"type":"Feature","geometry":{"type":"Point","coordinates":[6.1968534,48.6838957]},"properties":{"category":"compressed_air","osm_id":8174053290}},{"type":"Feature","geometry":{"type":"Point","coordinates":[6.1795289,48.6961138]},"properties":{"category":"compressed_air","name":"Place Saint-Epvre","opening_hours":"24/7","osm_id":8544980126}},{"type":"Feature","geometry":{"type":"Point","coordinates":[6.1809059,48.6911892]},"properties":{"category":"shop","name":"Cyclable","opening_hours":"Mo-Fr 10:00-13:00,14:00-18:30; Sa 10:00-18:00","phone":"+33 383 190 004","website":"https://nancy.cyclable.com","osm_id":8567985113}},{"type":"Feature","geometry":{"type":"Point","coordinates":[6.1837873,48.6943208]},"properties":{"category":"compressed_air","name":"Place Mandela","opening_hours":"24/7","osm_id":9088055345}},{"type":"Feature","geometry":{"type":"Point","coordinates":[6.1643783,48.6736193]},"properties":{"category":"shop","name":"L'Atelier du Vélo","opening_hours":"Mo 14:00-19:00; Tu,Th,Fr 09:00-17:30; We 09:00-12:00,14:00-19:00","phone":"+33 6 89 71 51 36","osm_id":9258765679}},{"type":"Feature","geometry":{"type":"Point","coordinates":[6.1663302,48.6659306]},"properties":{"category":"compressed_air","name":"Vandœuvre-lès-Nancy","opening_hours":"24/7","osm_id":9625841185}},{"type":"Feature","geometry":{"type":"Point","coordinates":[6.1910189,48.6829736]},"properties":{"category":"compressed_air","opening_hours":"24/7","osm_id":10253639630}},{"type":"Feature","geometry":{"type":"Point","coordinates":[6.170711,48.6745879]},"properties":{"category":"compressed_air","opening_hours":"24/7","osm_id":10833632154}},{"type":"Feature","geometry":{"type":"Point","coordinates":[6.1650467,48.6941224]},"properties":{"category":"repair","name":"Station réparation & gonflage","osm_id":11066409816}},{"type":"Feature","geometry":{"type":"Point","coordinates":[6.1785917,48.6425688]},"properties":{"category":"compressed_air","opening_hours":"24/7","osm_id":11871873526}},{"type":"Feature","geometry":{"type":"Point","coordinates":[6.1964113,48.6477974]},"properties":{"category":"compressed_air","opening_hours":"24/7","osm_id":11919306788}},{"type":"Feature","geometry":{"type":"Point","coordinates":[6.1627493,48.6825966]},"properties":{"category":"shop","name":"Vélos pour tous","phone":"+33 6 09633927","osm_id":12255478070}},{"type":"Feature","geometry":{"type":"Point","coordinates":[6.1834798,48.681693]},"properties":{"category":"shop","name":"Le Doc' du vélo","opening_hours":"Mo-We 14:00-19:00; Th-Fr 08:00-13:00; Sa 09:00-11:30","phone":"+33 6 51419165","osm_id":12255722321}}]}