{"type":"FeatureCollection","features":[{"type":"Feature","geometry":{"type":"Point","coordinates":[-2.0579959,48.6217891]},"properties":{"category":"compressed_air","osm_id":5301437953}},{"type":"Feature","geometry":{"type":"Point","coordinates":[-2.0089637,48.6462072]},"properties":{"category":"shop","name":"Les Vélos Bleus","phone":"+33 2 99 40 31 63","website":"https://velos-bleus.fr/","osm_id":6502328727}},{"type":"Feature","geometry":{"type":"Point","coordinates":[-2.0054946,48.6285106]},"properties":{"category":"compressed_air","osm_id":10005198712}},{"type":"Feature","geometry":{"type":"Point","coordinates":[-2.0046354,48.6469219]},"properties":{"category":"repair","osm_id":11893101253}},{"type":"Feature","geometry":{"type":"Point","coordinates":[-2.0101962,48.65224]},"properties":{"category":"repair","osm_id":13041739210}}]}