{"type":"FeatureCollection","features":[{"type":"Feature","geometry":{"type":"Point","coordinates":[6.203637,48.682092]},"properties":{"category":"shop","name":"Euro Cycles","opening_hours":"Tu-Fr 09:00-12:00,14:00-19:00; Sa 09:00-12:00,14:00-18:00","phone":"+33 3 83326454","website":"https://location-velo-nancy.fr","osm_id":1104645467}},{"type":"Feature","geometry":{"type":"Point","coordinates":[6.2666827,48.6561251]},"properties":{"category":"shop","name":"vélOstan'boutic Mairie d'Art-sur-Meurthe","opening_hours":"Mo-Fr 11:00-12:00,16:00-18:00","phone":"+33 3 83569837","website":"https://maisonduvelo.grandnancy.eu/location-de-velo/points-de-location/","osm_id":2380207446}},{"type":"Feature","geometry":{"type":"Point","coordinates":[6.2565104,48.6999611]},"properties":{"category":"compressed_air","name":"Pulnoy","opening_hours":"24/7","osm_id":4810105862}},{"type":"Feature","geometry":{"type":"Point","coordinates":[6.2787589,48.6190483]},"properties":{"category":"shop","name":"Giant","phone":"+33 3 83 30 10 69","website":"https://www.giant-nancy-sud.fr/","osm_id":6771671512}},{"type":"Feature","geometry":{"type":"Point","coordinates":[6.2316433,48.656222]},"properties":{"category":"shop","name":"vélOstan'boutic Mairie de Laneuveville-devant-Nancy","opening_hours":"Mo-Th 08:00-12:00,13:30-17:30; Fr 08:00-12:00,13:30-16:30","phone":"+33 3 83551720","website":"https://maisonduvelo.grandnancy.eu/location-de-velo/points-de-location/","osm_id":7282835187}},{"type":"Feature","geometry":{"type":"Point","coordinates":[6.256508,48.6999411]},"properties":{"category":"shop","name":"vélOstan'boutic Mairie de Pulnoy","opening_hours":"Mo,Tu,Th 08:00-12:00,14:00-18:00; We,Fr 08:00-12:00,14:00-16:00","phone":"+33 3 83291664","website":"https://maisonduvelo.grandnancy.eu/location-de-velo/points-de-location/","osm_id":7282835234}},{"type":"Feature","geometry":{"type":"Point","coordinates":[6.2022817,48.6697699]},"properties":{"category":"shop","name":"Garobiclous","opening_hours":"Sa[2] 13:00-17:00","website":"https://clavetteducoin.fr/atelier-Garobiclous/","osm_id":8853990356}},{"type":"Feature","geometry":{"type":"Point","coordinates":[6.2050487,48.6979537]},"properties":{"category":"compressed_air","name":"Piscine du Lido","opening_hours":"24/7","osm_id":10749044699}},{"type":"Feature","geometry":{"type":"Point","coordinates":[6.2018663,48.6932731]},"properties":{"category":"compressed_air","opening_hours":"24/7","osm_id":10749065082}},{"type":"Feature","geometry":{"type":"Point","coordinates":[6.201884,48.6725994]},"properties":{"category":"compressed_air","opening_hours":"24/7","osm_id":10833632162}},{"type":"Feature","geometry":{"type":"Point","coordinates":[6.2090168,48.6669333]},"properties":{"category":"compressed_air","opening_hours":"24/7","osm_id":11215700726}}]}