{"type":"FeatureCollection","features":[{"type":"Feature","geometry":{"type":"Point","coordinates":[-4.5067578,48.6060059]},"properties":{"category":"bakery","name":"La Meule de Pierre","opening_hours":"Mo-Tu,Th-Sa 07:00-19:00; Su 07:00-13:00","osm_id":5901845286}},{"type":"Feature","geometry":{"type":"Point","coordinates":[-4.5077262,48.606719]},"properties":{"category":"bakery","name":"Tour De Mains","opening_hours":"Tu-Sa 06:30-13:00,14:00-19:00; PH,Su 07:00-13:00,14:00-19:00","phone":"+33 2 98 04 72 70","osm_id":7365346140}},{"type":"Feature","geometry":{"type":"Point","coordinates":[-4.5063372,48.6068302]},"properties":{"category":"shop","name":"Cycles & Motocycles","opening_hours":"Mo-Fr 09:00-12:00,14:00-18:00","phone":"+33 6 66 56 18 08","osm_id":12484953740}}]}