{"type":"FeatureCollection","features":[{"type":"Feature","geometry":{"type":"Point","coordinates":[7.3825784,48.689088]},"properties":{"category":"bakery","name":"Banette","opening_hours":"Tu-Fr 06:00-18:30; Sa 06:00-13:00; Su 07:30-12:00","phone":"+33 3 88 70 87 87","osm_id":5029359154}},{"type":"Feature","geometry":{"type":"Point","coordinates":[7.3062428,48.6232408]},"properties":{"category":"bakery","name":"Boulangerie Lutz","opening_hours":"Tu-Sa 06:00-13:00; Su 07:00-12:00","phone":"+33 9 75 57 14 46","osm_id":13017150429}},{"type":"Feature","geometry":{"type":"Point","coordinates":[7.3744555,48.6905517]},"properties":{"category":"repair","osm_id":13833605598}}]}