{"type":"FeatureCollection","features":[{"type":"Feature","geometry":{"type":"Point","coordinates":[1.9735212,48.6734977]},"properties":{"category":"bakery","name":"Boulangerie de Cernay","phone":"+33 134852416","osm_id":1931206620}},{"type":"Feature","geometry":{"type":"Point","coordinates":[1.9086347,48.6124854]},"properties":{"category":"bakery","name":"Le Hérisson","opening_hours":"Tu-Fr 07:00-13:30, 15:30-19:30; Sa 07:00-19:30; Su 07:30-13:00","phone":"+33 1 34 87 60 20","osm_id":7769642407}}]}