{"type":"FeatureCollection","features":[{"type":"Feature","geometry":{"type":"Point","coordinates":[7.4455101,48.6374546]},"properties":{"category":"shop","name":"Cycles Regel","opening_hours":"Mo-Fr 08:00-12:00,14:00-19:00; Tu off; Sa 08:00-12:00,14:00-17:00","phone":"+33 3 88870393","osm_id":4683448639}},{"type":"Feature","geometry":{"type":"Point","coordinates":[7.4413554,48.602278]},"properties":{"category":"shop","name":"CursoBike","opening_hours":"Tu-Sa 08:00-19:30","phone":"+33783100771","website":"https://facebook.com/BOBOEUFKylian","osm_id":11200776827}}]}