{"type":"FeatureCollection","features":[{"type":"Feature","geometry":{"type":"Point","coordinates":[-3.7082811,48.6670853]},"properties":{"category":"bakery","name":"Beguepi","opening_hours":"Mo-Sa 07:00-19:30; Su 07:30-13:00","osm_id":1691790807}},{"type":"Feature","geometry":{"type":"Point","coordinates":[-3.7881096,48.6943253]},"properties":{"category":"bakery","name":"Banette","osm_id":3396029210}},{"type":"Feature","geometry":{"type":"Point","coordinates":[-3.792142,48.6955743]},"properties":{"category":"bakery","name":"Boulanger Patissier","opening_hours":"Tu-Fr 07:00-13:30,15:00-19:30; Su 07:30-12:30","osm_id":5868959843}},{"type":"Feature","geometry":{"type":"Point","coordinates":[-3.7163581,48.646405]},"properties":{"category":"bakery","name":"Au Palais des Délices","opening_hours":"Mo,Tu,Th-Sa 07:00-13:00,14:30-19:30; We 07:00-13:00; Su 07:00-12:30","osm_id":7962528782}},{"type":"Feature","geometry":{"type":"Point","coordinates":[-3.7220032,48.6397165]},"properties":{"category":"bakery","name":"La Farinette","osm_id":7962544110}}]}