{"type":"FeatureCollection","features":[{"type":"Feature","geometry":{"type":"Point","coordinates":[0.172163,48.604086]},"properties":{"category":"bakery","name":"Sées Sucré Salé","osm_id":2798933801}},{"type":"Feature","geometry":{"type":"Point","coordinates":[0.1102549,48.6975589]},"properties":{"category":"bakery","name":"Perlin Pain Pain Croustillane","osm_id":8911803214}},{"type":"Feature","geometry":{"type":"Point","coordinates":[0.1715754,48.6054307]},"properties":{"category":"bakery","name":"Boulangerie La Tentation De Sées","opening_hours":"Mo 06:15-19:30; We-Su 06:15-19:30","phone":"+33 2 33 28 20 99","website":"https://la-tentation-bakery.business.site/","osm_id":10610644206}},{"type":"Feature","geometry":{"type":"Point","coordinates":[0.1847023,48.6063698]},"properties":{"category":"compressed_air","osm_id":13245449634}}]}