{"type":"FeatureCollection","features":[{"type":"Feature","geometry":{"type":"Point","coordinates":[-3.6312226,48.6541593]},"properties":{"category":"bakery","name":"Artisan Boulanger Patisseur Alexandre Coquil","opening_hours":"Tu-Su 09:00-19:00","phone":"+33 2 96 35 01 06","osm_id":1727827944}},{"type":"Feature","geometry":{"type":"Point","coordinates":[-3.6307746,48.6605102]},"properties":{"category":"bakery","name":"L'atelier de Christophe","phone":"+33 2 96 35 02 40","osm_id":1730768958}},{"type":"Feature","geometry":{"type":"Point","coordinates":[-3.620874,48.667426]},"properties":{"category":"shop","name":"La petite Recyclerie","phone":"+33 6 88 04 48 63","website":"https://www.facebook.com/pg/lapetiteReCycleRie/","osm_id":4516833683}},{"type":"Feature","geometry":{"type":"Point","coordinates":[-3.6752163,48.6214828]},"properties":{"category":"bakery","name":"Le fournil","osm_id":4583586635}}]}