{"type":"FeatureCollection","features":[{"type":"Feature","geometry":{"type":"Point","coordinates":[-1.5099652,48.6354773]},"properties":{"category":"bakery","name":"Cafétéria La Belle Normande","phone":"+33 2 33 60 45 55","osm_id":846978287}},{"type":"Feature","geometry":{"type":"Point","coordinates":[-1.5100678,48.6152186]},"properties":{"category":"bakery","name":"Brioche Dorée","opening_hours":"Mo-Su 08:00-17:00; PH 08:00-18:00","website":"https://www.briochedoree.fr/","osm_id":3030254632}}]}