{"type":"FeatureCollection","features":[{"type":"Feature","geometry":{"type":"Point","coordinates":[7.1145753,48.6700978]},"properties":{"category":"bakery","osm_id":4475919957}},{"type":"Feature","geometry":{"type":"Point","coordinates":[7.1490057,48.6547143]},"properties":{"category":"bakery","name":"Ets Littner et Fils","osm_id":4892310594}},{"type":"Feature","geometry":{"type":"Point","coordinates":[7.1703567,48.6668768]},"properties":{"category":"bakery","opening_hours":"Tu,Fr,Sa 06:30-12:30, 16:30-19:30; We,Th 06:30-12:30; Su 06:30-13:00","osm_id":5948135450}}]}