{"type":"FeatureCollection","features":[{"type":"Feature","geometry":{"type":"Point","coordinates":[1.4960619,48.6634996]},"properties":{"category":"bakery","name":"Boulangerie Patisserie","osm_id":1790359614}},{"type":"Feature","geometry":{"type":"Point","coordinates":[1.4379888,48.6965077]},"properties":{"category":"compressed_air","osm_id":5710913874}},{"type":"Feature","geometry":{"type":"Point","coordinates":[1.4629432,48.6726167]},"properties":{"category":"bakery","name":"boulangerie Soleil Levain","opening_hours":"07:00-13:00,15:30-19:30; Su 07:00-13:00 open; PH 07:30-12:00 open; We off; Dec 26,Jan 01 off; Dec 24,31 07:00-17:30 open; 2026 Aug 05-26 off \"congés\"","phone":"+33 2 37 82 34 84","osm_id":6168858989}}]}