{"type":"FeatureCollection","features":[{"type":"Feature","geometry":{"type":"Point","coordinates":[2.4167386,48.6496891]},"properties":{"category":"compressed_air","osm_id":1122517342}},{"type":"Feature","geometry":{"type":"Point","coordinates":[2.4837993,48.6076823]},"properties":{"category":"shop","name":"Giant Corbeil","opening_hours":"Tu-Fr 09:30-13:00,14:00-18:30; Sa 09:30-13:00,14:00-18:00","phone":"+33 1 60 89 18 74","osm_id":5120576750}},{"type":"Feature","geometry":{"type":"Point","coordinates":[2.4076596,48.6299872]},"properties":{"category":"shop","name":"Canalcycles","opening_hours":"Mo-Fr 10:00-12:00, 14:00-18:00; Sa 10:00-12:00, 13:30-17:30","phone":"+33626304031","website":"https://www.canalcycles.fr/","osm_id":5178193115}},{"type":"Feature","geometry":{"type":"Point","coordinates":[2.4501865,48.64862]},"properties":{"category":"shop","name":"SC Bike","website":"https://www.scbike91.fr/","osm_id":11820137077}},{"type":"Feature","geometry":{"type":"Point","coordinates":[2.4276934,48.6259006]},"properties":{"category":"repair","osm_id":13482346322}},{"type":"Feature","geometry":{"type":"Point","coordinates":[2.4162889,48.614737]},"properties":{"category":"repair","osm_id":13579889189}},{"type":"Feature","geometry":{"type":"Point","coordinates":[2.4826906,48.6943773]},"properties":{"category":"repair","opening_hours":"24/7","osm_id":13714217461}}]}