{"type":"FeatureCollection","features":[{"type":"Feature","geometry":{"type":"Point","coordinates":[1.5639564,48.6202303]},"properties":{"category":"bakery","name":"Boulangerie Patisserie Maison Chardon","website":"https://lamaisonchardon.fr/","osm_id":2285991038}},{"type":"Feature","geometry":{"type":"Point","coordinates":[1.5338968,48.6482135]},"properties":{"category":"bakery","name":"Ronde des Pains","phone":"+332 37 51 40 44","osm_id":4687520401}},{"type":"Feature","geometry":{"type":"Point","coordinates":[1.5317294,48.6482084]},"properties":{"category":"bakery","name":"Le 4'Eure","phone":"+332 37 43 50 68","osm_id":6698649211}},{"type":"Feature","geometry":{"type":"Point","coordinates":[1.5633765,48.6169888]},"properties":{"category":"shop","name":"CYCLES MISTER D (CMD)","phone":"+33 6 25 25 29 29","website":"https://www.cycles-mister-d.fr/","osm_id":12922926249}},{"type":"Feature","geometry":{"type":"Point","coordinates":[1.5907856,48.6855548]},"properties":{"category":"shop","name":"L'Atelier 99","osm_id":13545321790}},{"type":"Feature","geometry":{"type":"Point","coordinates":[1.5790081,48.6877748]},"properties":{"category":"bakery","name":"La Faverollaise","opening_hours":"Mo 06:30-13:30,15:00-20:00; Tu off; We-Fr 06:30-13:30,15:00-20:00; Sa 06:30-13:30,15:00-20:00; Su 07:00-14:00","phone":"+332 37 41 75 25","osm_id":13660569307}}]}