{"type":"FeatureCollection","features":[{"type":"Feature","geometry":{"type":"Point","coordinates":[5.3217309,48.6889958]},"properties":{"category":"bakery","name":"Ronde des Pains","osm_id":4917266161}},{"type":"Feature","geometry":{"type":"Point","coordinates":[5.3245898,48.6866824]},"properties":{"category":"bakery","name":"Boulangerie-pâtisserie Myslik","opening_hours":"Mo-Fr 06:30-13:30, 15:00-19:00; Sa-Su 06:30-13:30","phone":"+33 3 29 70 31 44","osm_id":4917266177}},{"type":"Feature","geometry":{"type":"Point","coordinates":[5.3213914,48.6892323]},"properties":{"category":"bakery","name":"Boulangerie-pâtisserie Nisser","phone":"+33 3 29 78 40 68","osm_id":7044760999}},{"type":"Feature","geometry":{"type":"Point","coordinates":[5.3210574,48.6873266]},"properties":{"category":"shop","name":"Cycles Passion","opening_hours":"Mo 14:00-19:00; Tu-Fr 10:00-12:00,14:00-19:00; Th off; Sa 09:00-12:00,14:00-19:00; Su off","phone":"+33 7 72 29 35 34","website":"https://cyclespassion55.com/","osm_id":7064003452}},{"type":"Feature","geometry":{"type":"Point","coordinates":[5.3239173,48.6873323]},"properties":{"category":"bakery","name":"Maison Voiriot","osm_id":13980783157}}]}