{"type":"FeatureCollection","features":[{"type":"Feature","geometry":{"type":"Point","coordinates":[-1.8941528,48.604081]},"properties":{"category":"bakery","name":"Le Fournil du village","osm_id":2286840966}},{"type":"Feature","geometry":{"type":"Point","coordinates":[-1.8519089,48.6754367]},"properties":{"category":"bakery","name":"Au palais breton","opening_hours":"Tu-Su 07:00-19:30","phone":"+33 2 23 15 92 09","osm_id":2510409492}},{"type":"Feature","geometry":{"type":"Point","coordinates":[-1.8515752,48.6198827]},"properties":{"category":"bakery","name":"Boulanger Patissier","opening_hours":"Mo-We,Fr,Sa 07:00-13:00,15:30-19:30; Su 07:00-13:30,16:00-19:30","osm_id":2839167767}},{"type":"Feature","geometry":{"type":"Point","coordinates":[-1.8507668,48.6768808]},"properties":{"category":"bakery","name":"Grain de Vanille","opening_hours":"Mo, Th-Sa 09:00-18:30; Su 09:00-17:00","phone":"+33 2 23 15 12 70","website":"https://www.grain-de-vanille.com/","osm_id":3676069923}},{"type":"Feature","geometry":{"type":"Point","coordinates":[-1.8513067,48.6766291]},"properties":{"category":"bakery","name":"La Maison Clouard","opening_hours":"Mo,Tu,Th-Su 07:00-19:30","phone":"+33 2 99 89 60 23","osm_id":6359367381}},{"type":"Feature","geometry":{"type":"Point","coordinates":[-1.8963932,48.6041159]},"properties":{"category":"shop","name":"Velo Emeraude","website":"https://www.velo-corsaire.fr/","osm_id":8993598286}},{"type":"Feature","geometry":{"type":"Point","coordinates":[-1.8522109,48.6752702]},"properties":{"category":"repair","osm_id":12787832062}},{"type":"Feature","geometry":{"type":"Point","coordinates":[-1.8562132,48.6769096]},"properties":{"category":"shop","name":"Scootescape","phone":"+33 7 74 68 67 40","website":"https://www.scootescape.bzh/","osm_id":13974944746}}]}