{"type":"FeatureCollection","features":[{"type":"Feature","geometry":{"type":"Point","coordinates":[6.0995995,48.6058479]},"properties":{"category":"bakery","name":"Le Fournil des Arcades","osm_id":8485026866}},{"type":"Feature","geometry":{"type":"Point","coordinates":[6.0936637,48.6152892]},"properties":{"category":"bakery","name":"Marie Blachère","phone":"+33 3 83 27 97 94","website":"https://boulangeries.marieblachere.com/fr/france-FR/5229/marie-blachere-neuves-maisons/details","osm_id":8487299661}}]}