{"type":"FeatureCollection","features":[{"type":"Feature","geometry":{"type":"Point","coordinates":[2.7726097,48.6597387]},"properties":{"category":"bakery","name":"Le Fournil d'Ozouer","opening_hours":"Mo-Sa 07:00-13:00,16:00-19:00; We off; Su 07:00-13:00","osm_id":544504471}},{"type":"Feature","geometry":{"type":"Point","coordinates":[2.796939,48.636829]},"properties":{"category":"bakery","osm_id":1286180556}},{"type":"Feature","geometry":{"type":"Point","coordinates":[2.7821267,48.6374498]},"properties":{"category":"bakery","name":"Boulangerie du Marché","osm_id":13836294110}}]}