{"type":"FeatureCollection","features":[{"type":"Feature","geometry":{"type":"Point","coordinates":[6.3543519,48.6168007]},"properties":{"category":"bakery","name":"J L Chaminadas","phone":"+33 3 83482347","osm_id":1388521417}},{"type":"Feature","geometry":{"type":"Point","coordinates":[6.3539892,48.6170045]},"properties":{"category":"bakery","name":"Jean-Marc et Cécile PAIN","osm_id":1388521425}},{"type":"Feature","geometry":{"type":"Point","coordinates":[6.3469151,48.6248647]},"properties":{"category":"bakery","osm_id":1388521724}},{"type":"Feature","geometry":{"type":"Point","coordinates":[6.3488003,48.6262639]},"properties":{"category":"bakery","name":"Au Plaisirs Des Sens","osm_id":1388521843}},{"type":"Feature","geometry":{"type":"Point","coordinates":[6.3498122,48.6227421]},"properties":{"category":"bakery","name":"Paintasia","opening_hours":"Tu-Sa 06:30-13:30, 15:00-19:00; Su, PH 07:00-13:00","osm_id":2081438839}},{"type":"Feature","geometry":{"type":"Point","coordinates":[6.321759,48.6339553]},"properties":{"category":"bakery","name":"Chez Chouquette","opening_hours":"Mo-Sa 05:30-19:00; Su,PH 05:30-18:00; We off","osm_id":3839238967}},{"type":"Feature","geometry":{"type":"Point","coordinates":[6.3474836,48.6256903]},"properties":{"category":"bakery","opening_hours":"Mo-Tu off","osm_id":4202386006}},{"type":"Feature","geometry":{"type":"Point","coordinates":[6.3748853,48.6316872]},"properties":{"category":"bakery","name":"Gérald Sanchez Artisan Boulanger Patissier","opening_hours":"Mo, Tu, Fr, Sa 05:30-12:30, 15:00-19:00; Su, PH 05:30-12:30","phone":"+33 3 83454342","osm_id":4857294316}},{"type":"Feature","geometry":{"type":"Point","coordinates":[6.3017013,48.6318591]},"properties":{"category":"bakery","name":"Boulangerie Henry","osm_id":6614546061}},{"type":"Feature","geometry":{"type":"Point","coordinates":[6.3113381,48.6955442]},"properties":{"category":"bakery","name":"Chez Floriane & Victor","osm_id":7359459843}},{"type":"Feature","geometry":{"type":"Point","coordinates":[6.3114378,48.6345559]},"properties":{"category":"bakery","name":"Au Bon Pain de Valentin","opening_hours":"Mo-We, Fr-Su 05:30-12:30","phone":"+33 3 83481156","osm_id":7396035698}},{"type":"Feature","geometry":{"type":"Point","coordinates":[6.3623334,48.602307]},"properties":{"category":"bakery","name":"Marie Blachère","opening_hours":"Mo-Sa 06:30-19:30","phone":"+33 3 83 20 65 25","website":"https://boulangeries.marieblachere.com/fr/france-FR/5498/marie-blachere-dombasle-sur-meurthe/details","osm_id":11104509908}}]}