{"type":"FeatureCollection","features":[{"type":"Feature","geometry":{"type":"Point","coordinates":[2.1225073,48.7074867]},"properties":{"category":"shop","name":"Espace Bellouis - Cyclepro","opening_hours":"Tu-Sa 09:30-13:30,15:00-19:00","phone":"+33 1 69 28 62 78","website":"https://espacebellouis.com/","osm_id":3378889576}},{"type":"Feature","geometry":{"type":"Point","coordinates":[2.1689693,48.7001726]},"properties":{"category":"shop","name":"Solicycle Atelier Vélo Solidaire","osm_id":4515570225}},{"type":"Feature","geometry":{"type":"Point","coordinates":[2.1026221,48.701108]},"properties":{"category":"shop","name":"Mondovélo","opening_hours":"Mo-Sa 09:30-19:30","phone":"+33 1 64 86 20 84","osm_id":5208862671}},{"type":"Feature","geometry":{"type":"Point","coordinates":[2.1474825,48.7238231]},"properties":{"category":"compressed_air","osm_id":5914220338}},{"type":"Feature","geometry":{"type":"Point","coordinates":[2.1679324,48.7646624]},"properties":{"category":"shop","name":"Bicyclette Lab","opening_hours":"Mo,Th 14:00-19:00; Tu,We,Fr 08:30-13:00,15:00-19:00; Sa 08:30-13:00,14:00-19:00","phone":"+33 6 26 56 27 92","osm_id":6155500577}},{"type":"Feature","geometry":{"type":"Point","coordinates":[2.1780382,48.7840969]},"properties":{"category":"repair","osm_id":7218095462}},{"type":"Feature","geometry":{"type":"Point","coordinates":[2.1841081,48.7998394]},"properties":{"category":"repair","osm_id":7573245509}},{"type":"Feature","geometry":{"type":"Point","coordinates":[2.1078567,48.7034768]},"properties":{"category":"compressed_air","opening_hours":"24/7","osm_id":7728141003}},{"type":"Feature","geometry":{"type":"Point","coordinates":[2.1908977,48.7046472]},"properties":{"category":"compressed_air","osm_id":8139940425,"has_compressed_air":true}},{"type":"Feature","geometry":{"type":"Point","coordinates":[2.1324367,48.7999745]},"properties":{"category":"compressed_air","osm_id":8203047458}},{"type":"Feature","geometry":{"type":"Point","coordinates":[2.1545959,48.7943053]},"properties":{"category":"shop","name":"Au bouclard","opening_hours":"Sa 10:00-18:00; Tu-Fr 12:00-19:30","phone":"+33 1 84 73 16 43","website":"https://www.aubouclard.com/","osm_id":9599483518}},{"type":"Feature","geometry":{"type":"Point","coordinates":[2.1291869,48.7687574]},"properties":{"category":"repair","osm_id":9761661806}},{"type":"Feature","geometry":{"type":"Point","coordinates":[2.1341442,48.7958146]},"properties":{"category":"repair","osm_id":9815081876}},{"type":"Feature","geometry":{"type":"Point","coordinates":[2.1515337,48.7987379]},"properties":{"category":"shop","name":"Ecox","opening_hours":"Tu-Sa 09:30-14:00,15:00-19:00","phone":"+33 1 30 24 00 03","website":"https://www.ecox.fr/nos-magasins/versailles.","osm_id":10228243249}},{"type":"Feature","geometry":{"type":"Point","coordinates":[2.1622565,48.7016784]},"properties":{"category":"repair","osm_id":11107454210}},{"type":"Feature","geometry":{"type":"Point","coordinates":[2.1329681,48.786978]},"properties":{"category":"repair","opening_hours":"24/7","osm_id":11414258164}},{"type":"Feature","geometry":{"type":"Point","coordinates":[2.1925592,48.7802986]},"properties":{"category":"repair","opening_hours":"24/7","osm_id":11414463085}},{"type":"Feature","geometry":{"type":"Point","coordinates":[2.1401131,48.7648607]},"properties":{"category":"repair","opening_hours":"24/7","osm_id":11414539904}},{"type":"Feature","geometry":{"type":"Point","coordinates":[2.190909,48.7046752]},"properties":{"category":"repair","osm_id":12177432657}},{"type":"Feature","geometry":{"type":"Point","coordinates":[2.1692224,48.7290815]},"properties":{"category":"shop","name":"Kronospeed","phone":"+33 6 29 65 49 56","osm_id":12606496144}},{"type":"Feature","geometry":{"type":"Point","coordinates":[2.1748766,48.7103081]},"properties":{"category":"compressed_air","osm_id":12633546069}},{"type":"Feature","geometry":{"type":"Point","coordinates":[2.1133049,48.7460909]},"properties":{"category":"repair","osm_id":13013713713}},{"type":"Feature","geometry":{"type":"Point","coordinates":[2.1923836,48.7592945]},"properties":{"category":"repair","osm_id":13062088252}},{"type":"Feature","geometry":{"type":"Point","coordinates":[2.1969705,48.7468226]},"properties":{"category":"compressed_air","osm_id":13447887606}},{"type":"Feature","geometry":{"type":"Point","coordinates":[2.1498951,48.7875484]},"properties":{"category":"compressed_air","osm_id":13659006948}},{"type":"Feature","geometry":{"type":"Point","coordinates":[2.1258942,48.7008161]},"properties":{"category":"repair","osm_id":13784517397}},{"type":"Feature","geometry":{"type":"Point","coordinates":[2.1449552,48.7699227]},"properties":{"category":"repair","osm_id":13898662345}}]}