{"type":"FeatureCollection","features":[{"type":"Feature","geometry":{"type":"Point","coordinates":[7.5143926,48.748779]},"properties":{"category":"bakery","name":"Le Pain De Sucre","osm_id":3356695250}},{"type":"Feature","geometry":{"type":"Point","coordinates":[7.5674901,48.7572363]},"properties":{"category":"shop","osm_id":3419538093}},{"type":"Feature","geometry":{"type":"Point","coordinates":[7.5684961,48.7571464]},"properties":{"category":"bakery","name":"Chez Morgane & Jonathan","phone":"+33 3 88 00 70 79","website":"https://www.chez-morgane-et-jonathan.fr/","osm_id":3466407642}}]}