{"type":"FeatureCollection","features":[{"type":"Feature","geometry":{"type":"Point","coordinates":[0.6674086,48.7066866]},"properties":{"category":"bakery","name":"Aux P’tites Gourmandises de Crulai","phone":"+33 2 33 34 21 38","osm_id":534107387}},{"type":"Feature","geometry":{"type":"Point","coordinates":[0.6259899,48.7640818]},"properties":{"category":"bakery","name":"A la Gerbe d'Or","phone":"+33 2 33 24 06 03","osm_id":2317731581}},{"type":"Feature","geometry":{"type":"Point","coordinates":[0.6247353,48.76329]},"properties":{"category":"bakery","name":"La Caradélice","phone":"+33 2 33 24 06 42","osm_id":2317731627}},{"type":"Feature","geometry":{"type":"Point","coordinates":[0.6239011,48.7654313]},"properties":{"category":"bakery","name":"La Mascotte Normande","phone":"+33 2 33 24 18 75","osm_id":2317731639}},{"type":"Feature","geometry":{"type":"Point","coordinates":[0.6282724,48.7645512]},"properties":{"category":"bakery","name":"Au Panetier","opening_hours":"Tu-Fr 06:30-19:30; Sa 06:30-19:00; Su 07:00-13:00","phone":"+33 2 33 24 24 46","osm_id":3586456005}},{"type":"Feature","geometry":{"type":"Point","coordinates":[0.6324599,48.7620732]},"properties":{"category":"shop","name":"Pichot Cycles","osm_id":11430133696}},{"type":"Feature","geometry":{"type":"Point","coordinates":[0.6346582,48.7637707]},"properties":{"category":"bakery","name":"Boulangerie / Patisserie - La Madeleine","phone":"+33 2 14 20 54 39","osm_id":11499649971}},{"type":"Feature","geometry":{"type":"Point","coordinates":[0.630187,48.7643282]},"properties":{"category":"bakery","name":"Boulanger Banette Pâtissier","phone":"+33 2 33 24 12 03","osm_id":11499649974}},{"type":"Feature","geometry":{"type":"Point","coordinates":[0.6317281,48.7662606]},"properties":{"category":"repair","osm_id":12107811913}},{"type":"Feature","geometry":{"type":"Point","coordinates":[0.6357992,48.7459036]},"properties":{"category":"bakery","name":"Boulangerie Drive","osm_id":12408990042}}]}