{"type":"FeatureCollection","features":[{"type":"Feature","geometry":{"type":"Point","coordinates":[7.1643279,48.7168936]},"properties":{"category":"bakery","name":"Boulangerie Schlosser","opening_hours":"Mo-Tu, Th-Fr 06:00-12:30, 15:30-18:30; We, Sa 06:00-12:30","osm_id":1661044458}},{"type":"Feature","geometry":{"type":"Point","coordinates":[7.1080846,48.71244]},"properties":{"category":"bakery","name":"Boulangerie Stinus","opening_hours":"Mo-Fr 06:30-18:30; Sa 06:30-13:00; Su 07:00-12:00","osm_id":7217477171}},{"type":"Feature","geometry":{"type":"Point","coordinates":[7.1837644,48.7250577]},"properties":{"category":"repair","osm_id":11391581184}}]}