{"type":"FeatureCollection","features":[{"type":"Feature","geometry":{"type":"Point","coordinates":[7.2502332,48.7356329]},"properties":{"category":"bakery","name":"Boulangerie Patisserie","opening_hours":"Tu-Fr 05:30-19:00; Sa 06:00-17:00; Su 06:30-12:00; Mo off","osm_id":1436629637}},{"type":"Feature","geometry":{"type":"Point","coordinates":[7.2582713,48.7683229]},"properties":{"category":"bakery","name":"Au Pain Doré","phone":"+33 3 87 24 20 03","website":"https://www.paindore.fr","osm_id":5031038223}},{"type":"Feature","geometry":{"type":"Point","coordinates":[7.2591744,48.7665389]},"properties":{"category":"bakery","name":"Jean-Sébastien","osm_id":5053071022}},{"type":"Feature","geometry":{"type":"Point","coordinates":[7.2470276,48.768345]},"properties":{"category":"bakery","osm_id":6164263086}},{"type":"Feature","geometry":{"type":"Point","coordinates":[7.2278304,48.7954497]},"properties":{"category":"bakery","name":"Boulangerie Martini","osm_id":11033307999}},{"type":"Feature","geometry":{"type":"Point","coordinates":[7.2517736,48.7351278]},"properties":{"category":"repair","osm_id":11228792592}}]}