{"type":"FeatureCollection","features":[{"type":"Feature","geometry":{"type":"Point","coordinates":[5.1614658,48.7756663]},"properties":{"category":"shop","name":"Espace 2 Roues","opening_hours":"Mo off; Tu-Fr 10:00-12:00,14:00-19:00; Th 10:00-12:00; Sa 10:00-12:00,14:00-18:00; Su off","phone":"+33 3 29 71 02 53","osm_id":6261832578}},{"type":"Feature","geometry":{"type":"Point","coordinates":[5.172107,48.7693457]},"properties":{"category":"compressed_air","osm_id":6821399091}},{"type":"Feature","geometry":{"type":"Point","coordinates":[5.1276018,48.7958958]},"properties":{"category":"shop","name":"Sport Bike","opening_hours":"Mo off; Tu-Fr 09:00-12:00,14:00-19:00; Sa 09:00-12:00,14:00-18:00; Su off","phone":"+33 3 29 76 13 10","osm_id":6938543979}},{"type":"Feature","geometry":{"type":"Point","coordinates":[5.1811619,48.757083]},"properties":{"category":"shop","name":"Services Cycles","opening_hours":"Mo 09:00-12:00; Tu-Fr 10:00-12:00,14:00-19:00; We off; Sa 10:00-12:00,14:00-18:00; Su off","phone":"+33 3 54 38 07 49","website":"https://meusemarket.fr/services-cycles/","osm_id":9212946191}}]}