{"type":"FeatureCollection","features":[{"type":"Feature","geometry":{"type":"Point","coordinates":[-2.9833004,48.74938]},"properties":{"category":"bakery","name":"La Boulangerie Laudren","opening_hours":"Mo-Sa 07:00-13:00,14:30-19:00; Su 07:00-13:00; Th off","phone":"+33 2 96 20 64 99","osm_id":11049855082}},{"type":"Feature","geometry":{"type":"Point","coordinates":[-2.9797926,48.752518]},"properties":{"category":"repair","osm_id":13272003083}},{"type":"Feature","geometry":{"type":"Point","coordinates":[-2.9863271,48.7502385]},"properties":{"category":"bakery","name":"Brise & Gourmandes","osm_id":14057889401}}]}