{"type":"FeatureCollection","features":[{"type":"Feature","geometry":{"type":"Point","coordinates":[-1.1657024,48.7254465]},"properties":{"category":"bakery","name":"Boulangerie pâtisserie Maëlis","opening_hours":"Tu-Sa 06:30-19:30; Su 06:30-13:00","osm_id":3418107011}},{"type":"Feature","geometry":{"type":"Point","coordinates":[-1.1672662,48.7247313]},"properties":{"category":"bakery","name":"Boulangerie pâtisserie Madelaine","opening_hours":"Tu-Sa 07:00-19:30; Su 07:00-13:00","phone":"+33 2 33 48 72 53","osm_id":3418107014}},{"type":"Feature","geometry":{"type":"Point","coordinates":[-1.1683529,48.7240117]},"properties":{"category":"bakery","name":"Boulangerie pâtisserie de Saint-Denis","opening_hours":"Mo-Sa 06:30-12:00, 13:00-19:45; Su 13:00-19:45; We off","osm_id":3418107015}}]}