{"type":"FeatureCollection","features":[{"type":"Feature","geometry":{"type":"Point","coordinates":[0.2969868,48.7949908]},"properties":{"category":"bakery","osm_id":9931171239}},{"type":"Feature","geometry":{"type":"Point","coordinates":[0.2966939,48.7961403]},"properties":{"category":"bakery","name":"La Tatin D'or","phone":"+33 2 33 35 53 10","osm_id":9931176109}},{"type":"Feature","geometry":{"type":"Point","coordinates":[0.2866406,48.7005079]},"properties":{"category":"bakery","name":"Boulangerie Patisserie Chocolaterie SEREE","opening_hours":"Tu-Sa 06:30-19:30; Su 07:00-12:30","phone":"+33 2 33 35 41 49","osm_id":10284565663}},{"type":"Feature","geometry":{"type":"Point","coordinates":[0.2218703,48.7069907]},"properties":{"category":"bakery","phone":"+33 2 33 12 04 36","osm_id":13082047201}}]}