{"type":"FeatureCollection","features":[{"type":"Feature","geometry":{"type":"Point","coordinates":[7.0534738,48.734571]},"properties":{"category":"bakery","name":"Antoni","opening_hours":"Tu-Su 07:00-18:30","phone":"+33 3 87 03 12 31","osm_id":455600617}},{"type":"Feature","geometry":{"type":"Point","coordinates":[7.0445644,48.7196165]},"properties":{"category":"bakery","name":"Boulangerie Oswald","osm_id":3894668628}},{"type":"Feature","geometry":{"type":"Point","coordinates":[7.0711008,48.7391487]},"properties":{"category":"bakery","name":"Le Croustillant","osm_id":5826345694}},{"type":"Feature","geometry":{"type":"Point","coordinates":[7.0565452,48.7360338]},"properties":{"category":"bakery","name":"Boulangerie Pâtisserie","osm_id":7256054876}},{"type":"Feature","geometry":{"type":"Point","coordinates":[7.0737747,48.7382364]},"properties":{"category":"compressed_air","osm_id":7256077578}},{"type":"Feature","geometry":{"type":"Point","coordinates":[7.0742368,48.7357339]},"properties":{"category":"shop","name":"Cycles Top","osm_id":10797160205}},{"type":"Feature","geometry":{"type":"Point","coordinates":[7.0965716,48.7438738]},"properties":{"category":"bakery","name":"Waldner & Fils","opening_hours":"Mo-Fr 05:30-18:30; Sa 06:00-16:00; Su 06:30-12:00","osm_id":12268205494}},{"type":"Feature","geometry":{"type":"Point","coordinates":[7.0968504,48.7435858]},"properties":{"category":"bakery","name":"Au Pain Doré","opening_hours":"Mo-Fr 06:00-18:30; Sa 06:30-17:30; Su 06:30-12:30","phone":"+33 3 87 24 93 12","osm_id":12270673444}},{"type":"Feature","geometry":{"type":"Point","coordinates":[7.0528532,48.7375011]},"properties":{"category":"bakery","name":"Maison OSWALD","opening_hours":"Mo-Fr 06:00-19:00; Sa 05:30-18:00; Su 10:00-12:00; Su 10:00-19:00 \"commande sur demande\"","phone":"+33 3 87 03 97 43","website":"https://maison-oswald.fr/","osm_id":13379040202}},{"type":"Feature","geometry":{"type":"Point","coordinates":[7.0528855,48.7337015]},"properties":{"category":"bakery","name":"L'Ami du Pain","phone":"+33 3 87 23 72 75","osm_id":13771845789}},{"type":"Feature","geometry":{"type":"Point","coordinates":[7.0556925,48.7463138]},"properties":{"category":"bakery","name":"Boulangerie Pâtisserie","osm_id":14051787387}}]}