{"type":"FeatureCollection","features":[{"type":"Feature","geometry":{"type":"Point","coordinates":[-3.2300791,48.7875845]},"properties":{"category":"bakery","name":"Ty Fournil","opening_hours":"Mo-Th 08:00-14:00,15:30-19:30; Fr,Su 08:00-14:00","phone":"+33 2 96 92 33 86","website":"https://fb.me/tyfourniltreguier","osm_id":3044305045}},{"type":"Feature","geometry":{"type":"Point","coordinates":[-3.2305658,48.7870962]},"properties":{"category":"bakery","name":"Violaine & Patrick Dussurgey","osm_id":3044305047}},{"type":"Feature","geometry":{"type":"Point","coordinates":[-3.260829,48.7460586]},"properties":{"category":"bakery","name":"Boulangerie - Le Mat","phone":"+332 96 91 36 32","osm_id":3987666862}},{"type":"Feature","geometry":{"type":"Point","coordinates":[-3.2040412,48.7156478]},"properties":{"category":"bakery","name":"Au fournil de Ploëzal","osm_id":7489682510}}]}