{"type":"FeatureCollection","features":[{"type":"Feature","geometry":{"type":"Point","coordinates":[2.359387,48.7283335]},"properties":{"category":"shop","name":"Aerobikes","osm_id":980166038}},{"type":"Feature","geometry":{"type":"Point","coordinates":[2.3880104,48.7912851]},"properties":{"category":"shop","name":"La Bidouille","opening_hours":"We,Sa 14:00-17:00","website":"https://la-pagaille.org/la-bidouille/","osm_id":2137687568}},{"type":"Feature","geometry":{"type":"Point","coordinates":[2.3067813,48.7574456]},"properties":{"category":"shop","name":"Giant Antony","opening_hours":"Mo,Su off; Tu-Fr 09:00-12:30,15:00-19:00; Sa 10:00-13:00,14:30-18:30","phone":"+33 1 73 48 76 88","website":"https://www.giant-antony.fr/","osm_id":2904069106}},{"type":"Feature","geometry":{"type":"Point","coordinates":[2.3136014,48.7788513]},"properties":{"category":"shop","name":"Cyclexpert","opening_hours":"Tu-Sa 09:30-19:00","phone":"+33 1 49 84 42 82","website":"https://www.cyclexpert92.com/","osm_id":3295642966}},{"type":"Feature","geometry":{"type":"Point","coordinates":[2.3359209,48.7944322]},"properties":{"category":"shop","name":"L'atelier du vélo","opening_hours":"Tu,We,Fr 10:00-13:00,15:00-19:00; Sa 10:00-19:00","phone":"+33 9 72 52 50 17","website":"http://latelierduvelo-cachan.fr/","osm_id":3762548906}},{"type":"Feature","geometry":{"type":"Point","coordinates":[2.3370154,48.7535901]},"properties":{"category":"compressed_air","osm_id":5506242274}},{"type":"Feature","geometry":{"type":"Point","coordinates":[2.3022339,48.7594383]},"properties":{"category":"shop","name":"La Grange à Vélos","opening_hours":"We,Fr-Sa 09:00-13:00","phone":"+33 6 25 52 31 21","website":"https://lagrangeavelos.fr","osm_id":6541085699}},{"type":"Feature","geometry":{"type":"Point","coordinates":[2.356213,48.7488746]},"properties":{"category":"compressed_air","osm_id":6610296426}},{"type":"Feature","geometry":{"type":"Point","coordinates":[2.308913,48.7942529]},"properties":{"category":"repair","osm_id":7313080515}},{"type":"Feature","geometry":{"type":"Point","coordinates":[2.313735,48.7796819]},"properties":{"category":"repair","osm_id":8142426970}},{"type":"Feature","geometry":{"type":"Point","coordinates":[2.3011044,48.7953931]},"properties":{"category":"compressed_air","osm_id":8378736085}},{"type":"Feature","geometry":{"type":"Point","coordinates":[2.3128916,48.77988]},"properties":{"category":"compressed_air","osm_id":8393115326}},{"type":"Feature","geometry":{"type":"Point","coordinates":[2.3025619,48.7523748]},"properties":{"category":"shop","name":"Paris - Ventoux","opening_hours":"Tu-Fr 09:00-13:00,14:00-19:00","phone":"+33 1 58 35 58 35","website":"https://www.paris-ventoux.com/","osm_id":8558418550}},{"type":"Feature","geometry":{"type":"Point","coordinates":[2.3637064,48.7093333]},"properties":{"category":"shop","name":"No Limit Cycle Atelier Mobile","phone":"+33 6 45 53 46 06","osm_id":8735056212}},{"type":"Feature","geometry":{"type":"Point","coordinates":[2.3195529,48.7962249]},"properties":{"category":"repair","osm_id":8859630154}},{"type":"Feature","geometry":{"type":"Point","coordinates":[2.3246901,48.7540813]},"properties":{"category":"shop","name":"Atelier vélo d'autoréparation","opening_hours":"Sa 09:00-12:00,14:00-17:00","phone":"+33781063254","website":"https://www.fresnes94.fr/association/fresnescyclette/","osm_id":8942270409}},{"type":"Feature","geometry":{"type":"Point","coordinates":[2.365749,48.7128842]},"properties":{"category":"compressed_air","name":"Pompe à Vélo","opening_hours":"24/7","osm_id":10678919670}},{"type":"Feature","geometry":{"type":"Point","coordinates":[2.3042089,48.7625485]},"properties":{"category":"repair","osm_id":11037599464}},{"type":"Feature","geometry":{"type":"Point","coordinates":[2.3040726,48.7625194]},"properties":{"category":"repair","osm_id":11038054465}},{"type":"Feature","geometry":{"type":"Point","coordinates":[2.362929,48.792513]},"properties":{"category":"repair","name":"Atelier de réparation de vélos","opening_hours":"24/7","osm_id":11385332769}},{"type":"Feature","geometry":{"type":"Point","coordinates":[2.3536793,48.7931308]},"properties":{"category":"repair","name":"Atelier de réparation de vélos","opening_hours":"24/7","osm_id":11385332770}},{"type":"Feature","geometry":{"type":"Point","coordinates":[2.3224176,48.7550213]},"properties":{"category":"repair","osm_id":11536377952}},{"type":"Feature","geometry":{"type":"Point","coordinates":[2.3277517,48.7624636]},"properties":{"category":"repair","osm_id":11539870202}},{"type":"Feature","geometry":{"type":"Point","coordinates":[2.3040745,48.783732]},"properties":{"category":"repair","name":"Maison du Vélo","osm_id":11879970157}},{"type":"Feature","geometry":{"type":"Point","coordinates":[2.337316,48.7940118]},"properties":{"category":"repair","osm_id":12030767460}},{"type":"Feature","geometry":{"type":"Point","coordinates":[2.3207569,48.7930645]},"properties":{"category":"repair","osm_id":12041892221}},{"type":"Feature","geometry":{"type":"Point","coordinates":[2.3356766,48.7929886]},"properties":{"category":"repair","osm_id":12041955922}},{"type":"Feature","geometry":{"type":"Point","coordinates":[2.3180582,48.7930237]},"properties":{"category":"compressed_air","osm_id":12046647553}},{"type":"Feature","geometry":{"type":"Point","coordinates":[2.3275435,48.7983124]},"properties":{"category":"repair","osm_id":12108573899}},{"type":"Feature","geometry":{"type":"Point","coordinates":[2.3253527,48.7891246]},"properties":{"category":"repair","osm_id":12211222554}},{"type":"Feature","geometry":{"type":"Point","coordinates":[2.3009531,48.7608713]},"properties":{"category":"shop","name":"La Maison du Vélo","opening_hours":"Mo-Fr 08:00-20:00;Sa 10:00-19:00;Su 10:00-18:00","phone":"0 800 10 20 20","website":"https://www.ville-antony.fr/evenements/ouverture-de-la-maison-du-velo-","osm_id":12439068494}},{"type":"Feature","geometry":{"type":"Point","coordinates":[2.3408105,48.7797419]},"properties":{"category":"compressed_air","osm_id":12512706245}},{"type":"Feature","geometry":{"type":"Point","coordinates":[2.3396488,48.7812111]},"properties":{"category":"compressed_air","osm_id":12512706283}},{"type":"Feature","geometry":{"type":"Point","coordinates":[2.3590823,48.7679915]},"properties":{"category":"repair","osm_id":12650345062}},{"type":"Feature","geometry":{"type":"Point","coordinates":[2.3846555,48.7950943]},"properties":{"category":"shop","name":"Citibike","opening_hours":"Tu-Sa 09:00-19:00","phone":"+33 9 53 78 08 48","website":"https://www.citibike.fr/fr/magasin/20","osm_id":12778987304}},{"type":"Feature","geometry":{"type":"Point","coordinates":[2.3542624,48.7468527]},"properties":{"category":"repair","osm_id":13089319769}},{"type":"Feature","geometry":{"type":"Point","coordinates":[2.3086325,48.700654]},"properties":{"category":"compressed_air","osm_id":13092916588}},{"type":"Feature","geometry":{"type":"Point","coordinates":[2.3087799,48.7003055]},"properties":{"category":"repair","name":"Station de Réparation Vélo","osm_id":13092928909}},{"type":"Feature","geometry":{"type":"Point","coordinates":[2.3575759,48.7456009]},"properties":{"category":"repair","name":"Atelier Rue d'Arcueil","osm_id":13121271589}},{"type":"Feature","geometry":{"type":"Point","coordinates":[2.3454697,48.7502245]},"properties":{"category":"repair","name":"Station de réparation vélo","osm_id":13186906316}},{"type":"Feature","geometry":{"type":"Point","coordinates":[2.3539016,48.7433477]},"properties":{"category":"repair","name":"Place du Rhône","osm_id":13189234728}},{"type":"Feature","geometry":{"type":"Point","coordinates":[2.3505442,48.741777]},"properties":{"category":"repair","osm_id":13189234739}},{"type":"Feature","geometry":{"type":"Point","coordinates":[2.3496462,48.7408847]},"properties":{"category":"repair","name":"Atelier Jura","osm_id":13189234745}},{"type":"Feature","geometry":{"type":"Point","coordinates":[2.3159427,48.7804794]},"properties":{"category":"repair","osm_id":13608443292}}]}