{"type":"FeatureCollection","features":[{"type":"Feature","geometry":{"type":"Point","coordinates":[7.6331639,48.7202701]},"properties":{"category":"bakery","name":"Boulangerie Pâtisserie Lutz","opening_hours":"Mo-Fr 05:30-19:00; Sa 05:30-15:00; Su off","phone":"+33 3 88 51 26 75","osm_id":6356184674}},{"type":"Feature","geometry":{"type":"Point","coordinates":[7.6394133,48.7586401]},"properties":{"category":"bakery","name":"Boulangerie Bernhard","phone":"+33 388516042","website":"https://www.bernhard.fr/","osm_id":14028328307}},{"type":"Feature","geometry":{"type":"Point","coordinates":[7.6781574,48.7475924]},"properties":{"category":"bakery","name":"Kougelhopf & Cie","phone":"+33 3 88 51 02 22","website":"https://www.kougelhopfetcie.fr/","osm_id":14028328308}},{"type":"Feature","geometry":{"type":"Point","coordinates":[7.6075702,48.7569203]},"properties":{"category":"bakery","name":"Au Fournil des Zimm’s","opening_hours":"Mo-Fr 06:00-19:00; Sa 06:00-13:00","phone":"+33 3 88 89 64 47","osm_id":14058489745}}]}