{"type":"FeatureCollection","features":[{"type":"Feature","geometry":{"type":"Point","coordinates":[6.1752939,48.7026572]},"properties":{"category":"bakery","name":"Saveurs & Traditions","opening_hours":"Th-Tu 06:00-22:00","osm_id":1641570646}},{"type":"Feature","geometry":{"type":"Point","coordinates":[6.1763424,48.7017443]},"properties":{"category":"bakery","name":"Boulangerie Pâtisserie Sucré Salé","phone":"+33 3 83375794","website":"https://www.patisserie-sucresale.fr/","osm_id":1641602391}},{"type":"Feature","geometry":{"type":"Point","coordinates":[6.1691917,48.7331302]},"properties":{"category":"bakery","name":"Boulangerie Kourylo","opening_hours":"Tu-Sa 06:00-19:30; Su 06:00-13:00","phone":"+33 3 83 38 09 01","osm_id":1748419961}},{"type":"Feature","geometry":{"type":"Point","coordinates":[6.167277,48.7346325]},"properties":{"category":"bakery","name":"Boulangerie Braquehais","opening_hours":"Mo-Su 06:00-19:45; Tu off","phone":"+33 3 83 38 33 56","osm_id":1772678150}},{"type":"Feature","geometry":{"type":"Point","coordinates":[6.1576605,48.7536588]},"properties":{"category":"bakery","name":"La Grange à Pains","opening_hours":"Mo-Fr 06:00-18:00; We off; Sa,Su 06:00-13:00","phone":"+33 3 83 17 36 01","osm_id":1867676607}},{"type":"Feature","geometry":{"type":"Point","coordinates":[6.1846341,48.7090534]},"properties":{"category":"bakery","name":"Au Coeur du Pain","opening_hours":"Mo,Tu,Th-Sa 06:30-19:00; Su 06:30-13:30","osm_id":2017102351}},{"type":"Feature","geometry":{"type":"Point","coordinates":[6.183585,48.7086005]},"properties":{"category":"shop","name":"vélOstan'boutic Mairie de Malzéville","opening_hours":"Mo 13:30-17:00; Tu-Fr 08:30-12:00,13:30-17:00","phone":"+33 3 83294378","website":"https://maisonduvelo.grandnancy.eu/location-de-velo/points-de-location/","osm_id":2380221197}},{"type":"Feature","geometry":{"type":"Point","coordinates":[6.197988,48.705282]},"properties":{"category":"bakery","name":"Maison Tisserant","opening_hours":"Tu-Fr 06:30-13:30,15:30-19:00; Sa,Su 06:30-13:00","phone":"+33 3 83366210","osm_id":2475769366}},{"type":"Feature","geometry":{"type":"Point","coordinates":[6.1820246,48.7036584]},"properties":{"category":"bakery","name":"Les merveilles de Lily","opening_hours":"Mo-Fr 07:00-19:00; Sa 07:00-13:00","osm_id":2628770152}},{"type":"Feature","geometry":{"type":"Point","coordinates":[6.146713,48.747471]},"properties":{"category":"shop","name":"Giant","opening_hours":"Mo 14:00-19:00; Tu-Sa 10:00-12:00,14:00-19:00","phone":"+33 3 83495757","website":"http://giant-nancy.fr","osm_id":3171152246}},{"type":"Feature","geometry":{"type":"Point","coordinates":[6.1848338,48.7091502]},"properties":{"category":"bakery","name":"Haute Couture by HG","opening_hours":"Tu-Sa 07:00-19:00; Su 07:00-18:00","osm_id":3200715877}},{"type":"Feature","geometry":{"type":"Point","coordinates":[6.184835,48.7075562]},"properties":{"category":"bakery","name":"Le Coup de Lame","phone":"+33 9 74563794","osm_id":3201913106}},{"type":"Feature","geometry":{"type":"Point","coordinates":[6.1612096,48.712307]},"properties":{"category":"shop","name":"L'Atelier Vélo de Maxéville","opening_hours":"We 13:30-16:30; Sa 09:00-16:00; Nov-Mar We 13:30-16:30; Sa 09:00-12:30","phone":"+33 7 69250979","website":"http://www.velomaxeville.lautre.net/","osm_id":4623452472}},{"type":"Feature","geometry":{"type":"Point","coordinates":[6.1915003,48.7053753]},"properties":{"category":"compressed_air","opening_hours":"24/7","osm_id":4971103282}},{"type":"Feature","geometry":{"type":"Point","coordinates":[6.1630361,48.7034603]},"properties":{"category":"bakery","name":"Fischer 1913","opening_hours":"Mo-Fr 06:00-20:00; Sa 07:00-19:00","phone":"+33 3 83544662","website":"https://lu.fischer1913.com/fr/boulangeries/nos-points-de-vente/fischer-nancy","osm_id":5983303275}},{"type":"Feature","geometry":{"type":"Point","coordinates":[6.1849151,48.7058324]},"properties":{"category":"compressed_air","opening_hours":"24/7","osm_id":6260579902}},{"type":"Feature","geometry":{"type":"Point","coordinates":[6.1522374,48.7413744]},"properties":{"category":"bakery","name":"Marie Blachère","osm_id":6697778062}},{"type":"Feature","geometry":{"type":"Point","coordinates":[6.1780658,48.7011506]},"properties":{"category":"bakery","name":"Boulangerie Juliac","opening_hours":"Th-Mo 06:00-19:30; Tu 06:00-15:00","phone":"+33 3 83350904","osm_id":7354769226}},{"type":"Feature","geometry":{"type":"Point","coordinates":[6.1713529,48.70175]},"properties":{"category":"bakery","name":"Boulangerie Pâtisserie Nigon","opening_hours":"Mo-Fr 05:30-19:30; Su 06:00-19:30; Sa off","phone":"+33 3 83322363","osm_id":7359416623}},{"type":"Feature","geometry":{"type":"Point","coordinates":[6.1656815,48.7339665]},"properties":{"category":"bakery","name":"Boulangerie Carbonera","opening_hours":"Tu-Sa 06:00-13:00,15:00-19:00; Su 06:00-13:00","phone":"+33 3 83 21 72 11","osm_id":7417186402}},{"type":"Feature","geometry":{"type":"Point","coordinates":[6.1979985,48.7485187]},"properties":{"category":"bakery","name":"La Mie de Lay","opening_hours":"Tu-Fr 06:00-13:00,15:30-19:30; Sa,Su 06:00-13:00","phone":"+33 3 83 22 80 07","osm_id":7425257825}},{"type":"Feature","geometry":{"type":"Point","coordinates":[6.1408,48.7551769]},"properties":{"category":"bakery","name":"Boulangerie Braquehais","opening_hours":"Mo-Su 06:00-19:45; We off","phone":"+33 3 83 49 04 01","osm_id":7434563439}},{"type":"Feature","geometry":{"type":"Point","coordinates":[6.1425909,48.792049]},"properties":{"category":"bakery","name":"L'Amandine","opening_hours":"05:30-19:30; Tu off","phone":"+33 3 83 24 31 73","website":"https://www.boulangerie-lamandine.fr/","osm_id":7438626770}},{"type":"Feature","geometry":{"type":"Point","coordinates":[6.1274773,48.7668421]},"properties":{"category":"bakery","name":"Boulangerie Deza","opening_hours":"Mo 06:30-18:00; Tu-Su 06:30-14:00","phone":"+33 3 83 49 00 47","osm_id":7438627801}},{"type":"Feature","geometry":{"type":"Point","coordinates":[6.142803,48.790633]},"properties":{"category":"bakery","name":"Sylvie et Gérald","phone":"+33 3 83 49 34 12","osm_id":7439039417}},{"type":"Feature","geometry":{"type":"Point","coordinates":[6.1283359,48.7685465]},"properties":{"category":"bakery","name":"La Couronne","osm_id":7439039427}},{"type":"Feature","geometry":{"type":"Point","coordinates":[6.1505091,48.7460404]},"properties":{"category":"bakery","name":"Boulangerie Ange","phone":"+33 3 83 37 29 97","osm_id":8094549298}},{"type":"Feature","geometry":{"type":"Point","coordinates":[6.135478,48.7006242]},"properties":{"category":"bakery","name":"Boulangerie Ange","osm_id":8180820495}},{"type":"Feature","geometry":{"type":"Point","coordinates":[6.1749886,48.7098863]},"properties":{"category":"compressed_air","osm_id":8633207230}},{"type":"Feature","geometry":{"type":"Point","coordinates":[6.1630647,48.7125741]},"properties":{"category":"compressed_air","name":"Maxéville","opening_hours":"24/7","osm_id":9120412153}},{"type":"Feature","geometry":{"type":"Point","coordinates":[6.1224836,48.7601053]},"properties":{"category":"bakery","name":"Le pain au levain","phone":"+33 3 83 49 02 01","osm_id":9122701286}},{"type":"Feature","geometry":{"type":"Point","coordinates":[6.142317,48.7551556]},"properties":{"category":"shop","name":"Vélocase","opening_hours":"09:00-18:00; Tu off","osm_id":9142949426}},{"type":"Feature","geometry":{"type":"Point","coordinates":[6.1824888,48.7077277]},"properties":{"category":"shop","name":"Roue Libre","opening_hours":"\"Ouvert 1 samedi sur 2 de 9h à 12h\"","website":"https://clavetteducoin.fr/roue-libre","osm_id":11392233600}},{"type":"Feature","geometry":{"type":"Point","coordinates":[6.14866,48.7418039]},"properties":{"category":"bakery","name":"Marie Blachère","osm_id":11501159339}},{"type":"Feature","geometry":{"type":"Point","coordinates":[6.122307,48.760627]},"properties":{"category":"shop","name":"Cyclaneuf","opening_hours":"We[1] 14:00-17:30; Sa[3] 09:00-12:00","website":"https://clavetteducoin.fr/atelier-cyclaneuf","osm_id":12211750337}},{"type":"Feature","geometry":{"type":"Point","coordinates":[6.1739677,48.7098576]},"properties":{"category":"bakery","osm_id":12299958492}},{"type":"Feature","geometry":{"type":"Point","coordinates":[6.1331735,48.7706865]},"properties":{"category":"repair","osm_id":14053311695}}]}