{"type":"FeatureCollection","features":[{"type":"Feature","geometry":{"type":"Point","coordinates":[7.4671101,48.7532107]},"properties":{"category":"bakery","name":"Boulangerie Banette Lolo & Co","phone":"+33 388914108","osm_id":4031462429}},{"type":"Feature","geometry":{"type":"Point","coordinates":[7.466258,48.7544274]},"properties":{"category":"bakery","osm_id":4031483866}},{"type":"Feature","geometry":{"type":"Point","coordinates":[7.4245651,48.7918295]},"properties":{"category":"bakery","osm_id":6024445565}},{"type":"Feature","geometry":{"type":"Point","coordinates":[7.417586,48.7626687]},"properties":{"category":"repair","osm_id":11391713005}},{"type":"Feature","geometry":{"type":"Point","coordinates":[7.4123966,48.7691969]},"properties":{"category":"bakery","name":"Au pain du Schneller","osm_id":12137170202}}]}