{"type":"FeatureCollection","features":[{"type":"Feature","geometry":{"type":"Point","coordinates":[7.8692113,48.771409]},"properties":{"category":"bakery","name":"SAS Place des Délices","phone":"+33388062490","osm_id":2984397197}},{"type":"Feature","geometry":{"type":"Point","coordinates":[7.8010015,48.7125912]},"properties":{"category":"bakery","name":"Pfaadt La Passion Du Gout","opening_hours":"Mo-Fr 06:00-19:00; Sa 06:00-13:00; Su,PH 07:00-12:00","phone":"+33 3 88 64 86 15","osm_id":8977708043}},{"type":"Feature","geometry":{"type":"Point","coordinates":[7.8143924,48.7541143]},"properties":{"category":"bakery","name":"Boulangerie Pâtisserie Jund","opening_hours":"Mo-Fr 05:00-12:30,15:30-19:00; Sa 05:00-13:00; Su 08:00-12:00","phone":"+33 3 88 72 47 40","osm_id":8979345674}},{"type":"Feature","geometry":{"type":"Point","coordinates":[7.8088425,48.7402551]},"properties":{"category":"bakery","name":"Boulangerie Striegel","phone":"+33388724936","osm_id":8979345677}},{"type":"Feature","geometry":{"type":"Point","coordinates":[7.8378888,48.7914298]},"properties":{"category":"bakery","name":"Boulangerie Bruder","opening_hours":"Mo-Fr 04:00-19:00; Sa 04:00-14:00; Su 08:00-12:00","phone":"+33 3 88 63 07 88","osm_id":12453396099}},{"type":"Feature","geometry":{"type":"Point","coordinates":[7.8166389,48.7802555]},"properties":{"category":"bakery","name":"Art de Pain Roller","opening_hours":"Mo-Fr 06:00-12:30; Sa 07:00-12:30","phone":"+33632773613","osm_id":13118742001}},{"type":"Feature","geometry":{"type":"Point","coordinates":[7.8517033,48.7701991]},"properties":{"category":"bakery","name":"Boulangerie Banette Joëlle et Christian Kauffmann","phone":"+33 388631570","osm_id":13509818263}},{"type":"Feature","geometry":{"type":"Point","coordinates":[7.8542791,48.7717221]},"properties":{"category":"bakery","name":"Kaye Salih","phone":"+33388630568","osm_id":13794641070}},{"type":"Feature","geometry":{"type":"Point","coordinates":[7.8646752,48.7813019]},"properties":{"category":"bakery","name":"Boulangerie Banette Yann et Katya","opening_hours":"Mo,Tu,Th,Fr 05:00-12:30,15:00-18:30; Sa 06:00-13:00; Su,PH 07:00-12:00","phone":"+33 388632002","osm_id":14002570730}},{"type":"Feature","geometry":{"type":"Point","coordinates":[7.8592331,48.7682945]},"properties":{"category":"bakery","name":"SARL Paul Karcher","phone":"+33388632310","osm_id":14021879506}}]}