{"type":"FeatureCollection","features":[{"type":"Feature","geometry":{"type":"Point","coordinates":[1.8997182,48.8136035]},"properties":{"category":"bakery","name":"Maison des Quatre Cerises","opening_hours":"Mo,Tu,Th-Sa 07:00-13:00,15:30-19:00; Su 07:00-13:00","osm_id":1225047848}},{"type":"Feature","geometry":{"type":"Point","coordinates":[1.876774,48.8528646]},"properties":{"category":"bakery","name":"Les Traditions de Beynes","opening_hours":"Mo-Tu 07:00-19:00; Th-Sa 07:00-19:00; Su 07:00-18:00","phone":"+33983400105","osm_id":2083805184}},{"type":"Feature","geometry":{"type":"Point","coordinates":[1.8146497,48.8023272]},"properties":{"category":"bakery","name":"Gare o Pain Méré","opening_hours":"Mo-Fr 05:30-13:30,15:30-20:00; Sa 07:00-13:00","phone":"+33 1 34 86 54 40","osm_id":7972664378}},{"type":"Feature","geometry":{"type":"Point","coordinates":[1.8974113,48.8035689]},"properties":{"category":"bakery","name":"Aux Delices de Pontchartrain","opening_hours":"Mo 07:00-13:00,15:30-19:30; Tu 07:00-12:30; Th-Sa 07:00-13:00,15:30-19:30; Su 07:00-13:00","phone":"+33 1 34 89 01 17","osm_id":7982106824}},{"type":"Feature","geometry":{"type":"Point","coordinates":[1.8734898,48.893237]},"properties":{"category":"bakery","name":"Les Délices de Mareil","opening_hours":"Mo-Sa 07:00-20:00, Su 07:00-13:00","phone":"+33 1 30 90 87 48","osm_id":9400591997}},{"type":"Feature","geometry":{"type":"Point","coordinates":[1.8820222,48.8101031]},"properties":{"category":"bakery","name":"Les traditions de Villiers","osm_id":10196624115}}]}