{"type":"FeatureCollection","features":[{"type":"Feature","geometry":{"type":"Point","coordinates":[2.2932915,48.839769]},"properties":{"category":"shop","name":"VeloRepar","opening_hours":"Mo-Sa 10:00-19:00","phone":"+33145314704","website":"https://velorepar.fr/","osm_id":408561950}},{"type":"Feature","geometry":{"type":"Point","coordinates":[2.2487,48.8254765]},"properties":{"category":"shop","name":"Giant","opening_hours":"Tu-Sa 10:00-19:00","phone":"+33 1 46 21 23 23","osm_id":408562162}},{"type":"Feature","geometry":{"type":"Point","coordinates":[2.2975816,48.8948264]},"properties":{"category":"shop","name":"Alex Singer","opening_hours":"We-Sa 10:00-12:30,14:00-19:30; Tu 14:00-19:30","phone":"+33 1 47 37 42 14","osm_id":647817455}},{"type":"Feature","geometry":{"type":"Point","coordinates":[2.2933495,48.8510262]},"properties":{"category":"shop","name":"Roulez Champions","phone":"+33 1 40 58 12 22","website":"https://roulezchampions.fr","osm_id":675865742}},{"type":"Feature","geometry":{"type":"Point","coordinates":[2.2398176,48.8404076]},"properties":{"category":"shop","name":"Cycles La Gazelle","phone":"+33 1 46 05 10 70","website":"http://www.la-gazelle.com","osm_id":826027877}},{"type":"Feature","geometry":{"type":"Point","coordinates":[2.2941833,48.8305474]},"properties":{"category":"shop","name":"Holland Bikes","opening_hours":"Tu-Fr 10:00-19:00","phone":"+33 1 42 50 42 40","website":"https://www.hollandbikes.com/content/73-atelier-reparation-velo-paris-15","osm_id":836814947}},{"type":"Feature","geometry":{"type":"Point","coordinates":[2.2326962,48.8357393]},"properties":{"category":"shop","name":"Ré-par-Bike","osm_id":870149386}},{"type":"Feature","geometry":{"type":"Point","coordinates":[2.2254329,48.8677256]},"properties":{"category":"shop","name":"Cycles Éric","phone":"+33 1 42 04 01 01","osm_id":979113807}},{"type":"Feature","geometry":{"type":"Point","coordinates":[2.2939383,48.8762859]},"properties":{"category":"shop","name":"Repair&Run","osm_id":980391377}},{"type":"Feature","geometry":{"type":"Point","coordinates":[2.2348375,48.8403033]},"properties":{"category":"shop","name":"Cyclable","opening_hours":"Tu-Sa 10:00-14:00, 15:00-19:00","phone":"+33 9 72 60 65 57","website":"https://boulogne-billancourt.cyclable.com/","osm_id":1014486943}},{"type":"Feature","geometry":{"type":"Point","coordinates":[2.2507741,48.8322882]},"properties":{"category":"shop","name":"Cyclo life","opening_hours":"Mo-Fr 09:00-19:00; Sa 10:00-18:00","phone":"+33 7 51 52 72 57","website":"https://www.cyclolife.fr/","osm_id":1051453438}},{"type":"Feature","geometry":{"type":"Point","coordinates":[2.2837096,48.8392798]},"properties":{"category":"shop","name":"Cyclo Paris 15","opening_hours":"Tu-Sa 10:00-19:00","phone":"+33 1 45 57 56 88","website":"https://www.cycloparis15.fr/","osm_id":1366642101}},{"type":"Feature","geometry":{"type":"Point","coordinates":[2.2080114,48.8644447]},"properties":{"category":"shop","name":"Cycles Le Grevès","opening_hours":"Tu-Sa 09:00-12:30,14:15-19:00","phone":"+33 1 45 06 22 93","website":"https://www.cycleslegreves.fr","osm_id":1404741115}},{"type":"Feature","geometry":{"type":"Point","coordinates":[2.2952447,48.8520816]},"properties":{"category":"shop","name":"Fat Tire Bike Tours","opening_hours":"Mo-Su 09:00-20:00","phone":"+33 1 82 88 80 96","website":"https://www.fattiretours.com/paris/","osm_id":1747138937}},{"type":"Feature","geometry":{"type":"Point","coordinates":[2.2750614,48.8484539]},"properties":{"category":"shop","name":"Les Cyclistes Branchés","opening_hours":"Tu-Fr 10:00-19:00; Sa 10:00-18:00","phone":"+33 9 80 85 62 04","website":"https://www.les-cyclistes-branches.com/","osm_id":1827357919}},{"type":"Feature","geometry":{"type":"Point","coordinates":[2.2835338,48.8087648]},"properties":{"category":"shop","name":"Culture Vélo","opening_hours":"Tu-Sa 10:00-19:00; Su,Mo off","phone":"+33 1 41 90 65 60","website":"https://www.culturevelo-chatillon.com/","osm_id":2173968266}},{"type":"Feature","geometry":{"type":"Point","coordinates":[2.2756012,48.8164252]},"properties":{"category":"shop","name":"2RCM","opening_hours":"Tu-Sa 09:00-12:00,14:00-19:00","phone":"+33 1 46 42 32 98","osm_id":2460362212}},{"type":"Feature","geometry":{"type":"Point","coordinates":[2.2479946,48.8170382]},"properties":{"category":"shop","name":"Velovente","opening_hours":"Tu,Th-Sa 10:30-12:30,14:30-18:30","phone":"+33 9 82 21 22 82","website":"https://www.vtt-cube.fr/","osm_id":2464044815}},{"type":"Feature","geometry":{"type":"Point","coordinates":[2.2964556,48.843705]},"properties":{"category":"shop","name":"Pharmacycle","opening_hours":"Mo-Fr 10:00-13:00,14:30-19:00; Sa 10:00-13:00,14:30-18:00","phone":"+33 1 48 42 38 78","osm_id":3201322161}},{"type":"Feature","geometry":{"type":"Point","coordinates":[2.2707467,48.8448042]},"properties":{"category":"shop","name":"Bicycland","opening_hours":"Tu-Sa 10:00-19:00","phone":"+33 1 45 20 03 95","website":"https://bicycland.com/","osm_id":3222082587}},{"type":"Feature","geometry":{"type":"Point","coordinates":[2.2721379,48.8110575]},"properties":{"category":"shop","name":"Rayon vert","opening_hours":"Tu 09:00-16:30; We 08:30-18:30; Th 09:00-16:00; Fr 08:30-18:30","phone":"+33 1 58 88 22 18","website":"http://www.rayon-vert.org","osm_id":3415701922}},{"type":"Feature","geometry":{"type":"Point","coordinates":[2.2345303,48.8781427]},"properties":{"category":"shop","name":"Veloactif","osm_id":3880596241}},{"type":"Feature","geometry":{"type":"Point","coordinates":[2.25748,48.89426]},"properties":{"category":"shop","name":"La Fabrique des Cyclistes","opening_hours":"Tu 14:00-19:00; We-Fr 10:00-13:00, 14:00-19:00; Sa 10:30-13:00, 14:00-19:00","phone":"+33 1 47 93 41 08","website":"https://lafabriquedescyclistes.fr","osm_id":3892285571}},{"type":"Feature","geometry":{"type":"Point","coordinates":[2.2947953,48.8936804]},"properties":{"category":"shop","name":"Cycles Cossia","phone":"+33 1 47 37 28 82","osm_id":3955505317}},{"type":"Feature","geometry":{"type":"Point","coordinates":[2.2479575,48.8941219]},"properties":{"category":"shop","name":"Vélo lolo","phone":"+33171020372","osm_id":4343154770}},{"type":"Feature","geometry":{"type":"Point","coordinates":[2.2909037,48.8764281]},"properties":{"category":"shop","name":"Alltricks","phone":"+33 1 30 48 90 07","website":"https://www.alltricks.fr/surl/magasin-velo-paris","osm_id":4704552073}},{"type":"Feature","geometry":{"type":"Point","coordinates":[2.2938694,48.8470589]},"properties":{"category":"shop","name":"Cyclable","opening_hours":"Tu-Fr 10:00-14:00, 15:00-19:00; Sa 10:00-19:00","phone":"+33972585324","osm_id":4813723480}},{"type":"Feature","geometry":{"type":"Point","coordinates":[2.2918095,48.8744172]},"properties":{"category":"shop","name":"SILENCE Urban ecomobility","osm_id":5166178525}},{"type":"Feature","geometry":{"type":"Point","coordinates":[2.2822635,48.8242813]},"properties":{"category":"shop","name":"CRC Cycles","opening_hours":"Tu-Fr 09:00-13:00,14:00-19:00; Sa 10:00-18:00","phone":"+33 1 45 29 10 42","osm_id":5211024238}},{"type":"Feature","geometry":{"type":"Point","coordinates":[2.2827277,48.8461186]},"properties":{"category":"shop","name":"Mon vélo en Seine","opening_hours":"Tu 19:00-21:30","osm_id":5306881875}},{"type":"Feature","geometry":{"type":"Point","coordinates":[2.2838712,48.8899337]},"properties":{"category":"shop","name":"Cycles Victor - Danton","opening_hours":"Tu-Sa 10:00-13:00,14:30-19:00","phone":"+33 9 62 64 83 61","website":"https://www.cycles-victor.fr/","osm_id":5470504374}},{"type":"Feature","geometry":{"type":"Point","coordinates":[2.2153183,48.86026]},"properties":{"category":"shop","name":"Popcycle","opening_hours":"Mo 13:00-19:00; Tu-Th 11:00-19:00; Fr 11:00-17:00; Sa 13:00-17:00","phone":"+33 6 40 99 76 56","website":"https://www.popcycle.fr/","osm_id":6404149016}},{"type":"Feature","geometry":{"type":"Point","coordinates":[2.273285,48.8235213]},"properties":{"category":"shop","name":"Alltricks","opening_hours":"Mo-Sa 10:00-19:00","phone":"+33 1 30 48 52 82","website":"https://www.alltricks.fr/surl/magasin-velo-issy","osm_id":6696807520}},{"type":"Feature","geometry":{"type":"Point","coordinates":[2.2549576,48.8966899]},"properties":{"category":"repair","opening_hours":"24/7","osm_id":7010879343}},{"type":"Feature","geometry":{"type":"Point","coordinates":[2.2322894,48.8814146]},"properties":{"category":"compressed_air","osm_id":7098629338}},{"type":"Feature","geometry":{"type":"Point","coordinates":[2.2599321,48.8839441]},"properties":{"category":"shop","name":"En selle Marcel","osm_id":7112542278}},{"type":"Feature","geometry":{"type":"Point","coordinates":[2.2970451,48.8146507]},"properties":{"category":"repair","osm_id":7252484977}},{"type":"Feature","geometry":{"type":"Point","coordinates":[2.2861895,48.877307]},"properties":{"category":"shop","name":"Buzibi","osm_id":7276360691}},{"type":"Feature","geometry":{"type":"Point","coordinates":[2.2872953,48.8143034]},"properties":{"category":"repair","osm_id":7294939122}},{"type":"Feature","geometry":{"type":"Point","coordinates":[2.275967,48.8274911]},"properties":{"category":"compressed_air","opening_hours":"24/7","osm_id":7363470369}},{"type":"Feature","geometry":{"type":"Point","coordinates":[2.2367362,48.8811695]},"properties":{"category":"shop","name":"Futura Cycles","opening_hours":"Tu-Sa 09:00-13:00, 14:00-19:00","phone":"+33 1 47 99 35 68","osm_id":7501863337}},{"type":"Feature","geometry":{"type":"Point","coordinates":[2.223961,48.8956794]},"properties":{"category":"repair","osm_id":7602112617}},{"type":"Feature","geometry":{"type":"Point","coordinates":[2.2933093,48.8279699]},"properties":{"category":"repair","name":"Pompe en libre service (derrière la grille de l'espace Paris Plaine)","opening_hours":"Espace Paris Plaine","osm_id":7638516419}},{"type":"Feature","geometry":{"type":"Point","coordinates":[2.2507328,48.8215206]},"properties":{"category":"compressed_air","osm_id":7694057068}},{"type":"Feature","geometry":{"type":"Point","coordinates":[2.2959122,48.8230055]},"properties":{"category":"repair","osm_id":7784854815}},{"type":"Feature","geometry":{"type":"Point","coordinates":[2.2159251,48.8095632]},"properties":{"category":"repair","osm_id":7788076156}},{"type":"Feature","geometry":{"type":"Point","coordinates":[2.2837854,48.8201383]},"properties":{"category":"repair","osm_id":7843700854}},{"type":"Feature","geometry":{"type":"Point","coordinates":[2.2915671,48.8185552]},"properties":{"category":"repair","osm_id":7847340289}},{"type":"Feature","geometry":{"type":"Point","coordinates":[2.2980765,48.8852566]},"properties":{"category":"repair","opening_hours":"24/7","osm_id":7926217309}},{"type":"Feature","geometry":{"type":"Point","coordinates":[2.2858051,48.8070315]},"properties":{"category":"shop","name":"Le Petit Porteur","phone":"+33 6 87 71 50 82","website":"https://www.lepetitporteur.com/","osm_id":8085835209}},{"type":"Feature","geometry":{"type":"Point","coordinates":[2.2400482,48.8943128]},"properties":{"category":"repair","osm_id":8143932757}},{"type":"Feature","geometry":{"type":"Point","coordinates":[2.2510471,48.8212188]},"properties":{"category":"repair","opening_hours":"24/7","osm_id":8647781743}},{"type":"Feature","geometry":{"type":"Point","coordinates":[2.2799822,48.8464352]},"properties":{"category":"compressed_air","osm_id":8676409534}},{"type":"Feature","geometry":{"type":"Point","coordinates":[2.2323664,48.8884623]},"properties":{"category":"repair","osm_id":8850374295}},{"type":"Feature","geometry":{"type":"Point","coordinates":[2.2456126,48.8784248]},"properties":{"category":"repair","osm_id":8850551092}},{"type":"Feature","geometry":{"type":"Point","coordinates":[2.2430871,48.8907501]},"properties":{"category":"repair","opening_hours":"24/7","osm_id":8899059112}},{"type":"Feature","geometry":{"type":"Point","coordinates":[2.2873764,48.8248854]},"properties":{"category":"repair","opening_hours":"24/7","osm_id":8900977462}},{"type":"Feature","geometry":{"type":"Point","coordinates":[2.2791559,48.8167391]},"properties":{"category":"repair","opening_hours":"24/7","osm_id":8900988912}},{"type":"Feature","geometry":{"type":"Point","coordinates":[2.2376855,48.8249754]},"properties":{"category":"shop","name":"Culture Vélo","website":"https://www.culturevelo.com/-Boulogne-Billancourt-","osm_id":9028085647}},{"type":"Feature","geometry":{"type":"Point","coordinates":[2.2129646,48.8469938]},"properties":{"category":"repair","osm_id":9104891557}},{"type":"Feature","geometry":{"type":"Point","coordinates":[2.261455,48.8210887]},"properties":{"category":"shop","name":"Cyclable","opening_hours":"Tu-Fr 10:00-14:00,15:00-19:00; Sa 10:00-13:00,14:00-19:00","phone":"+33 9 74 04 02 96","website":"https://issy-les-moulineaux.cyclable.com/","osm_id":9217846117}},{"type":"Feature","geometry":{"type":"Point","coordinates":[2.2755685,48.8525796]},"properties":{"category":"shop","name":"Ridy","opening_hours":"Mo-Fr 10:00-13:00, 14:00-18:30","phone":"+33 9 83 33 25 66","website":"https://www.ridy.fr/","osm_id":9331711266}},{"type":"Feature","geometry":{"type":"Point","coordinates":[2.2364903,48.8918818]},"properties":{"category":"repair","osm_id":9494858096}},{"type":"Feature","geometry":{"type":"Point","coordinates":[2.2073923,48.8402772]},"properties":{"category":"repair","osm_id":9633392499}},{"type":"Feature","geometry":{"type":"Point","coordinates":[2.2101766,48.8645642]},"properties":{"category":"repair","opening_hours":"24/7","osm_id":9706949231}},{"type":"Feature","geometry":{"type":"Point","coordinates":[2.2241478,48.8741252]},"properties":{"category":"repair","osm_id":9786847902}},{"type":"Feature","geometry":{"type":"Point","coordinates":[2.2804898,48.8357365]},"properties":{"category":"shop","name":"Mobility Urban","osm_id":9843919599}},{"type":"Feature","geometry":{"type":"Point","coordinates":[2.2468618,48.885527]},"properties":{"category":"repair","osm_id":9893207638}},{"type":"Feature","geometry":{"type":"Point","coordinates":[2.2896516,48.8846139]},"properties":{"category":"shop","name":"Monspad","phone":"+33 9 86 69 28 79","website":"https://monspad.fr/","osm_id":9934650423}},{"type":"Feature","geometry":{"type":"Point","coordinates":[2.2236119,48.8826068]},"properties":{"category":"repair","osm_id":9939991145}},{"type":"Feature","geometry":{"type":"Point","coordinates":[2.2919532,48.8739142]},"properties":{"category":"shop","name":"Holland Bikes","opening_hours":"Mo-Su 09:00-18:00","phone":"+33 1 44 08 05 28","osm_id":10002245617}},{"type":"Feature","geometry":{"type":"Point","coordinates":[2.2848956,48.8688666]},"properties":{"category":"shop","name":"16è En Selle","osm_id":10079614094}},{"type":"Feature","geometry":{"type":"Point","coordinates":[2.2406702,48.8199596]},"properties":{"category":"shop","name":"Dropbar - L'Atelier Vélo - Route & Gravel","opening_hours":"Tu-Sa 10:00-19:00","phone":"+33 9 84 41 20 38","osm_id":10173275015}},{"type":"Feature","geometry":{"type":"Point","coordinates":[2.2209712,48.8719474]},"properties":{"category":"repair","opening_hours":"24/7","osm_id":10219996689}},{"type":"Feature","geometry":{"type":"Point","coordinates":[2.2891074,48.8041118]},"properties":{"category":"repair","osm_id":10256330356}},{"type":"Feature","geometry":{"type":"Point","coordinates":[2.2676596,48.8273582]},"properties":{"category":"repair","osm_id":10264931105}},{"type":"Feature","geometry":{"type":"Point","coordinates":[2.2384127,48.812697]},"properties":{"category":"compressed_air","osm_id":10289865793}},{"type":"Feature","geometry":{"type":"Point","coordinates":[2.2112748,48.8251028]},"properties":{"category":"compressed_air","osm_id":10584247991}},{"type":"Feature","geometry":{"type":"Point","coordinates":[2.2123986,48.824483]},"properties":{"category":"compressed_air","osm_id":10584247995}},{"type":"Feature","geometry":{"type":"Point","coordinates":[2.2219634,48.8264766]},"properties":{"category":"compressed_air","osm_id":10584247996}},{"type":"Feature","geometry":{"type":"Point","coordinates":[2.2145853,48.8213707]},"properties":{"category":"compressed_air","osm_id":10584248001}},{"type":"Feature","geometry":{"type":"Point","coordinates":[2.2064361,48.8112742]},"properties":{"category":"compressed_air","osm_id":10584248002}},{"type":"Feature","geometry":{"type":"Point","coordinates":[2.2641753,48.8292798]},"properties":{"category":"compressed_air","osm_id":10584262605}},{"type":"Feature","geometry":{"type":"Point","coordinates":[2.2424623,48.8899617]},"properties":{"category":"repair","opening_hours":"24/7","osm_id":10699699304}},{"type":"Feature","geometry":{"type":"Point","coordinates":[2.2441405,48.8896904]},"properties":{"category":"repair","opening_hours":"24/7","osm_id":10701842709}},{"type":"Feature","geometry":{"type":"Point","coordinates":[2.2156669,48.8535661]},"properties":{"category":"repair","osm_id":10725857921}},{"type":"Feature","geometry":{"type":"Point","coordinates":[2.2212332,48.8501392]},"properties":{"category":"repair","osm_id":10725857922}},{"type":"Feature","geometry":{"type":"Point","coordinates":[2.2944555,48.8788488]},"properties":{"category":"repair","osm_id":10741824347}},{"type":"Feature","geometry":{"type":"Point","coordinates":[2.2975953,48.8876605]},"properties":{"category":"shop","name":"Réflexe cycles","phone":"+33 7 66 27 45 93","website":"https://reflexecycles.com","osm_id":10758391928}},{"type":"Feature","geometry":{"type":"Point","coordinates":[2.2951198,48.8306502]},"properties":{"category":"shop","name":"Holland Bikes","opening_hours":"Tu-Fr 10:00-14:00, 15:00-19:00; Sa 10:00-19:00","phone":"+33 1 42 50 42 40","website":"https://www.hollandbikes.com/content/65-magasin-de-velos-paris-15-holland-bikes","osm_id":10775850705}},{"type":"Feature","geometry":{"type":"Point","coordinates":[2.2700293,48.8842909]},"properties":{"category":"repair","osm_id":10971748224}},{"type":"Feature","geometry":{"type":"Point","coordinates":[2.2342947,48.8298519]},"properties":{"category":"shop","name":"Recyclerie Sportive Boulogne Billancourt","opening_hours":"We, Fr 11:00-13:00, 15:00-19:00; Th 14:00-20:00; Sa 10:00-13:00, 14:00-19:00","website":"https://recyclerie-sportive.org/ma-recyclerie-sportive/ma-rs-la-plus-proche/boulogne-billancourt/","osm_id":11001487143}},{"type":"Feature","geometry":{"type":"Point","coordinates":[2.225997,48.8680632]},"properties":{"category":"shop","name":"Podium.cc","opening_hours":"Mo-Su 10:00-19:00","phone":"+33 1 41 06 53 85","website":"https://www.podium.cc","osm_id":11128062859}},{"type":"Feature","geometry":{"type":"Point","coordinates":[2.2697079,48.8432078]},"properties":{"category":"shop","name":"Ecox","osm_id":11186609102}},{"type":"Feature","geometry":{"type":"Point","coordinates":[2.2720562,48.8138088]},"properties":{"category":"shop","name":"Volta shop","phone":"+33 1 41 08 16 72","website":"https://www.voltashop.fr/","osm_id":11189093062}},{"type":"Feature","geometry":{"type":"Point","coordinates":[2.2431806,48.8923397]},"properties":{"category":"repair","osm_id":11328249996}},{"type":"Feature","geometry":{"type":"Point","coordinates":[2.2634022,48.8404211]},"properties":{"category":"shop","name":"Cycl'emouv","osm_id":11333283656}},{"type":"Feature","geometry":{"type":"Point","coordinates":[2.2532047,48.8320086]},"properties":{"category":"repair","osm_id":11371589125}},{"type":"Feature","geometry":{"type":"Point","coordinates":[2.2760485,48.8274335]},"properties":{"category":"repair","opening_hours":"24/7","osm_id":11513856184}},{"type":"Feature","geometry":{"type":"Point","coordinates":[2.2398432,48.8395776]},"properties":{"category":"repair","osm_id":11528369677}},{"type":"Feature","geometry":{"type":"Point","coordinates":[2.2333315,48.8334308]},"properties":{"category":"repair","osm_id":11533961056}},{"type":"Feature","geometry":{"type":"Point","coordinates":[2.2789441,48.838523]},"properties":{"category":"shop","name":"CycloCube - Makabane","opening_hours":"Th 18:00-20:00","website":"https://cyclocube.org/prochain-atelier-velo/","osm_id":11598327249}},{"type":"Feature","geometry":{"type":"Point","coordinates":[2.2340462,48.8269913]},"properties":{"category":"repair","osm_id":11773518949}},{"type":"Feature","geometry":{"type":"Point","coordinates":[2.2392334,48.8189105]},"properties":{"category":"repair","opening_hours":"24/7","osm_id":11805900370}},{"type":"Feature","geometry":{"type":"Point","coordinates":[2.2894648,48.8362979]},"properties":{"category":"shop","name":"Cycles Guillaume","phone":"+33 1 47 07 74 42","website":"https://cyclesguillaume.fr/","osm_id":11806893244}},{"type":"Feature","geometry":{"type":"Point","coordinates":[2.2837571,48.8916441]},"properties":{"category":"shop","name":"Cycles Victor - Voltaire","opening_hours":"Tu-Sa 10:30-13:00,14:30-19:00","phone":"+33 9 62 64 83 61","osm_id":11808191715}},{"type":"Feature","geometry":{"type":"Point","coordinates":[2.2938851,48.8802518]},"properties":{"category":"shop","osm_id":11926389546}},{"type":"Feature","geometry":{"type":"Point","coordinates":[2.2223165,48.842912]},"properties":{"category":"repair","osm_id":11943113972}},{"type":"Feature","geometry":{"type":"Point","coordinates":[2.2342908,48.8747739]},"properties":{"category":"repair","osm_id":11951866722}},{"type":"Feature","geometry":{"type":"Point","coordinates":[2.2910017,48.8406161]},"properties":{"category":"shop","name":"Red-will","osm_id":11964112847}},{"type":"Feature","geometry":{"type":"Point","coordinates":[2.2780484,48.8817104]},"properties":{"category":"repair","osm_id":12001487343}},{"type":"Feature","geometry":{"type":"Point","coordinates":[2.2822438,48.8352395]},"properties":{"category":"shop","name":"Cycler","phone":"+33 6 84 58 34 44","website":"https://www.cycler.fr/","osm_id":12105561651}},{"type":"Feature","geometry":{"type":"Point","coordinates":[2.2399072,48.8472232]},"properties":{"category":"shop","name":"Cycler","phone":"+33 6 15 75 30 21","website":"https://www.cycler.fr/","osm_id":12105590646}},{"type":"Feature","geometry":{"type":"Point","coordinates":[2.2874449,48.8467268]},"properties":{"category":"shop","name":"French Atelier cycles","phone":"+33 6 81 55 05 29","website":"https://www.lfacycles.fr/","osm_id":12105606103}},{"type":"Feature","geometry":{"type":"Point","coordinates":[2.2605615,48.8880881]},"properties":{"category":"repair","opening_hours":"24/7","osm_id":12106300859}},{"type":"Feature","geometry":{"type":"Point","coordinates":[2.2477978,48.840579]},"properties":{"category":"repair","opening_hours":"24/7","osm_id":12241213420}},{"type":"Feature","geometry":{"type":"Point","coordinates":[2.2221608,48.8682767]},"properties":{"category":"repair","opening_hours":"24/7","osm_id":12269622518}},{"type":"Feature","geometry":{"type":"Point","coordinates":[2.200551,48.8273363]},"properties":{"category":"repair","opening_hours":"24/7","osm_id":12331515070}},{"type":"Feature","geometry":{"type":"Point","coordinates":[2.2733226,48.8255383]},"properties":{"category":"repair","osm_id":12441394650}},{"type":"Feature","geometry":{"type":"Point","coordinates":[2.2711694,48.8180376]},"properties":{"category":"repair","osm_id":12554512643}},{"type":"Feature","geometry":{"type":"Point","coordinates":[2.2641345,48.8292223]},"properties":{"category":"repair","opening_hours":"24/7","osm_id":12695161022}},{"type":"Feature","geometry":{"type":"Point","coordinates":[2.2553506,48.8910479]},"properties":{"category":"repair","osm_id":12756997795}},{"type":"Feature","geometry":{"type":"Point","coordinates":[2.2760742,48.8625683]},"properties":{"category":"shop","name":"Pompon Cycles","opening_hours":"Mo-Fr 08:30-11:30","phone":"+33 9 62 14 03 63","osm_id":12805820456}},{"type":"Feature","geometry":{"type":"Point","coordinates":[2.2755069,48.8215854]},"properties":{"category":"repair","osm_id":12865183301}},{"type":"Feature","geometry":{"type":"Point","coordinates":[2.2429647,48.8336625]},"properties":{"category":"shop","phone":"+33 1 73 70 78 63","website":"https://my-velo.fr/","osm_id":12997493290}},{"type":"Feature","geometry":{"type":"Point","coordinates":[2.2977688,48.8997528]},"properties":{"category":"repair","opening_hours":"24/7","osm_id":13048912122}},{"type":"Feature","geometry":{"type":"Point","coordinates":[2.2599698,48.8904816]},"properties":{"category":"compressed_air","osm_id":13051681115}},{"type":"Feature","geometry":{"type":"Point","coordinates":[2.2281492,48.8411711]},"properties":{"category":"repair","opening_hours":"24/7","osm_id":13076104830}},{"type":"Feature","geometry":{"type":"Point","coordinates":[2.2298202,48.8860016]},"properties":{"category":"repair","osm_id":13116828534}},{"type":"Feature","geometry":{"type":"Point","coordinates":[2.2789064,48.8385289]},"properties":{"category":"shop","name":"CycloCube","website":"https://cyclocube.org/accueil/apprentissage-velo/","osm_id":13143258762}},{"type":"Feature","geometry":{"type":"Point","coordinates":[2.2776956,48.8809165]},"properties":{"category":"shop","name":"JBCycle - vélo-école","opening_hours":"Mo-Fr 09:00-18:00","phone":"+33 6 17 81 24 55","osm_id":13143268644}},{"type":"Feature","geometry":{"type":"Point","coordinates":[2.2776916,48.880934]},"properties":{"category":"repair","name":"JBCycle - mécanique vélo","opening_hours":"Mo-Fr 09:00-18:00","phone":"+33 617812455","website":"https://www.facebook.com/profile.php?id=61553697615626","osm_id":13143275893}},{"type":"Feature","geometry":{"type":"Point","coordinates":[2.2983532,48.896804]},"properties":{"category":"repair","osm_id":13175526581}},{"type":"Feature","geometry":{"type":"Point","coordinates":[2.2881462,48.8081896]},"properties":{"category":"repair","osm_id":13183526928}},{"type":"Feature","geometry":{"type":"Point","coordinates":[2.2695889,48.8481344]},"properties":{"category":"shop","name":"Cyclop velos","opening_hours":"Mo-Fr 08:00-17:00; Sa 09:00-15:00","phone":"+33 6 44 69 48 42","website":"https://cyclopvelos.fr","osm_id":13232463353}},{"type":"Feature","geometry":{"type":"Point","coordinates":[2.2754389,48.8488092]},"properties":{"category":"wash","name":"Motomatic","opening_hours":"Mo 10:30-19:00","phone":"+33 1 77 17 04 50","website":"https://motomatic.fr","osm_id":13247110598}},{"type":"Feature","geometry":{"type":"Point","coordinates":[2.2473993,48.8825394]},"properties":{"category":"compressed_air","osm_id":13250065223}},{"type":"Feature","geometry":{"type":"Point","coordinates":[2.2396623,48.8186184]},"properties":{"category":"shop","name":"TRUST Cycles","osm_id":13265887997}},{"type":"Feature","geometry":{"type":"Point","coordinates":[2.2723816,48.8139294]},"properties":{"category":"repair","osm_id":13285191953}},{"type":"Feature","geometry":{"type":"Point","coordinates":[2.2618113,48.8258032]},"properties":{"category":"repair","osm_id":13478833111}},{"type":"Feature","geometry":{"type":"Point","coordinates":[2.2472298,48.8345585]},"properties":{"category":"repair","osm_id":13665191388}},{"type":"Feature","geometry":{"type":"Point","coordinates":[2.2409774,48.8150501]},"properties":{"category":"repair","opening_hours":"24/7","osm_id":13768086880}},{"type":"Feature","geometry":{"type":"Point","coordinates":[2.2336781,48.8381302]},"properties":{"category":"repair","osm_id":13812128291}},{"type":"Feature","geometry":{"type":"Point","coordinates":[2.2419408,48.8269846]},"properties":{"category":"repair","opening_hours":"24/7","osm_id":13899700342}},{"type":"Feature","geometry":{"type":"Point","coordinates":[2.2758406,48.8829654]},"properties":{"category":"repair","osm_id":13900851913}},{"type":"Feature","geometry":{"type":"Point","coordinates":[2.217675,48.8413264]},"properties":{"category":"repair","opening_hours":"24/7","osm_id":13954369145}},{"type":"Feature","geometry":{"type":"Point","coordinates":[2.2847855,48.8920877]},"properties":{"category":"repair","osm_id":13997886540}},{"type":"Feature","geometry":{"type":"Point","coordinates":[2.2339656,48.8444369]},"properties":{"category":"repair","osm_id":14017302098}}]}