{"type":"FeatureCollection","features":[{"type":"Feature","geometry":{"type":"Point","coordinates":[-1.0462125,48.840314]},"properties":{"category":"bakery","name":"L'Atelier des Saveurs","opening_hours":"Mo,Tu,Fr,Sa 07:00-19:00; Su 07:00-13:00","phone":"+33 2 31 68 82 76","osm_id":1702580645}},{"type":"Feature","geometry":{"type":"Point","coordinates":[-1.0287297,48.8631175]},"properties":{"category":"bakery","name":"L'Opéra","opening_hours":"Tu-Sa 07:00-20:00; Su 07:00-13:30","osm_id":7354395594}}]}