{"type":"FeatureCollection","features":[{"type":"Feature","geometry":{"type":"Point","coordinates":[2.8287539,48.8141026]},"properties":{"category":"bakery","osm_id":1921604590}},{"type":"Feature","geometry":{"type":"Point","coordinates":[2.8159194,48.8704844]},"properties":{"category":"bakery","name":"Ô Gourmet","osm_id":5133272778}},{"type":"Feature","geometry":{"type":"Point","coordinates":[2.8745436,48.8987079]},"properties":{"category":"bakery","osm_id":5249389221}},{"type":"Feature","geometry":{"type":"Point","coordinates":[2.8198975,48.8504025]},"properties":{"category":"bakery","osm_id":8068250593}},{"type":"Feature","geometry":{"type":"Point","coordinates":[2.8201456,48.8500014]},"properties":{"category":"bakery","name":"La Boite à Pains","osm_id":8191123553}},{"type":"Feature","geometry":{"type":"Point","coordinates":[2.8137311,48.8640266]},"properties":{"category":"bakery","osm_id":8202638665}},{"type":"Feature","geometry":{"type":"Point","coordinates":[2.8136761,48.8675374]},"properties":{"category":"bakery","name":"Hardy","osm_id":8202638680}},{"type":"Feature","geometry":{"type":"Point","coordinates":[2.8513867,48.8826804]},"properties":{"category":"bakery","name":"La Boite à Pains","osm_id":8205162143}},{"type":"Feature","geometry":{"type":"Point","coordinates":[2.8277792,48.8869081]},"properties":{"category":"bakery","name":"Les Douceurs de Montry","osm_id":8205926391}},{"type":"Feature","geometry":{"type":"Point","coordinates":[2.8165814,48.83066]},"properties":{"category":"bakery","name":"Chez Meunier","osm_id":9129152392}}]}