{"type":"FeatureCollection","features":[{"type":"Feature","geometry":{"type":"Point","coordinates":[-0.8896888,48.8386877]},"properties":{"category":"bakery","name":"La Mie Câline","opening_hours":"Mo-Sa 06:30-20:00; Su 06:30-19:30","osm_id":401532017}},{"type":"Feature","geometry":{"type":"Point","coordinates":[-0.8889278,48.8393935]},"properties":{"category":"bakery","name":"Lucie & Marc Gervaise","osm_id":401532027}},{"type":"Feature","geometry":{"type":"Point","coordinates":[-0.886224,48.8298762]},"properties":{"category":"bakery","name":"Boulangerie Pâtisserie","opening_hours":"Tu-Sa 07:00-20:00; Su 06:00-13:30","osm_id":498482829}},{"type":"Feature","geometry":{"type":"Point","coordinates":[-0.8826632,48.8367212]},"properties":{"category":"bakery","osm_id":499640305}},{"type":"Feature","geometry":{"type":"Point","coordinates":[-0.8980316,48.8454999]},"properties":{"category":"bakery","name":"Aux Douceurs de Martilly","osm_id":503701973}},{"type":"Feature","geometry":{"type":"Point","coordinates":[-0.8878486,48.8465681]},"properties":{"category":"bakery","name":"Les Amis du Pain","phone":"+33 2 31 68 12 13","osm_id":4483840755}},{"type":"Feature","geometry":{"type":"Point","coordinates":[-0.8717342,48.8563712]},"properties":{"category":"bakery","name":"Maison Jehan","opening_hours":"Mo,We,Fr 07:00-18:00; Tu,Th 07:00-14:00","osm_id":7354440258}},{"type":"Feature","geometry":{"type":"Point","coordinates":[-0.8822604,48.8926055]},"properties":{"category":"bakery","name":"Danjou","osm_id":10209621033}},{"type":"Feature","geometry":{"type":"Point","coordinates":[-0.8775103,48.8579408]},"properties":{"category":"bakery","name":"Boulangerie Ange","opening_hours":"Mo-Sa 05:00-20:00; Su 07:30-12:30","phone":"+33 2 31 68 30 31","website":"https://www.boulangerie-ange.fr/stores/boulangerie-ange-vire/","osm_id":10209750677}},{"type":"Feature","geometry":{"type":"Point","coordinates":[-0.8791262,48.8554222]},"properties":{"category":"shop","name":"La Maison du Vélo","website":"https://mobylis.org/maison-du-velo/","osm_id":11851499775}},{"type":"Feature","geometry":{"type":"Point","coordinates":[-0.8885063,48.8368578]},"properties":{"category":"bakery","name":"Aux FIns Gourmets","opening_hours":"Mo-Sa 07:30-20:00; Su 07:30-13:30","phone":"+33 2 31 09 08 66","osm_id":12211421760}},{"type":"Feature","geometry":{"type":"Point","coordinates":[-0.8881818,48.8393676]},"properties":{"category":"shop","name":"Bike & Run","opening_hours":"Tu-Sa 10:00-13:00,14:00-19:00","phone":"+33 9 88 41 89 38","osm_id":12391597544}},{"type":"Feature","geometry":{"type":"Point","coordinates":[-0.8851299,48.8446569]},"properties":{"category":"bakery","name":"L'étale à Pain","osm_id":13299537750}},{"type":"Feature","geometry":{"type":"Point","coordinates":[-0.8881633,48.8384461]},"properties":{"category":"bakery","name":"Boulangerie Jeannette","osm_id":13734124001}}]}