{"type":"FeatureCollection","features":[{"type":"Feature","geometry":{"type":"Point","coordinates":[8.1088444,48.8966278]},"properties":{"category":"bakery","name":"Paul Weiss","opening_hours":"Mo-Sa 04:30-12:15","phone":"+33 3 88 86 86 56","osm_id":33560612}},{"type":"Feature","geometry":{"type":"Point","coordinates":[8.1082137,48.8945767]},"properties":{"category":"bakery","name":"Au Fournil de Seltz","opening_hours":"Mo, Tu, Fr 04:45-18:00; We 04:45-13:00; Th 04:45-12:45,14:15-18:00; Sa 05:30-12:30; Su 06:00-12:30","phone":"+33 3 88 06 92 15","osm_id":1757388811}}]}