{"type":"FeatureCollection","features":[{"type":"Feature","geometry":{"type":"Point","coordinates":[2.1361209,48.8056848]},"properties":{"category":"shop","name":"Ze Bike Shop","opening_hours":"Mo 14:00-19:00; Tu-Fr 10:00-12:30,14:00-19:00; Sa 10:00-19:00","phone":"+33 1 39 51 93 63","website":"https://ze-bikeshop.com/","osm_id":1431661380}},{"type":"Feature","geometry":{"type":"Point","coordinates":[2.1524921,48.8048451]},"properties":{"category":"compressed_air","osm_id":1490240231}},{"type":"Feature","geometry":{"type":"Point","coordinates":[2.1497212,48.8186274]},"properties":{"category":"compressed_air","osm_id":1772927654}},{"type":"Feature","geometry":{"type":"Point","coordinates":[2.110555,48.8797263]},"properties":{"category":"shop","name":"La Boutique du Vélo","opening_hours":"Tu-Sa 10:00-19:00; Su,Mo closed","phone":"+33 1 39 17 37 88","website":"https://www.lbvelo.fr/","osm_id":1783493313}},{"type":"Feature","geometry":{"type":"Point","coordinates":[2.1917036,48.8120858]},"properties":{"category":"shop","name":"Cycles Ghidini","opening_hours":"Tu-Sa 08:00-12:30,14:30-18:30","phone":"+33 1 47 50 55 57","website":"https://www.cyclesghidini.fr/","osm_id":1798131777}},{"type":"Feature","geometry":{"type":"Point","coordinates":[2.1401311,48.8638905]},"properties":{"category":"shop","name":"Chricycles","opening_hours":"Tu-Fr 09:00-12:00, 14:00-19:00; Sa 09:00-12:00, 14:00-18:00","phone":"+33139691705","website":"https://gitanechricycles.site-solocal.com/","osm_id":2062178048}},{"type":"Feature","geometry":{"type":"Point","coordinates":[2.1626527,48.8009083]},"properties":{"category":"shop","name":"Vélocité","opening_hours":"Tu-Sa 09:00-12:00,14:00-18:00","phone":"+33 1 78 74 85 49","osm_id":2906194672}},{"type":"Feature","geometry":{"type":"Point","coordinates":[2.132366,48.805404]},"properties":{"category":"shop","name":"Pur Vélo","opening_hours":"Tu-Sa 15:00-19:00; Tu-Sa 10:00-13:00","phone":"+33 1 39 66 01 99","website":"http://www.purvelo.fr","osm_id":3663134225}},{"type":"Feature","geometry":{"type":"Point","coordinates":[2.1882866,48.8830054]},"properties":{"category":"shop","name":"Cyclable","opening_hours":"Tu-Sa 10:30-13:30,14:30-19:30","phone":"+33 9 50 13 66 17","website":"https://rueil-malmaison.cyclable.com/","osm_id":4951103499}},{"type":"Feature","geometry":{"type":"Point","coordinates":[2.1185073,48.8291902]},"properties":{"category":"shop","name":"Cyclable Parly 2","opening_hours":"Tu-Sa 10:00-13:30,14:30-19:00","phone":"+33 9 52 69 48 38","osm_id":5611338740}},{"type":"Feature","geometry":{"type":"Point","coordinates":[2.1318594,48.8006683]},"properties":{"category":"shop","name":"Vélomonde","opening_hours":"Tu-Sa 09:00-12:30, 14:00-19:00","phone":"+33 1 30 21 32 62","website":"https://velomonde.fr/","osm_id":5862186219}},{"type":"Feature","geometry":{"type":"Point","coordinates":[2.109246,48.8936407]},"properties":{"category":"repair","osm_id":6771378133}},{"type":"Feature","geometry":{"type":"Point","coordinates":[2.183524,48.8000242]},"properties":{"category":"shop","name":"La Boîte à Cycler","opening_hours":"\"Selon planification, annoncé sur le site de l'association.\"","website":"http://www.laboiteacycler.org/","osm_id":6817029352}},{"type":"Feature","geometry":{"type":"Point","coordinates":[2.1870659,48.8879315]},"properties":{"category":"compressed_air","osm_id":6820631512,"has_compressed_air":true}},{"type":"Feature","geometry":{"type":"Point","coordinates":[2.153374,48.8774664]},"properties":{"category":"repair","opening_hours":"24/7","osm_id":6856993297}},{"type":"Feature","geometry":{"type":"Point","coordinates":[2.1216748,48.8991506]},"properties":{"category":"repair","opening_hours":"24/7","osm_id":7021706717}},{"type":"Feature","geometry":{"type":"Point","coordinates":[2.1980171,48.8913819]},"properties":{"category":"repair","osm_id":7602103706}},{"type":"Feature","geometry":{"type":"Point","coordinates":[2.1707902,48.8012022]},"properties":{"category":"repair","opening_hours":"24/7","osm_id":7651478591}},{"type":"Feature","geometry":{"type":"Point","coordinates":[2.1676044,48.892453]},"properties":{"category":"repair","opening_hours":"24/7","osm_id":8769352173}},{"type":"Feature","geometry":{"type":"Point","coordinates":[2.155055,48.8854836]},"properties":{"category":"repair","opening_hours":"24/7","osm_id":8888031549}},{"type":"Feature","geometry":{"type":"Point","coordinates":[2.1441638,48.8049521]},"properties":{"category":"shop","name":"Le Cycle de Versailles","opening_hours":"Mo-Sa 10:00-19:00","phone":"+33 6 63 99 78 67","osm_id":8954069055}},{"type":"Feature","geometry":{"type":"Point","coordinates":[2.1603494,48.8808005]},"properties":{"category":"repair","opening_hours":"24/7","osm_id":9042023717}},{"type":"Feature","geometry":{"type":"Point","coordinates":[2.1643348,48.891732]},"properties":{"category":"compressed_air","osm_id":9709927505}},{"type":"Feature","geometry":{"type":"Point","coordinates":[2.1340738,48.8901525]},"properties":{"category":"repair","osm_id":9863537068}},{"type":"Feature","geometry":{"type":"Point","coordinates":[2.1341908,48.8097883]},"properties":{"category":"repair","opening_hours":"24/7","osm_id":10133738972}},{"type":"Feature","geometry":{"type":"Point","coordinates":[2.1325361,48.8044931]},"properties":{"category":"shop","name":"Happy Paput Vélos","opening_hours":"Tu-Sa 11:00-13:00,15:00-19:00","phone":"+33953615884","website":"https://happypaput.com/","osm_id":10225342829}},{"type":"Feature","geometry":{"type":"Point","coordinates":[2.1884324,48.8083685]},"properties":{"category":"compressed_air","osm_id":10584248004}},{"type":"Feature","geometry":{"type":"Point","coordinates":[2.1923639,48.8130105]},"properties":{"category":"compressed_air","osm_id":10586592310}},{"type":"Feature","geometry":{"type":"Point","coordinates":[2.1531849,48.8725704]},"properties":{"category":"repair","osm_id":10690430819}},{"type":"Feature","geometry":{"type":"Point","coordinates":[2.1969183,48.8618951]},"properties":{"category":"repair","osm_id":10690430820}},{"type":"Feature","geometry":{"type":"Point","coordinates":[2.1953908,48.8729912]},"properties":{"category":"repair","osm_id":10860389441}},{"type":"Feature","geometry":{"type":"Point","coordinates":[2.1372855,48.8263185]},"properties":{"category":"repair","osm_id":11338469952}},{"type":"Feature","geometry":{"type":"Point","coordinates":[2.1892507,48.8277341]},"properties":{"category":"shop","name":"Michel de Velo","opening_hours":"Tu-Fr 10:00-14:00,15:00-19:00; Sa 10:00-17:00; Su 10:00-13:00","phone":"+33 6 52 22 19 43","website":"https://www.micheldevelo.com/","osm_id":11905086405}},{"type":"Feature","geometry":{"type":"Point","coordinates":[2.1156152,48.8270054]},"properties":{"category":"repair","osm_id":12055637191}},{"type":"Feature","geometry":{"type":"Point","coordinates":[2.1963414,48.862006]},"properties":{"category":"repair","osm_id":12191239662}},{"type":"Feature","geometry":{"type":"Point","coordinates":[2.1884475,48.8083233]},"properties":{"category":"repair","osm_id":12873880189}},{"type":"Feature","geometry":{"type":"Point","coordinates":[2.1953437,48.8470798]},"properties":{"category":"shop","name":"Michel de Vélo","opening_hours":"Tu-Fr 10:00-14:00,15:00-19:00; Sa 10:00-18:00","phone":"+33 6 95 26 06 07","website":"https://www.micheldevelo.com","osm_id":12950055056}},{"type":"Feature","geometry":{"type":"Point","coordinates":[2.1533834,48.8728678]},"properties":{"category":"repair","osm_id":13072667454}},{"type":"Feature","geometry":{"type":"Point","coordinates":[2.1732651,48.8939499]},"properties":{"category":"repair","opening_hours":"24/7","osm_id":13698678317}},{"type":"Feature","geometry":{"type":"Point","coordinates":[2.1710997,48.861536]},"properties":{"category":"repair","osm_id":13702012793}},{"type":"Feature","geometry":{"type":"Point","coordinates":[2.1795731,48.8733277]},"properties":{"category":"repair","osm_id":13910340963}},{"type":"Feature","geometry":{"type":"Point","coordinates":[2.1721913,48.8867767]},"properties":{"category":"repair","osm_id":13910340969}},{"type":"Feature","geometry":{"type":"Point","coordinates":[2.117002,48.8283889]},"properties":{"category":"repair","osm_id":14104639166}}]}