{"type":"FeatureCollection","features":[{"type":"Feature","geometry":{"type":"Point","coordinates":[-1.5502686,48.8380095]},"properties":{"category":"compressed_air","osm_id":9939310561}},{"type":"Feature","geometry":{"type":"Point","coordinates":[-1.5876287,48.8381471]},"properties":{"category":"repair","osm_id":9953973519}},{"type":"Feature","geometry":{"type":"Point","coordinates":[-1.5676253,48.832783]},"properties":{"category":"repair","name":"point réparation vélo","opening_hours":"24/7","osm_id":10097906038}},{"type":"Feature","geometry":{"type":"Point","coordinates":[-1.5381002,48.8382826]},"properties":{"category":"shop","name":"Giant","opening_hours":"Tu-Fr 09:00-12:00,14:00-18:30; Sa 09:00-12:00,14:00-18:00","phone":"+332 33 69 72 06","website":"https://www.giant-granville.fr/fr","osm_id":10706742266}},{"type":"Feature","geometry":{"type":"Point","coordinates":[-1.5521847,48.8382633]},"properties":{"category":"shop","name":"Intersport Granville Yquelon","phone":"+33 2 33 49 67 11","osm_id":11274072907}},{"type":"Feature","geometry":{"type":"Point","coordinates":[-1.5720869,48.8147856]},"properties":{"category":"repair","osm_id":12744853393}},{"type":"Feature","geometry":{"type":"Point","coordinates":[-1.5816056,48.8534212]},"properties":{"category":"repair","osm_id":13002748726}},{"type":"Feature","geometry":{"type":"Point","coordinates":[-1.53804,48.8381275]},"properties":{"category":"shop","name":"Maximum Cycles","opening_hours":"Tu-Fr 09:00-12:00,14:00-18:30; Sa 09:00-12:00,14:00-18:00","phone":"+332 33 58 41 44","website":"https://maximum-cycles.com/","osm_id":13030179293}},{"type":"Feature","geometry":{"type":"Point","coordinates":[-1.5482924,48.813941]},"properties":{"category":"shop","name":"Cyclist","opening_hours":"Tu-Sa 09:00-19:00; Su,PH off","website":"https://www.cyclist-magasin.fr/","osm_id":13731058944}},{"type":"Feature","geometry":{"type":"Point","coordinates":[-1.5986129,48.8365817]},"properties":{"category":"shop","name":"Entrez Libre","osm_id":13753621121}},{"type":"Feature","geometry":{"type":"Point","coordinates":[-1.5875947,48.8381826]},"properties":{"category":"compressed_air","osm_id":13986087402}}]}