{"type":"FeatureCollection","features":[{"type":"Feature","geometry":{"type":"Point","coordinates":[1.4206646,48.8649702]},"properties":{"category":"bakery","osm_id":1619061440}},{"type":"Feature","geometry":{"type":"Point","coordinates":[1.4790733,48.8827785]},"properties":{"category":"bakery","name":"Boulangerie Pâtisserie Robin","osm_id":4045273683}},{"type":"Feature","geometry":{"type":"Point","coordinates":[1.4205688,48.8661686]},"properties":{"category":"bakery","name":"Froment et Cacao","osm_id":4466821984}},{"type":"Feature","geometry":{"type":"Point","coordinates":[1.4061542,48.8972901]},"properties":{"category":"bakery","name":"Maison Escriva","osm_id":7168657125}},{"type":"Feature","geometry":{"type":"Point","coordinates":[1.4260007,48.8589377]},"properties":{"category":"bakery","name":"Du pain pour Saussay","osm_id":7873065244}}]}