{"type":"FeatureCollection","features":[{"type":"Feature","geometry":{"type":"Point","coordinates":[-0.1901786,48.8925629]},"properties":{"category":"bakery","name":"Anaïs et Fabrice Lechevrel","osm_id":858536252}},{"type":"Feature","geometry":{"type":"Point","coordinates":[-0.1978539,48.8971575]},"properties":{"category":"bakery","name":"Boulangerie Jeanne","osm_id":859338239}},{"type":"Feature","geometry":{"type":"Point","coordinates":[-0.1982372,48.8975543]},"properties":{"category":"bakery","name":"Le Fournil de Guillaume","osm_id":859338244}},{"type":"Feature","geometry":{"type":"Point","coordinates":[-0.1989174,48.8970286]},"properties":{"category":"bakery","name":"Aux Armes de Falaise","phone":"+33 2 31 90 00 78","osm_id":1241914705}},{"type":"Feature","geometry":{"type":"Point","coordinates":[-0.199749,48.8978508]},"properties":{"category":"bakery","name":"Aux Délices de Falaise","osm_id":2109641781}},{"type":"Feature","geometry":{"type":"Point","coordinates":[-0.1955658,48.8894321]},"properties":{"category":"bakery","osm_id":3964052623}}]}