{"type":"FeatureCollection","features":[{"type":"Feature","geometry":{"type":"Point","coordinates":[7.3206382,48.8600289]},"properties":{"category":"bakery","name":"Boulangerie Chez Michel","phone":"+33 3 88 70 49 00","osm_id":7251561094}},{"type":"Feature","geometry":{"type":"Point","coordinates":[7.319416,48.856696]},"properties":{"category":"repair","osm_id":12323145098}},{"type":"Feature","geometry":{"type":"Point","coordinates":[7.3973432,48.8001637]},"properties":{"category":"repair","opening_hours":"24/7","osm_id":13254952972}}]}