{"type":"FeatureCollection","features":[{"type":"Feature","geometry":{"type":"Point","coordinates":[2.429013,48.8488852]},"properties":{"category":"shop","name":"Cycles du Château","opening_hours":"Tu-Fr 10:00-12:45,15:00-19:00; Sa 10:00-13:00,15:00-18:30","phone":"+33 1 48 51 66 20","osm_id":408503857}},{"type":"Feature","geometry":{"type":"Point","coordinates":[2.4879403,48.8036885]},"properties":{"category":"shop","name":"Giant","phone":"+33 1 55 97 09 25","website":"http://giant-saintmaur.com/","osm_id":456003840}},{"type":"Feature","geometry":{"type":"Point","coordinates":[2.4106265,48.8551953]},"properties":{"category":"shop","name":"Ecox","opening_hours":"Th-Sa 10:00-14:00, 15:00-19:30","phone":"+33 1 43 67 42 28","website":"https://www.ecox.fr/nos-magasins/paris-est","osm_id":1458502559}},{"type":"Feature","geometry":{"type":"Point","coordinates":[2.4379722,48.8483371]},"properties":{"category":"shop","name":"Ecox","opening_hours":"Tu-Sa 10:00-14:00,15:00-19:00","osm_id":1795669064}},{"type":"Feature","geometry":{"type":"Point","coordinates":[2.4286353,48.8463619]},"properties":{"category":"shop","name":"Le Triporteur","opening_hours":"Tu-Fr 10:00-19:00; Sa 10:00-18:00","website":"https://www.letriporteur.fr/vincennesberault/","osm_id":2211157055}},{"type":"Feature","geometry":{"type":"Point","coordinates":[2.4003383,48.8407011]},"properties":{"category":"shop","name":"Meb Velo","opening_hours":"Mo 14:30-19:00; Tu-Sa 10:00-13:00,14:30-19:00","phone":"+33 9 54 58 51 73","osm_id":2408672205}},{"type":"Feature","geometry":{"type":"Point","coordinates":[2.4352965,48.845671]},"properties":{"category":"shop","name":"Bobiclou - Vélo électrique","opening_hours":"Tu-Fr 10:00-13:00,15:00-19:00; Sa 10:00-19:00","phone":"+33 1 48 81 03 39","website":"https://www.bobiclou.fr/content/bo-biclou-vincennes","osm_id":2414859291}},{"type":"Feature","geometry":{"type":"Point","coordinates":[2.4352938,48.8457413]},"properties":{"category":"shop","name":"Daily Vélo","opening_hours":"Tu-Fr 09:30-19:00; Sa 10:00-19:00","osm_id":2414859295}},{"type":"Feature","geometry":{"type":"Point","coordinates":[2.479297,48.8362485]},"properties":{"category":"shop","name":"Addict Cycling","opening_hours":"Tu,We,Fr,Sa 10:00-13:00,14:00-19:00; Th 14:00-19:00","phone":"+33 148713500","website":"www.addict-cycling.com","osm_id":2466636417}},{"type":"Feature","geometry":{"type":"Point","coordinates":[2.401247,48.8146815]},"properties":{"category":"shop","name":"Cyclofficine d'Ivry","opening_hours":"Tu 19:00-22:00; Th,Sa 14:00-19:00; Sa[1] off","website":"https://cyclocoop.org/","osm_id":2639430689}},{"type":"Feature","geometry":{"type":"Point","coordinates":[2.4216908,48.8530768]},"properties":{"category":"shop","name":"Le Comptoir Bike Shop","opening_hours":"Tu-Fr 10:00-12:00,13:00-19:00; Sa 11:00-19:00","phone":"+33 9 51 10 50 57","website":"https://lecomptoirbikeshop.com/","osm_id":2670790926}},{"type":"Feature","geometry":{"type":"Point","coordinates":[2.4052908,48.8471493]},"properties":{"category":"shop","name":"Giant","opening_hours":"Tu-Fr 09:00-13:00,14:30-19:00; Th 09:00-13:00,14:30-17:30; Sa 10:00-13:00,14:30-18:30","phone":"+33143435105","website":"https://www.giant-paris12.com/","osm_id":3407822104}},{"type":"Feature","geometry":{"type":"Point","coordinates":[2.4637007,48.8479787]},"properties":{"category":"shop","name":"Atelier Fontenay Vélo","opening_hours":"We 17:00-19:00; Sa 14:00-17:00","phone":"+33 7 66 76 49 33","osm_id":3858804159}},{"type":"Feature","geometry":{"type":"Point","coordinates":[2.4412061,48.8052178]},"properties":{"category":"shop","name":"Cyclable","opening_hours":"Tu-Sa 10:00-13:30,14:30-19:00","phone":"+33153663926","website":"https://maisons-alfort.cyclable.com/","osm_id":4116168554}},{"type":"Feature","geometry":{"type":"Point","coordinates":[2.4110712,48.8715966]},"properties":{"category":"shop","name":"La Cyclofficine de Paris","opening_hours":"We 14:00-18:00; Sa 14:00-19:00","website":"https://cyclocoop.org/","osm_id":4268470281,"has_compressed_air":true}},{"type":"Feature","geometry":{"type":"Point","coordinates":[2.4217727,48.879377]},"properties":{"category":"shop","name":"Tous pour un vélo","phone":"+33 6 88 04 48 63","website":"https://touspourunvelo.business.site/","osm_id":4810300842}},{"type":"Feature","geometry":{"type":"Point","coordinates":[2.4187767,48.8952559]},"properties":{"category":"shop","name":"Bécanes d'Antoine","opening_hours":"Tu,We,Fr,Sa 10:00-19:00","phone":"+33 1 41 71 76 44","website":"https://www.facebook.com/pg/lesbecanesdantoine/","osm_id":5422185090}},{"type":"Feature","geometry":{"type":"Point","coordinates":[2.4673431,48.8160317]},"properties":{"category":"shop","name":"MT Vélo","phone":"+33 1 88 27 55 51","website":"https://mtvelo.com/","osm_id":5773418499}},{"type":"Feature","geometry":{"type":"Point","coordinates":[2.4220141,48.8459319]},"properties":{"category":"shop","name":"Cyclable","opening_hours":"Tu-Sa 10:00-19:00","website":"https://saint-mande.cyclable.com/","osm_id":6478301785}},{"type":"Feature","geometry":{"type":"Point","coordinates":[2.4604718,48.8707484]},"properties":{"category":"compressed_air","osm_id":7216150338}},{"type":"Feature","geometry":{"type":"Point","coordinates":[2.4657969,48.8185899]},"properties":{"category":"repair","opening_hours":"24/7","osm_id":7234405009}},{"type":"Feature","geometry":{"type":"Point","coordinates":[2.4080128,48.8845262]},"properties":{"category":"compressed_air","opening_hours":"24/7","osm_id":7266985202}},{"type":"Feature","geometry":{"type":"Point","coordinates":[2.4085237,48.8707133]},"properties":{"category":"compressed_air","opening_hours":"24/7","osm_id":7279137710}},{"type":"Feature","geometry":{"type":"Point","coordinates":[2.4668837,48.8525577]},"properties":{"category":"compressed_air","opening_hours":"24/7","osm_id":7469026619}},{"type":"Feature","geometry":{"type":"Point","coordinates":[2.4378621,48.8447692]},"properties":{"category":"repair","osm_id":7511826862}},{"type":"Feature","geometry":{"type":"Point","coordinates":[2.4178846,48.8187777]},"properties":{"category":"shop","name":"Latte Lié Vélo","opening_hours":"Mo-Sa 09:00-12:30,14:30-18:30","phone":"+33 9 53 55 75 40","osm_id":7612960278}},{"type":"Feature","geometry":{"type":"Point","coordinates":[2.4864412,48.8708891]},"properties":{"category":"repair","osm_id":7615910729}},{"type":"Feature","geometry":{"type":"Point","coordinates":[2.408952,48.8642141]},"properties":{"category":"compressed_air","opening_hours":"24/7","osm_id":7781458385}},{"type":"Feature","geometry":{"type":"Point","coordinates":[2.4938367,48.8014301]},"properties":{"category":"compressed_air","osm_id":7792101609}},{"type":"Feature","geometry":{"type":"Point","coordinates":[2.4046783,48.8446163]},"properties":{"category":"compressed_air","osm_id":8115023767}},{"type":"Feature","geometry":{"type":"Point","coordinates":[2.4480216,48.8661329]},"properties":{"category":"shop","name":"Le Batard/Cycles Léger","opening_hours":"Tu-Th 08:00-17:00","phone":"+33 1 42 87 99 65","website":"https://www.lebatard.com/","osm_id":8181773501}},{"type":"Feature","geometry":{"type":"Point","coordinates":[2.4067349,48.8956864]},"properties":{"category":"compressed_air","opening_hours":"24/7","osm_id":8210689891}},{"type":"Feature","geometry":{"type":"Point","coordinates":[2.4444384,48.8642712]},"properties":{"category":"repair","name":"OhCyclo","opening_hours":"We-Fr 17:00-20:00; Sa 14:00-18:00","website":"https://www.ohcyclo.org","osm_id":8240804534}},{"type":"Feature","geometry":{"type":"Point","coordinates":[2.4829698,48.8738137]},"properties":{"category":"compressed_air","osm_id":8290110731}},{"type":"Feature","geometry":{"type":"Point","coordinates":[2.4520951,48.8472176]},"properties":{"category":"compressed_air","opening_hours":"24/7","osm_id":8403211824}},{"type":"Feature","geometry":{"type":"Point","coordinates":[2.434218,48.8474472]},"properties":{"category":"repair","osm_id":8500517149}},{"type":"Feature","geometry":{"type":"Point","coordinates":[2.4358876,48.801511]},"properties":{"category":"compressed_air","osm_id":8505096731}},{"type":"Feature","geometry":{"type":"Point","coordinates":[2.4016998,48.8236896]},"properties":{"category":"compressed_air","osm_id":8505157413}},{"type":"Feature","geometry":{"type":"Point","coordinates":[2.4005067,48.8758415]},"properties":{"category":"shop","name":"Le Vélo de Belleville","website":"https://www.levelodebelleville.com/","osm_id":8702914100}},{"type":"Feature","geometry":{"type":"Point","coordinates":[2.4121184,48.8227472]},"properties":{"category":"shop","name":"Les Cyclistes Branchés Charenton","opening_hours":"Tu-Sa 10:00-19:00; Su,Mo off","phone":"+33 9 73 52 17 25","website":"https://www.les-cyclistes-branches.com","osm_id":8741502150}},{"type":"Feature","geometry":{"type":"Point","coordinates":[2.4646326,48.8436197]},"properties":{"category":"repair","opening_hours":"24/7","osm_id":9431863681}},{"type":"Feature","geometry":{"type":"Point","coordinates":[2.4160924,48.8193366]},"properties":{"category":"repair","osm_id":9550361153}},{"type":"Feature","geometry":{"type":"Point","coordinates":[2.4139546,48.8222459]},"properties":{"category":"repair","osm_id":9555709697}},{"type":"Feature","geometry":{"type":"Point","coordinates":[2.4111269,48.8184646]},"properties":{"category":"repair","osm_id":9566151250}},{"type":"Feature","geometry":{"type":"Point","coordinates":[2.4056926,48.8227675]},"properties":{"category":"repair","osm_id":9570769571}},{"type":"Feature","geometry":{"type":"Point","coordinates":[2.4072701,48.8167791]},"properties":{"category":"repair","osm_id":9575293030}},{"type":"Feature","geometry":{"type":"Point","coordinates":[2.4886913,48.853702]},"properties":{"category":"repair","osm_id":9587521513}},{"type":"Feature","geometry":{"type":"Point","coordinates":[2.481342,48.812811]},"properties":{"category":"repair","opening_hours":"24/7","osm_id":9592421318}},{"type":"Feature","geometry":{"type":"Point","coordinates":[2.4044441,48.8339909]},"properties":{"category":"shop","name":"Icicycle","opening_hours":"Tu-Sa 09:30-13:30,15:30-19:00","phone":"+33 6 66 33 22 85","website":"https://icicycle.com/","osm_id":9609175149}},{"type":"Feature","geometry":{"type":"Point","coordinates":[2.4643646,48.8630635]},"properties":{"category":"compressed_air","osm_id":9624483499}},{"type":"Feature","geometry":{"type":"Point","coordinates":[2.421305,48.8583616]},"properties":{"category":"shop","name":"Au vieux vélo","website":"https://auvieuxvelo.com/","osm_id":9634483641}},{"type":"Feature","geometry":{"type":"Point","coordinates":[2.4018785,48.8209058]},"properties":{"category":"shop","name":"Roues Libres","opening_hours":"week 01-53/2 Su 14:00-18:00","phone":"+33 1 84 23 29 37","website":"https://roues-libres-charenton.fr","osm_id":9654267843}},{"type":"Feature","geometry":{"type":"Point","coordinates":[2.4561854,48.8929047]},"properties":{"category":"shop","name":"Cycles Gitane","osm_id":9666084817}},{"type":"Feature","geometry":{"type":"Point","coordinates":[2.4812253,48.840411]},"properties":{"category":"shop","name":"Vélo94","opening_hours":"Tu-Fr 09:30-12:30,14:30-19:00; Sa 09:30-12:30,14:30-18:00","phone":"+33 9 77 00 71 41","website":"https://singlebikes.fr/","osm_id":9687777104}},{"type":"Feature","geometry":{"type":"Point","coordinates":[2.4163632,48.8791711]},"properties":{"category":"shop","name":"Cyclomécane","opening_hours":"Tu-Fr 09:30-12:30,14:30-18:45; Sa 09:30-12:30,14:00-17:00","website":"https://www.cyclomecane.fr/","osm_id":10688205678}},{"type":"Feature","geometry":{"type":"Point","coordinates":[2.4092362,48.8634783]},"properties":{"category":"shop","name":"Bike Restore","opening_hours":"Tu-Sa 10:00-19:00","phone":"+33 7 74 38 66 31","website":"https://www.bikerestore.fr/","osm_id":10761698307}},{"type":"Feature","geometry":{"type":"Point","coordinates":[2.4077208,48.8852311]},"properties":{"category":"shop","name":"Stolen Garage","opening_hours":"Tu-Sa 10:00-19:00","website":"https://www.stolengarage.cc/","osm_id":10840455465}},{"type":"Feature","geometry":{"type":"Point","coordinates":[2.4196818,48.8233541]},"properties":{"category":"repair","osm_id":11132738241}},{"type":"Feature","geometry":{"type":"Point","coordinates":[2.4847265,48.8536979]},"properties":{"category":"compressed_air","osm_id":11495538813}},{"type":"Feature","geometry":{"type":"Point","coordinates":[2.4036395,48.8595082]},"properties":{"category":"shop","name":"La Cyclofficine de Paris","opening_hours":"Tu 18:00-20:00; We,Sa 14:00-18:00","website":"https://www.cyclocoop.org/","osm_id":11572433655}},{"type":"Feature","geometry":{"type":"Point","coordinates":[2.4271166,48.8706718]},"properties":{"category":"shop","name":"La Sardine Bleue","opening_hours":"Sa 14:00-18:00 open \"Sous réserve de disponibilité des bénévoles\"","website":"https://lasardinebleue.org/","osm_id":11584843150}},{"type":"Feature","geometry":{"type":"Point","coordinates":[2.4682344,48.8530966]},"properties":{"category":"shop","name":"VMOPED","opening_hours":"Mo-Sa 09:30-12:30,14:00-19:00","phone":"+33 9 55 98 47 58","website":"https://vmoped.fr/","osm_id":11660250176}},{"type":"Feature","geometry":{"type":"Point","coordinates":[2.4400713,48.8477289]},"properties":{"category":"repair","osm_id":11715866838}},{"type":"Feature","geometry":{"type":"Point","coordinates":[2.4382215,48.8475805]},"properties":{"category":"repair","osm_id":11805154839}},{"type":"Feature","geometry":{"type":"Point","coordinates":[2.4031537,48.8547089]},"properties":{"category":"shop","name":"Cycles Marlow","opening_hours":"Mo-Fr 09:00-14:00,15:30-19:30","phone":"+33 7 67 38 70 70","osm_id":11930174670}},{"type":"Feature","geometry":{"type":"Point","coordinates":[2.402939,48.8898619]},"properties":{"category":"shop","name":"MK vélo","opening_hours":"Mo 12:00-19:00; Tu-Fr 10:30-20:00; Sa 12:00-17:00; PH off","phone":"+33 6 19 32 95 04","osm_id":11971549177}},{"type":"Feature","geometry":{"type":"Point","coordinates":[2.4205386,48.8462988]},"properties":{"category":"compressed_air","osm_id":12346601960}},{"type":"Feature","geometry":{"type":"Point","coordinates":[2.4043419,48.8133285]},"properties":{"category":"shop","name":"Le Bus Bleu","opening_hours":"Mar-Nov: We-Su 12:00-18:00","osm_id":12551280382}},{"type":"Feature","geometry":{"type":"Point","coordinates":[2.4865556,48.8151597]},"properties":{"category":"shop","name":"Cyclable","opening_hours":"Tu-Sa 10:00-13:30,14:30-19:00","phone":"+33 1 45 16 05 08","website":"https://champigny-sur-marne.cyclable.com/","osm_id":12660299376}},{"type":"Feature","geometry":{"type":"Point","coordinates":[2.4017902,48.8116431]},"properties":{"category":"compressed_air","osm_id":12677017349}},{"type":"Feature","geometry":{"type":"Point","coordinates":[2.4259146,48.8023694]},"properties":{"category":"repair","opening_hours":"24/7","osm_id":12809174452}},{"type":"Feature","geometry":{"type":"Point","coordinates":[2.4056111,48.8922968]},"properties":{"category":"shop","name":"Goldenbike","opening_hours":"Mo-Fr 10:00-13:00,14:00-19:00; Sa 10:00-12:30,13:30-18:30","phone":"+33 7 69 58 01 43","osm_id":12926361768}},{"type":"Feature","geometry":{"type":"Point","coordinates":[2.4447142,48.8567173]},"properties":{"category":"shop","name":"Line et Guido","opening_hours":"Mo-Fr 13:30-19:00","osm_id":13041050901}},{"type":"Feature","geometry":{"type":"Point","coordinates":[2.4354886,48.8497796]},"properties":{"category":"repair","opening_hours":"24/7","osm_id":13125435715}},{"type":"Feature","geometry":{"type":"Point","coordinates":[2.4698374,48.8711495]},"properties":{"category":"shop","name":"Cyclable Montreuil","opening_hours":"Tu-Sa 10:00-19:00","phone":"+33 1 41 50 66 61","osm_id":13230507729}},{"type":"Feature","geometry":{"type":"Point","coordinates":[2.4677304,48.8822679]},"properties":{"category":"repair","osm_id":13373875077}},{"type":"Feature","geometry":{"type":"Point","coordinates":[2.4283938,48.8462119]},"properties":{"category":"repair","osm_id":13686729359}},{"type":"Feature","geometry":{"type":"Point","coordinates":[2.4056403,48.8479392]},"properties":{"category":"shop","name":"IB Product","opening_hours":"Tu-Sa 10:30-19:00","website":"https://www.ibproduct.fr/","osm_id":13855747266}},{"type":"Feature","geometry":{"type":"Point","coordinates":[2.4356719,48.8829531]},"properties":{"category":"shop","name":"Station vélo","opening_hours":"Tu-Sa 09:00-19:00","osm_id":13980252248}}]}