{"type":"FeatureCollection","features":[{"type":"Feature","geometry":{"type":"Point","coordinates":[8.054442,48.8427255]},"properties":{"category":"bakery","name":"Boulangerie Pâtisserie Rieger","phone":"+33 388864138","osm_id":1947957166}},{"type":"Feature","geometry":{"type":"Point","coordinates":[8.038634,48.8264693]},"properties":{"category":"bakery","name":"Rieger Christophe","osm_id":2288357002}},{"type":"Feature","geometry":{"type":"Point","coordinates":[8.0841403,48.8588865]},"properties":{"category":"bakery","osm_id":5766718653}},{"type":"Feature","geometry":{"type":"Point","coordinates":[8.0332401,48.8293548]},"properties":{"category":"bakery","osm_id":9026379251}},{"type":"Feature","geometry":{"type":"Point","coordinates":[8.0095372,48.8129494]},"properties":{"category":"bakery","name":"Boulangerie Pâtisserie Mikaël Gramfort","phone":"+33388720141","osm_id":12994368817}},{"type":"Feature","geometry":{"type":"Point","coordinates":[8.0074555,48.8211822]},"properties":{"category":"bakery","name":"Boulangerie Aux Douceurs de Rountzenheim","osm_id":12994368818}}]}