{"type":"FeatureCollection","features":[{"type":"Feature","geometry":{"type":"Point","coordinates":[7.7833715,48.8133088]},"properties":{"category":"repair","opening_hours":"24/7","osm_id":9946406795}},{"type":"Feature","geometry":{"type":"Point","coordinates":[7.7948068,48.8211749]},"properties":{"category":"repair","name":"Station d'autoréparation vélos","opening_hours":"24/7","osm_id":9948341308}},{"type":"Feature","geometry":{"type":"Point","coordinates":[7.7959394,48.8193968]},"properties":{"category":"repair","osm_id":11829285049}}]}