{"type":"FeatureCollection","features":[{"type":"Feature","geometry":{"type":"Point","coordinates":[1.6806472,48.8922295]},"properties":{"category":"bakery","name":"Boulangerie Patisserie Lukas","opening_hours":"Mo,Tu,Th,Fr 06:45-13:30,15:15-19:15; Sa 07:00-12:30","phone":"+33 1 30 93 41 97","osm_id":8970943608}},{"type":"Feature","geometry":{"type":"Point","coordinates":[1.6367703,48.8227956]},"properties":{"category":"bakery","name":"Boulangerie PanCake","opening_hours":"Mo,Tu,Th,Fr 07:00-13:30, 15:30-19:30; Sa 07:00-19:30; Su,PH 07:30-13:00","osm_id":12616661405}}]}