{"type":"FeatureCollection","features":[{"type":"Feature","geometry":{"type":"Point","coordinates":[6.0422141,48.9031286]},"properties":{"category":"bakery","osm_id":1654385651}},{"type":"Feature","geometry":{"type":"Point","coordinates":[6.0589142,48.9051504]},"properties":{"category":"bakery","name":"Saveurs du Pont","opening_hours":"Tu-Fr 06:00-19:00; Sa 09:00-14:00; PH,Su 06:00-13:00","phone":"+33 3 83 81 26 94","osm_id":2522422651}},{"type":"Feature","geometry":{"type":"Point","coordinates":[6.021508,48.983241]},"properties":{"category":"bakery","name":"Boulangerie Patisserie","osm_id":4990819835}},{"type":"Feature","geometry":{"type":"Point","coordinates":[6.0622276,48.9025889]},"properties":{"category":"bakery","name":"Au bon pain","phone":"+33 3 72 75 00 55","osm_id":5755801686}},{"type":"Feature","geometry":{"type":"Point","coordinates":[6.02039,48.9857734]},"properties":{"category":"bakery","name":"Au blé d'or","opening_hours":"Mo-Sa 05:00-19:00; Tu off; Su 05:00-16:30","phone":"+33 3 83 81 71 27","website":"https://www.boulangerie-ble-dor.fr/","osm_id":6536405619}},{"type":"Feature","geometry":{"type":"Point","coordinates":[6.0526726,48.9020931]},"properties":{"category":"bakery","name":"L'Épi d'Or","opening_hours":"Th-Tu 03:00-19:30","phone":"+33 3 83 81 15 97","osm_id":7899770424}},{"type":"Feature","geometry":{"type":"Point","coordinates":[6.0525112,48.9021798]},"properties":{"category":"bakery","name":"Le Fournil de Nicolas","opening_hours":"We-Mo 06:00-19:30","osm_id":7899779527}},{"type":"Feature","geometry":{"type":"Point","coordinates":[6.0533235,48.9023656]},"properties":{"category":"bakery","name":"Ludovic Thirion","phone":"+33 3 83 83 29 96","osm_id":7899780869}},{"type":"Feature","geometry":{"type":"Point","coordinates":[6.0602005,48.9168548]},"properties":{"category":"bakery","name":"Ludovic Thirion","osm_id":13417769616}}]}