{"type":"FeatureCollection","features":[{"type":"Feature","geometry":{"type":"Point","coordinates":[3.1297824,48.9270093]},"properties":{"category":"bakery","name":"La Gourmandise","osm_id":3848603687}},{"type":"Feature","geometry":{"type":"Point","coordinates":[3.1299404,48.927411]},"properties":{"category":"bakery","name":"L'epi d'or de jouarre","osm_id":9671585617}},{"type":"Feature","geometry":{"type":"Point","coordinates":[3.188229,48.9719521]},"properties":{"category":"bakery","name":"Maison Ines","opening_hours":"Mo-Su 07:00-21:00","osm_id":13115153440}},{"type":"Feature","geometry":{"type":"Point","coordinates":[3.1258568,48.9508585]},"properties":{"category":"repair","osm_id":13265370053}}]}