{"type":"FeatureCollection","features":[{"type":"Feature","geometry":{"type":"Point","coordinates":[8.0250394,48.9390257]},"properties":{"category":"bakery","name":"La Minzbrueck","phone":"+33 3 88 94 71 75","osm_id":1348917830}},{"type":"Feature","geometry":{"type":"Point","coordinates":[8.0470272,48.90571]},"properties":{"category":"bakery","name":"Boulangerie Weiss","phone":"+33 3 88 86 50 94","osm_id":2055682334}},{"type":"Feature","geometry":{"type":"Point","coordinates":[8.0470469,48.9061537]},"properties":{"category":"shop","name":"L'Atelier du Cycle","phone":"+33 3 88 05 38 95","osm_id":6333239298}}]}