{"type":"FeatureCollection","features":[{"type":"Feature","geometry":{"type":"Point","coordinates":[2.921743,48.9572192]},"properties":{"category":"shop","name":"Bike'n'co","opening_hours":"Mo 14:00-19:00; Tu-Fr 09:00-12:30,15:00-19:30; Sa 10:00-19:00","phone":"+33 1 60 61 26 48","website":"https://www.bikenco.com/","osm_id":3296992462}},{"type":"Feature","geometry":{"type":"Point","coordinates":[2.9469017,48.9578678]},"properties":{"category":"bakery","name":"Boulangerie Les 3 Marches","osm_id":4857320096}},{"type":"Feature","geometry":{"type":"Point","coordinates":[2.9469145,48.9576241]},"properties":{"category":"bakery","name":"Au bon levain","opening_hours":"Tu-Su 06:30-21:00","phone":"+33 7 66 17 71 60","osm_id":10940641089}},{"type":"Feature","geometry":{"type":"Point","coordinates":[2.9106872,48.9521368]},"properties":{"category":"bakery","name":"Maison Aya","osm_id":14069860968}}]}