{"type":"FeatureCollection","features":[{"type":"Feature","geometry":{"type":"Point","coordinates":[2.5853,48.9447]},"properties":{"category":"bakery","name":"J.Y. Boullier","osm_id":494181788}},{"type":"Feature","geometry":{"type":"Point","coordinates":[2.5024813,48.9402517]},"properties":{"category":"bakery","osm_id":573789882}},{"type":"Feature","geometry":{"type":"Point","coordinates":[2.5690263,48.9428297]},"properties":{"category":"bakery","name":"Le Fournil de Vaujours","osm_id":608632462}},{"type":"Feature","geometry":{"type":"Point","coordinates":[2.5041874,48.9249894]},"properties":{"category":"bakery","osm_id":1251283835}},{"type":"Feature","geometry":{"type":"Point","coordinates":[2.5203876,48.9119748]},"properties":{"category":"bakery","osm_id":1447243004}},{"type":"Feature","geometry":{"type":"Point","coordinates":[2.5429035,48.966172]},"properties":{"category":"bakery","osm_id":1667931010}},{"type":"Feature","geometry":{"type":"Point","coordinates":[2.5425629,48.958789]},"properties":{"category":"bakery","osm_id":2270308367}},{"type":"Feature","geometry":{"type":"Point","coordinates":[2.5369096,48.9136643]},"properties":{"category":"bakery","name":"Aux mille saveurs","osm_id":2332366508}},{"type":"Feature","geometry":{"type":"Point","coordinates":[2.5642119,48.9460185]},"properties":{"category":"bakery","osm_id":3238927869}},{"type":"Feature","geometry":{"type":"Point","coordinates":[2.5655423,48.9452945]},"properties":{"category":"bakery","osm_id":3238927874}},{"type":"Feature","geometry":{"type":"Point","coordinates":[2.537732,48.9546784]},"properties":{"category":"bakery","osm_id":3238952555}},{"type":"Feature","geometry":{"type":"Point","coordinates":[2.5411928,48.9610795]},"properties":{"category":"bakery","osm_id":3238952558}},{"type":"Feature","geometry":{"type":"Point","coordinates":[2.5344551,48.9640134]},"properties":{"category":"bakery","osm_id":3238952559}},{"type":"Feature","geometry":{"type":"Point","coordinates":[2.5478301,48.9573611]},"properties":{"category":"bakery","osm_id":3239107581}},{"type":"Feature","geometry":{"type":"Point","coordinates":[2.560238,48.946246]},"properties":{"category":"bakery","name":"Le Toqueux","osm_id":3239184390}},{"type":"Feature","geometry":{"type":"Point","coordinates":[2.550096,48.9098006]},"properties":{"category":"bakery","osm_id":3876472935}},{"type":"Feature","geometry":{"type":"Point","coordinates":[2.5509264,48.9096467]},"properties":{"category":"bakery","name":"Lina pain d'or","osm_id":3876472943}},{"type":"Feature","geometry":{"type":"Point","coordinates":[2.549594,48.9117002]},"properties":{"category":"bakery","osm_id":3876555849}},{"type":"Feature","geometry":{"type":"Point","coordinates":[2.5780838,48.9151364]},"properties":{"category":"bakery","osm_id":3948194872}},{"type":"Feature","geometry":{"type":"Point","coordinates":[2.5626703,48.934242]},"properties":{"category":"bakery","name":"La mie du fournil","osm_id":3953839950}},{"type":"Feature","geometry":{"type":"Point","coordinates":[2.5704752,48.9350739]},"properties":{"category":"bakery","osm_id":3953850363}},{"type":"Feature","geometry":{"type":"Point","coordinates":[2.5742245,48.9417637]},"properties":{"category":"bakery","osm_id":3955928264}},{"type":"Feature","geometry":{"type":"Point","coordinates":[2.5113969,48.9017696]},"properties":{"category":"bakery","name":"Le Croustillant","osm_id":5212715927}},{"type":"Feature","geometry":{"type":"Point","coordinates":[2.5488019,48.9439207]},"properties":{"category":"bakery","name":"Boulangerie","osm_id":5798984612}},{"type":"Feature","geometry":{"type":"Point","coordinates":[2.5206564,48.9026388]},"properties":{"category":"bakery","osm_id":6141071227}},{"type":"Feature","geometry":{"type":"Point","coordinates":[2.5923097,48.9031634]},"properties":{"category":"bakery","name":"Boulangerie des Écoles","osm_id":6911735667}},{"type":"Feature","geometry":{"type":"Point","coordinates":[2.599028,48.9015629]},"properties":{"category":"bakery","osm_id":6911735668}},{"type":"Feature","geometry":{"type":"Point","coordinates":[2.5877817,48.9038422]},"properties":{"category":"bakery","name":"Point Chaud du Rond-Point","osm_id":7374901241}},{"type":"Feature","geometry":{"type":"Point","coordinates":[2.5295675,48.9378404]},"properties":{"category":"bakery","name":"La Gourmandise","osm_id":8832025945}},{"type":"Feature","geometry":{"type":"Point","coordinates":[2.5129473,48.9362433]},"properties":{"category":"bakery","name":"Le Fournil de Rougemont","osm_id":8938069723}},{"type":"Feature","geometry":{"type":"Point","coordinates":[2.5350001,48.935011]},"properties":{"category":"bakery","name":"La Baguette d'Or","osm_id":8938534233}},{"type":"Feature","geometry":{"type":"Point","coordinates":[2.5318958,48.9411744]},"properties":{"category":"bakery","name":"Au Pain doré","osm_id":9041136435}},{"type":"Feature","geometry":{"type":"Point","coordinates":[2.5270952,48.9387566]},"properties":{"category":"bakery","osm_id":9041136436}},{"type":"Feature","geometry":{"type":"Point","coordinates":[2.5365053,48.9332806]},"properties":{"category":"bakery","osm_id":9288390822}},{"type":"Feature","geometry":{"type":"Point","coordinates":[2.5049719,48.9046385]},"properties":{"category":"bakery","osm_id":9300296361}},{"type":"Feature","geometry":{"type":"Point","coordinates":[2.5047205,48.9041729]},"properties":{"category":"bakery","name":"Maison Dallier","osm_id":9300296364}},{"type":"Feature","geometry":{"type":"Point","coordinates":[2.505622,48.905331]},"properties":{"category":"bakery","name":"Le Pain d'Antan","osm_id":9686746232}},{"type":"Feature","geometry":{"type":"Point","coordinates":[2.5047261,48.9041687]},"properties":{"category":"bakery","name":"Maison Dallier","osm_id":9741413418}},{"type":"Feature","geometry":{"type":"Point","coordinates":[2.519218,48.9102361]},"properties":{"category":"bakery","name":"Au faim gourmet","osm_id":9741457517}},{"type":"Feature","geometry":{"type":"Point","coordinates":[2.5172263,48.9530676]},"properties":{"category":"bakery","osm_id":9799328216}},{"type":"Feature","geometry":{"type":"Point","coordinates":[2.5031835,48.9336411]},"properties":{"category":"bakery","osm_id":9970522020}},{"type":"Feature","geometry":{"type":"Point","coordinates":[2.5570638,48.9004015]},"properties":{"category":"bakery","name":"Maison M","osm_id":10002137224}},{"type":"Feature","geometry":{"type":"Point","coordinates":[2.5656707,48.9347223]},"properties":{"category":"bakery","name":"La fournée Valjovienne","osm_id":10199342338}},{"type":"Feature","geometry":{"type":"Point","coordinates":[2.5714017,48.9530689]},"properties":{"category":"repair","opening_hours":"24/7","osm_id":10765838378}},{"type":"Feature","geometry":{"type":"Point","coordinates":[2.5723688,48.9590142]},"properties":{"category":"bakery","osm_id":11537276789}},{"type":"Feature","geometry":{"type":"Point","coordinates":[2.5716179,48.9598592]},"properties":{"category":"bakery","name":"Boulangerie Pâtisserie Bouaziz","osm_id":11537276816}},{"type":"Feature","geometry":{"type":"Point","coordinates":[2.5978469,48.9587995]},"properties":{"category":"bakery","osm_id":11559520350}},{"type":"Feature","geometry":{"type":"Point","coordinates":[2.5903142,48.9554721]},"properties":{"category":"bakery","name":"La Reine des Blés","osm_id":11559520360}},{"type":"Feature","geometry":{"type":"Point","coordinates":[2.5849772,48.9621684]},"properties":{"category":"bakery","osm_id":11559520367}},{"type":"Feature","geometry":{"type":"Point","coordinates":[2.5693657,48.9504159]},"properties":{"category":"bakery","osm_id":11662465623}},{"type":"Feature","geometry":{"type":"Point","coordinates":[2.5681633,48.9495594]},"properties":{"category":"bakery","osm_id":11662465627}},{"type":"Feature","geometry":{"type":"Point","coordinates":[2.567844,48.9599131]},"properties":{"category":"bakery","name":"Boulangerie Report","osm_id":11687606159}},{"type":"Feature","geometry":{"type":"Point","coordinates":[2.5232331,48.9176259]},"properties":{"category":"bakery","name":"Vauban Maison Trillaud","opening_hours":"Mo-Sa 06:00-20:00; Su 06:00-19:00","phone":"+33143300476","website":"https://www.instagram.com/vaubanmaisontrillaud/","osm_id":12669677464}},{"type":"Feature","geometry":{"type":"Point","coordinates":[2.5717085,48.9016997]},"properties":{"category":"bakery","name":"Le Duc de Montfermeil","opening_hours":"Mo-Sa 06:30-20:00","osm_id":13110307957}},{"type":"Feature","geometry":{"type":"Point","coordinates":[2.5856073,48.9050098]},"properties":{"category":"bakery","name":"Maison Le Surfin","osm_id":13121871118}},{"type":"Feature","geometry":{"type":"Point","coordinates":[2.5700882,48.9431052]},"properties":{"category":"repair","osm_id":13556080683}}]}