{"type":"FeatureCollection","features":[{"type":"Feature","geometry":{"type":"Point","coordinates":[-0.2411453,48.9685866]},"properties":{"category":"bakery","name":"Aux Miches Dorées","phone":"+33 2 31 90 81 31","osm_id":2431014087}},{"type":"Feature","geometry":{"type":"Point","coordinates":[-0.2558452,48.9405694]},"properties":{"category":"bakery","osm_id":2446910982}},{"type":"Feature","geometry":{"type":"Point","coordinates":[-0.2428062,48.9714894]},"properties":{"category":"bakery","name":"Maison Ratel","phone":"+33 2 31 40 01 73","osm_id":10737169567}},{"type":"Feature","geometry":{"type":"Point","coordinates":[-0.2064925,48.9108438]},"properties":{"category":"shop","name":"Mondovélo","osm_id":10804807631}},{"type":"Feature","geometry":{"type":"Point","coordinates":[-0.2070049,48.908484]},"properties":{"category":"bakery","name":"Maison Radufe","opening_hours":"Mo-Sa 06:00-20:00","phone":"+33 2 31 40 04 34","osm_id":13169159297}}]}