{"type":"FeatureCollection","features":[{"type":"Feature","geometry":{"type":"Point","coordinates":[-1.5562136,48.9773202]},"properties":{"category":"shop","name":"Tous à Vélos","osm_id":9021162737}},{"type":"Feature","geometry":{"type":"Point","coordinates":[-1.5579457,48.9773836]},"properties":{"category":"shop","name":"Loc'Vélo Rosalie","osm_id":9026034486}},{"type":"Feature","geometry":{"type":"Point","coordinates":[-1.5333675,48.9321522]},"properties":{"category":"shop","name":"Vélos Emeraude","osm_id":9850746631}},{"type":"Feature","geometry":{"type":"Point","coordinates":[-1.5030246,48.9021479]},"properties":{"category":"compressed_air","osm_id":13474497097}}]}