{"type":"FeatureCollection","features":[{"type":"Feature","geometry":{"type":"Point","coordinates":[2.4441813,48.9126263]},"properties":{"category":"bakery","name":"aux délices de Bobigny","opening_hours":"Mo-Su 07:00-21:00","osm_id":765570061}},{"type":"Feature","geometry":{"type":"Point","coordinates":[2.4942203,48.9358142]},"properties":{"category":"bakery","name":"La gerbe de blé","osm_id":919869877}},{"type":"Feature","geometry":{"type":"Point","coordinates":[2.4934689,48.9326466]},"properties":{"category":"bakery","name":"La Maison du Pain","osm_id":919869916}},{"type":"Feature","geometry":{"type":"Point","coordinates":[2.4968919,48.9429931]},"properties":{"category":"bakery","osm_id":923269301}},{"type":"Feature","geometry":{"type":"Point","coordinates":[2.4969125,48.9418232]},"properties":{"category":"bakery","osm_id":925900495}},{"type":"Feature","geometry":{"type":"Point","coordinates":[2.4518909,48.9202044]},"properties":{"category":"bakery","osm_id":933859468}},{"type":"Feature","geometry":{"type":"Point","coordinates":[2.4914545,48.9286388]},"properties":{"category":"bakery","osm_id":988962925}},{"type":"Feature","geometry":{"type":"Point","coordinates":[2.4907557,48.9280595]},"properties":{"category":"bakery","name":"L'atelier des Artistes","opening_hours":"Mo,Th-Sa 07:00-20:00; Tu,We off; Su 07:00-19:30","osm_id":988962936}},{"type":"Feature","geometry":{"type":"Point","coordinates":[2.4954294,48.9284145]},"properties":{"category":"bakery","osm_id":1089280910}},{"type":"Feature","geometry":{"type":"Point","coordinates":[2.4941578,48.9312432]},"properties":{"category":"bakery","name":"Le Fournil de la Gare","osm_id":1089280951}},{"type":"Feature","geometry":{"type":"Point","coordinates":[2.49037,48.9274103]},"properties":{"category":"bakery","name":"François La Pâtisserie","opening_hours":"Tu-Sa 07:00-13:30,15:00-20:00; Su 07:00-13:30","phone":"+33 1 48 66 67 25","osm_id":1236523494}},{"type":"Feature","geometry":{"type":"Point","coordinates":[2.4980653,48.9285782]},"properties":{"category":"bakery","osm_id":1251283803}},{"type":"Feature","geometry":{"type":"Point","coordinates":[2.488526,48.937436]},"properties":{"category":"bakery","osm_id":1551495548}},{"type":"Feature","geometry":{"type":"Point","coordinates":[2.494623,48.9381076]},"properties":{"category":"bakery","osm_id":1551500893}},{"type":"Feature","geometry":{"type":"Point","coordinates":[2.410661,48.9204543]},"properties":{"category":"bakery","name":"Viennoiserie des 4 Routes","osm_id":1832603991}},{"type":"Feature","geometry":{"type":"Point","coordinates":[2.416996,48.9916701]},"properties":{"category":"bakery","name":"Au Bon Pain","opening_hours":"Mo-Sa 06:30-21:00","osm_id":1959458860}},{"type":"Feature","geometry":{"type":"Point","coordinates":[2.4194529,48.9873615]},"properties":{"category":"bakery","osm_id":1959502760}},{"type":"Feature","geometry":{"type":"Point","coordinates":[2.4193993,48.9862174]},"properties":{"category":"bakery","osm_id":1959504469}},{"type":"Feature","geometry":{"type":"Point","coordinates":[2.4591474,48.9371898]},"properties":{"category":"bakery","name":"Boulangerie du Centre","osm_id":2445765273}},{"type":"Feature","geometry":{"type":"Point","coordinates":[2.4602145,48.9382469]},"properties":{"category":"bakery","name":"Le Moulin À Pain","opening_hours":"Th-Tu 06:00-21:00","phone":"+33 1 49 47 56 21","osm_id":2580117270}},{"type":"Feature","geometry":{"type":"Point","coordinates":[2.4571943,48.9359085]},"properties":{"category":"bakery","osm_id":2580128043}},{"type":"Feature","geometry":{"type":"Point","coordinates":[2.4528277,48.9351177]},"properties":{"category":"bakery","osm_id":2580132810}},{"type":"Feature","geometry":{"type":"Point","coordinates":[2.4521788,48.9285166]},"properties":{"category":"bakery","name":"O Pains d'Or","osm_id":2580148039}},{"type":"Feature","geometry":{"type":"Point","coordinates":[2.4611948,48.9286472]},"properties":{"category":"bakery","name":"Thierry Cardet","osm_id":2581285901}},{"type":"Feature","geometry":{"type":"Point","coordinates":[2.4549721,48.9255844]},"properties":{"category":"bakery","osm_id":2581289209}},{"type":"Feature","geometry":{"type":"Point","coordinates":[2.4566042,48.9350239]},"properties":{"category":"bakery","osm_id":2585269418}},{"type":"Feature","geometry":{"type":"Point","coordinates":[2.4613195,48.9389107]},"properties":{"category":"bakery","name":"Le Mil' Feuille","opening_hours":"Mo-Sa 06:00-22:00","osm_id":2585312051}},{"type":"Feature","geometry":{"type":"Point","coordinates":[2.4565691,48.9093011]},"properties":{"category":"bakery","name":"La Ruche","opening_hours":"Mo-We 07:00-20:00;Fr-Sa 07:00-20:00;Su 07:00-15:00","phone":"+33 1 41 50 41 24","osm_id":2624240779}},{"type":"Feature","geometry":{"type":"Point","coordinates":[2.4487362,48.934921]},"properties":{"category":"bakery","osm_id":2659602488}},{"type":"Feature","geometry":{"type":"Point","coordinates":[2.4595902,48.9362632]},"properties":{"category":"bakery","name":"Véronique & Laurent","osm_id":2661528352}},{"type":"Feature","geometry":{"type":"Point","coordinates":[2.461635,48.9352337]},"properties":{"category":"bakery","osm_id":2661585396}},{"type":"Feature","geometry":{"type":"Point","coordinates":[2.4671607,48.9358478]},"properties":{"category":"bakery","osm_id":2661659341}},{"type":"Feature","geometry":{"type":"Point","coordinates":[2.4542192,48.9210751]},"properties":{"category":"bakery","osm_id":2677120021}},{"type":"Feature","geometry":{"type":"Point","coordinates":[2.452567,48.9202785]},"properties":{"category":"bakery","name":"Les Plaisirs du Pain","osm_id":2677145518}},{"type":"Feature","geometry":{"type":"Point","coordinates":[2.4559788,48.920705]},"properties":{"category":"bakery","osm_id":2677228876}},{"type":"Feature","geometry":{"type":"Point","coordinates":[2.4550293,48.9179484]},"properties":{"category":"bakery","name":"Les Délices du fournil","osm_id":2677278395}},{"type":"Feature","geometry":{"type":"Point","coordinates":[2.4756046,48.9166797]},"properties":{"category":"bakery","name":"La Boulange","opening_hours":"Mo-Sa 06:00-21:00; Su 07:00-21:00","osm_id":2682123984}},{"type":"Feature","geometry":{"type":"Point","coordinates":[2.4586797,48.916008]},"properties":{"category":"bakery","osm_id":2682272432}},{"type":"Feature","geometry":{"type":"Point","coordinates":[2.4593299,48.9198376]},"properties":{"category":"bakery","osm_id":2691262760}},{"type":"Feature","geometry":{"type":"Point","coordinates":[2.4509385,48.9197426]},"properties":{"category":"bakery","osm_id":2696613573}},{"type":"Feature","geometry":{"type":"Point","coordinates":[2.4481664,48.9181792]},"properties":{"category":"bakery","name":"Le Grillon","osm_id":2734146548}},{"type":"Feature","geometry":{"type":"Point","coordinates":[2.4451038,48.9169586]},"properties":{"category":"bakery","osm_id":2758420066}},{"type":"Feature","geometry":{"type":"Point","coordinates":[2.4440563,48.9164461]},"properties":{"category":"bakery","name":"Le Moulin à Pain","osm_id":2783231093}},{"type":"Feature","geometry":{"type":"Point","coordinates":[2.4513852,48.9125828]},"properties":{"category":"bakery","name":"La Brioche de Drancy","osm_id":2827296616}},{"type":"Feature","geometry":{"type":"Point","coordinates":[2.4439799,48.9051119]},"properties":{"category":"bakery","name":"Boulangerie Khichk","osm_id":2901820531}},{"type":"Feature","geometry":{"type":"Point","coordinates":[2.4463508,48.9233436]},"properties":{"category":"bakery","osm_id":2935533867}},{"type":"Feature","geometry":{"type":"Point","coordinates":[2.4418303,48.9247249]},"properties":{"category":"bakery","name":"Le Carnot","opening_hours":"Mo-Su 06:30-20:30","phone":"+33972873378","osm_id":2939295570}},{"type":"Feature","geometry":{"type":"Point","coordinates":[2.4363665,48.9247425]},"properties":{"category":"bakery","name":"Ziada","osm_id":2981304069}},{"type":"Feature","geometry":{"type":"Point","coordinates":[2.4332648,48.9218956]},"properties":{"category":"bakery","osm_id":2986465837}},{"type":"Feature","geometry":{"type":"Point","coordinates":[2.4404639,48.9207228]},"properties":{"category":"bakery","osm_id":2995725436}},{"type":"Feature","geometry":{"type":"Point","coordinates":[2.4362164,48.9282084]},"properties":{"category":"bakery","name":"L'histoire d'un Gâteau","osm_id":3057526338}},{"type":"Feature","geometry":{"type":"Point","coordinates":[2.433729,48.9292121]},"properties":{"category":"bakery","osm_id":3100405624}},{"type":"Feature","geometry":{"type":"Point","coordinates":[2.4310598,48.930222]},"properties":{"category":"bakery","name":"Les Délices de Drancy","osm_id":3100442966}},{"type":"Feature","geometry":{"type":"Point","coordinates":[2.4621229,48.9379422]},"properties":{"category":"bakery","name":"La Griotte","osm_id":3100454702}},{"type":"Feature","geometry":{"type":"Point","coordinates":[2.4402213,48.9283385]},"properties":{"category":"bakery","name":"Au Plaisir des Délices","osm_id":3190172123}},{"type":"Feature","geometry":{"type":"Point","coordinates":[2.4316108,48.9255058]},"properties":{"category":"bakery","osm_id":3212794514}},{"type":"Feature","geometry":{"type":"Point","coordinates":[2.4004188,48.9116454]},"properties":{"category":"bakery","name":"O' Grand Délice","osm_id":3671703035}},{"type":"Feature","geometry":{"type":"Point","coordinates":[2.4851557,48.9247263]},"properties":{"category":"bakery","name":"Boulangerie Pâtisserie","osm_id":3942621282}},{"type":"Feature","geometry":{"type":"Point","coordinates":[2.4785398,48.9005021]},"properties":{"category":"bakery","name":"Olivier Donnette","osm_id":4498061972}},{"type":"Feature","geometry":{"type":"Point","coordinates":[2.4766134,48.9004647]},"properties":{"category":"bakery","name":"Boulangerie de La Poste","opening_hours":"Th-Tu 07:00-13:00,15:00-20:00","osm_id":4498098894}},{"type":"Feature","geometry":{"type":"Point","coordinates":[2.4703625,48.9036935]},"properties":{"category":"bakery","name":"Cho'pain","opening_hours":"Mo-Su 04:00-00:00","osm_id":4537682946}},{"type":"Feature","geometry":{"type":"Point","coordinates":[2.4154436,48.9171385]},"properties":{"category":"bakery","name":"Boulangerie Louise","opening_hours":"Mo-Sa 07:30-20:00","phone":"+33 1 48 37 80 86","osm_id":4561670999}},{"type":"Feature","geometry":{"type":"Point","coordinates":[2.4258764,48.9351864]},"properties":{"category":"bakery","name":"Instants d'Envies","osm_id":4942420305}},{"type":"Feature","geometry":{"type":"Point","coordinates":[2.4273616,48.9438165]},"properties":{"category":"bakery","name":"Paul","osm_id":4949616691}},{"type":"Feature","geometry":{"type":"Point","coordinates":[2.448803,48.9863858]},"properties":{"category":"bakery","name":"Le Fournil de Gonesse","osm_id":5034174664}},{"type":"Feature","geometry":{"type":"Point","coordinates":[2.4769838,48.9288427]},"properties":{"category":"bakery","osm_id":5045845709}},{"type":"Feature","geometry":{"type":"Point","coordinates":[2.4762757,48.9189408]},"properties":{"category":"bakery","osm_id":5045845710}},{"type":"Feature","geometry":{"type":"Point","coordinates":[2.4798223,48.9178132]},"properties":{"category":"bakery","osm_id":5045845711}},{"type":"Feature","geometry":{"type":"Point","coordinates":[2.4823939,48.9025328]},"properties":{"category":"bakery","name":"La Tradition du Pain","osm_id":5078902634}},{"type":"Feature","geometry":{"type":"Point","coordinates":[2.4156216,48.9947882]},"properties":{"category":"bakery","osm_id":5122019993}},{"type":"Feature","geometry":{"type":"Point","coordinates":[2.4168541,48.9951085]},"properties":{"category":"bakery","name":"Ronde des Pains","osm_id":5122217452}},{"type":"Feature","geometry":{"type":"Point","coordinates":[2.4164499,48.9945291]},"properties":{"category":"bakery","osm_id":5122242345}},{"type":"Feature","geometry":{"type":"Point","coordinates":[2.427261,48.9359798]},"properties":{"category":"bakery","name":"La Parisienne","osm_id":5124939395}},{"type":"Feature","geometry":{"type":"Point","coordinates":[2.4291078,48.9379567]},"properties":{"category":"bakery","osm_id":5124939403}},{"type":"Feature","geometry":{"type":"Point","coordinates":[2.4155147,48.9939465]},"properties":{"category":"bakery","osm_id":5277752248}},{"type":"Feature","geometry":{"type":"Point","coordinates":[2.401341,48.971061]},"properties":{"category":"bakery","osm_id":5426871697}},{"type":"Feature","geometry":{"type":"Point","coordinates":[2.4003669,48.971218]},"properties":{"category":"bakery","osm_id":5426871698}},{"type":"Feature","geometry":{"type":"Point","coordinates":[2.4003232,48.9181704]},"properties":{"category":"bakery","name":"Aux Caprices","osm_id":5470514036}},{"type":"Feature","geometry":{"type":"Point","coordinates":[2.4459547,48.9465347]},"properties":{"category":"bakery","name":"Aux Mille Saveurs","osm_id":5561825292}},{"type":"Feature","geometry":{"type":"Point","coordinates":[2.4119443,48.9673997]},"properties":{"category":"bakery","osm_id":5569988209}},{"type":"Feature","geometry":{"type":"Point","coordinates":[2.41685,48.9548781]},"properties":{"category":"bakery","osm_id":5569988536}},{"type":"Feature","geometry":{"type":"Point","coordinates":[2.4161328,48.9539874]},"properties":{"category":"bakery","osm_id":5569988544}},{"type":"Feature","geometry":{"type":"Point","coordinates":[2.4161483,48.9538079]},"properties":{"category":"bakery","osm_id":5569988545}},{"type":"Feature","geometry":{"type":"Point","coordinates":[2.4154043,48.9278691]},"properties":{"category":"bakery","name":"Boulangerie Ange","opening_hours":"Mo-Sa 06:30-20:00; Su 08:00-16:00","phone":"+33 1 49 72 78 29","website":"https://www.boulangerie-ange.fr/stores/boulangerie-ange-la-courneuve/","osm_id":6486430507}},{"type":"Feature","geometry":{"type":"Point","coordinates":[2.4890225,48.9223011]},"properties":{"category":"bakery","name":"Le Bon Fournil","osm_id":7369101357}},{"type":"Feature","geometry":{"type":"Point","coordinates":[2.4960309,48.9504933]},"properties":{"category":"bakery","name":"Boulangerie de la Rose des Vents","osm_id":7375157086}},{"type":"Feature","geometry":{"type":"Point","coordinates":[2.4948273,48.9324197]},"properties":{"category":"bakery","name":"Boulangerie Pâtisserie F. Herbaut","opening_hours":"We-Mo 09:00-20:00","osm_id":7433949180}},{"type":"Feature","geometry":{"type":"Point","coordinates":[2.4125958,48.9143282]},"properties":{"category":"bakery","name":"La Croustillante","phone":"+33 6 50 64 18 14","osm_id":7588766216}},{"type":"Feature","geometry":{"type":"Point","coordinates":[2.4756831,48.956091]},"properties":{"category":"bakery","name":"Brioche Dorée","opening_hours":"Mo-Sa 08:30-20:00","phone":"+33 1 49 39 05 15","website":"https://www.briochedoree.fr/","osm_id":7643783185}},{"type":"Feature","geometry":{"type":"Point","coordinates":[2.4179024,48.9240344]},"properties":{"category":"bakery","name":"Boulangerie Haroun","osm_id":7707689315}},{"type":"Feature","geometry":{"type":"Point","coordinates":[2.4766298,48.9339753]},"properties":{"category":"bakery","name":"Le Moulin à Pain","opening_hours":"06:00-21:00","osm_id":9227044777}},{"type":"Feature","geometry":{"type":"Point","coordinates":[2.4374952,48.9091568]},"properties":{"category":"bakery","name":"L'atelier des Artisans","osm_id":9234802209}},{"type":"Feature","geometry":{"type":"Point","coordinates":[2.4436468,48.9822794]},"properties":{"category":"bakery","name":"Boulangerie Ange","opening_hours":"Mo-Sa 06:30-20:00; Su 07:30-20:00","phone":"+33 1 39 94 81 66","website":"https://www.boulangerie-ange.fr/stores/boulangerie-ange-gonesse/","osm_id":9327920519}},{"type":"Feature","geometry":{"type":"Point","coordinates":[2.4975225,48.9224951]},"properties":{"category":"bakery","osm_id":9470779584}},{"type":"Feature","geometry":{"type":"Point","coordinates":[2.4160393,48.9985222]},"properties":{"category":"bakery","name":"Tas Firin","osm_id":10537231684}},{"type":"Feature","geometry":{"type":"Point","coordinates":[2.4648768,48.9182798]},"properties":{"category":"bakery","name":"Boulangerie des Bois de Groslay","osm_id":11116013598}},{"type":"Feature","geometry":{"type":"Point","coordinates":[2.4562103,48.9008449]},"properties":{"category":"bakery","name":"Boulangerie Ange","opening_hours":"Mo-Sa 06:30-20:00; Su 08:00-20:00","phone":"+33 1 78 77 11 99","website":"https://www.boulangerie-ange.fr/stores/boulangerie-ange-noisy-le-sec/","osm_id":11339465929}},{"type":"Feature","geometry":{"type":"Point","coordinates":[2.450626,48.9267235]},"properties":{"category":"bakery","name":"L'instant Gourmand","osm_id":11460690641}},{"type":"Feature","geometry":{"type":"Point","coordinates":[2.463216,48.9027473]},"properties":{"category":"bakery","osm_id":11862711632}},{"type":"Feature","geometry":{"type":"Point","coordinates":[2.4681936,48.9123962]},"properties":{"category":"bakery","name":"Boulangerie Elba","osm_id":11893335113}},{"type":"Feature","geometry":{"type":"Point","coordinates":[2.4663234,48.9105841]},"properties":{"category":"bakery","name":"Boulangerie Nour","osm_id":11893386690}},{"type":"Feature","geometry":{"type":"Point","coordinates":[2.4221466,48.9193383]},"properties":{"category":"bakery","name":"Paul","phone":"+33 1 48 58 89 38","website":"https://www.paul.fr/stores/drancy","osm_id":12025552039}},{"type":"Feature","geometry":{"type":"Point","coordinates":[2.4714774,48.9401511]},"properties":{"category":"bakery","name":"Boulanger Pâtissier Artisan","opening_hours":"Tu-Sa 07:00-20:00; Su 07:00-14:00","osm_id":12413006701}},{"type":"Feature","geometry":{"type":"Point","coordinates":[2.4144338,48.9978468]},"properties":{"category":"bakery","name":"Ciçek Simit Sarayi","osm_id":12682341876}},{"type":"Feature","geometry":{"type":"Point","coordinates":[2.4260761,48.9964201]},"properties":{"category":"bakery","name":"Zarha","osm_id":12682371974}},{"type":"Feature","geometry":{"type":"Point","coordinates":[2.4608112,48.9068108]},"properties":{"category":"bakery","name":"Au Pain du Marquis","phone":"+33148497872","osm_id":13232569643}},{"type":"Feature","geometry":{"type":"Point","coordinates":[2.4437771,48.9067388]},"properties":{"category":"bakery","name":"À la Gourmandise","opening_hours":"Mo-Sa 07:00-21:00","osm_id":13243870974}},{"type":"Feature","geometry":{"type":"Point","coordinates":[2.4372021,48.9098622]},"properties":{"category":"bakery","osm_id":13256956593}},{"type":"Feature","geometry":{"type":"Point","coordinates":[2.4099117,48.9204132]},"properties":{"category":"bakery","name":"La Banette du Marché","osm_id":13275417537}},{"type":"Feature","geometry":{"type":"Point","coordinates":[2.415228,48.9253543]},"properties":{"category":"bakery","name":"Darna Pâtisserie","osm_id":13276428694}},{"type":"Feature","geometry":{"type":"Point","coordinates":[2.4108254,48.9212687]},"properties":{"category":"bakery","name":"Boulanger pâtissier","osm_id":13386232171}},{"type":"Feature","geometry":{"type":"Point","coordinates":[2.4654167,48.9001654]},"properties":{"category":"bakery","name":"L’Art du Pain","phone":"+33980471986","osm_id":13423442978}},{"type":"Feature","geometry":{"type":"Point","coordinates":[2.4300971,48.9396707]},"properties":{"category":"bakery","osm_id":13428802904}},{"type":"Feature","geometry":{"type":"Point","coordinates":[2.4106212,48.967427]},"properties":{"category":"bakery","osm_id":13628829001}},{"type":"Feature","geometry":{"type":"Point","coordinates":[2.424983,48.9326951]},"properties":{"category":"bakery","name":"instant d'envie","osm_id":13657597760}}]}