{"type":"FeatureCollection","features":[{"type":"Feature","geometry":{"type":"Point","coordinates":[7.0292663,48.9999471]},"properties":{"category":"bakery","osm_id":5086129580}},{"type":"Feature","geometry":{"type":"Point","coordinates":[7.0892321,48.9402581]},"properties":{"category":"bakery","name":"Aux Milles Douceurs","phone":"+33 3 88 00 16 61","osm_id":10939207197}},{"type":"Feature","geometry":{"type":"Point","coordinates":[7.0436629,48.9673112]},"properties":{"category":"bakery","osm_id":11129476102}},{"type":"Feature","geometry":{"type":"Point","coordinates":[7.0688023,48.9726415]},"properties":{"category":"compressed_air","osm_id":11901640692}},{"type":"Feature","geometry":{"type":"Point","coordinates":[7.0686474,48.9726551]},"properties":{"category":"compressed_air","osm_id":11901640694}}]}