{"type":"FeatureCollection","features":[{"type":"Feature","geometry":{"type":"Point","coordinates":[8.1774216,48.9743903]},"properties":{"category":"bakery","name":"Banette","osm_id":74156972}},{"type":"Feature","geometry":{"type":"Point","coordinates":[8.1118822,48.973304]},"properties":{"category":"bakery","osm_id":88989909}},{"type":"Feature","geometry":{"type":"Point","coordinates":[8.1080728,48.9725709]},"properties":{"category":"bakery","name":"Boulangerie Pâtisserie Sonntag","phone":"+33 3 88 94 30 93","osm_id":306273833}},{"type":"Feature","geometry":{"type":"Point","coordinates":[8.1804635,48.9751195]},"properties":{"category":"bakery","name":"Cultures Graines","opening_hours":"Mo-Fr 04:30-18:00; Sa 06:00-17:00; Su 07:00-12:00 \"Winter\"; Su 07:00-19:00 \"Summer\"","phone":"+33 3 88 54 62 31","osm_id":1317602504}},{"type":"Feature","geometry":{"type":"Point","coordinates":[8.1806827,48.9748616]},"properties":{"category":"bakery","name":"Cultures Graines","opening_hours":"Mo-Fr 04:30-18:00; Sa 06:00-17:00; Su 07:00-12:00 \"Winter\"; Su 07:00-19:00 \"Summer\"","phone":"+33 3 88 54 62 31","osm_id":1317602505}},{"type":"Feature","geometry":{"type":"Point","coordinates":[8.1505026,48.9329238]},"properties":{"category":"bakery","name":"Ellony","phone":"+33 388056385","osm_id":1469585345}}]}