{"type":"FeatureCollection","features":[{"type":"Feature","geometry":{"type":"Point","coordinates":[-0.8392012,48.9370037]},"properties":{"category":"bakery","name":"Aux Délices de Bény","opening_hours":"Tu-Sa 07:00-19:30; Su,PH 07:00-13:00; Mo off","phone":"+33 2 31 67 27 69","osm_id":339589135}},{"type":"Feature","geometry":{"type":"Point","coordinates":[-0.8387098,48.9370703]},"properties":{"category":"bakery","name":"Le Fournil de Lolita","opening_hours":"Mo-Tu,Th-Sa 06:30-19:15; Su 06:30-13:00; We off; PH unknown","osm_id":560075591}}]}