{"type":"FeatureCollection","features":[{"type":"Feature","geometry":{"type":"Point","coordinates":[2.7216067,48.9257311]},"properties":{"category":"shop","name":"Zelectrification","phone":"+33 7 69 33 03 19;+33 9 54 74 92 54","website":"https://zelectrification.com","osm_id":2705290486}},{"type":"Feature","geometry":{"type":"Point","coordinates":[2.7641562,48.9708387]},"properties":{"category":"bakery","osm_id":8071935452}},{"type":"Feature","geometry":{"type":"Point","coordinates":[2.742633,48.9402419]},"properties":{"category":"bakery","name":"Aux délices de J et S","opening_hours":"07:00-20:00","osm_id":13197686944}}]}