{"type":"FeatureCollection","features":[{"type":"Feature","geometry":{"type":"Point","coordinates":[7.9800201,48.9014749]},"properties":{"category":"bakery","name":"La Minzbrueck","opening_hours":"Mo-Fr 04:00-18:30; Sa 04:00-16:00; Sa 07:00-12:30","osm_id":1379318089}},{"type":"Feature","geometry":{"type":"Point","coordinates":[7.9392712,48.9533541]},"properties":{"category":"bakery","name":"Boulangerie Fischer","opening_hours":"Mo-Fr 05:00-12:30,15:00-18:30; Sa 06:00-12:30,14:00-17:00","phone":"+33 3 88 80 42 36","osm_id":2628258237}},{"type":"Feature","geometry":{"type":"Point","coordinates":[7.9523228,48.9030147]},"properties":{"category":"bakery","name":"L'Ami Ronan","opening_hours":"Mo off; Tu-Fr 05:00-18:30; Sa 05:30-16:00; Su 07:00-11:30","osm_id":12149368522}},{"type":"Feature","geometry":{"type":"Point","coordinates":[7.9890601,48.9698496]},"properties":{"category":"bakery","name":"Au Fournil de Seebach","phone":"+33 3 88 07 04 98","osm_id":13865096419}}]}