{"type":"FeatureCollection","features":[{"type":"Feature","geometry":{"type":"Point","coordinates":[-0.4816211,48.9165349]},"properties":{"category":"bakery","name":"Au Moulin de Clécy","phone":"+33 2 31 69 71 34","osm_id":2431294209}},{"type":"Feature","geometry":{"type":"Point","coordinates":[-0.4773183,48.9863573]},"properties":{"category":"bakery","name":"Au Pétrin de Maître Corbeaux","opening_hours":"Mo-Su 06:00-19:45; Th off","phone":"+33 2 31 73 76 54","osm_id":5843588233}},{"type":"Feature","geometry":{"type":"Point","coordinates":[-0.4718527,48.9813431]},"properties":{"category":"compressed_air","opening_hours":"24/7","osm_id":10168743185}},{"type":"Feature","geometry":{"type":"Point","coordinates":[-0.4819863,48.9891563]},"properties":{"category":"shop","name":"Ocoup2pompe","osm_id":13352757599}}]}