{"type":"FeatureCollection","features":[{"type":"Feature","geometry":{"type":"Point","coordinates":[1.2751751,48.9077848]},"properties":{"category":"bakery","name":"Les Délices de Saint André","phone":"+33232372156","osm_id":4032775897}},{"type":"Feature","geometry":{"type":"Point","coordinates":[1.2751751,48.9076983]},"properties":{"category":"bakery","name":"Pom' de Pain","phone":"+33232373152","osm_id":4032775910}},{"type":"Feature","geometry":{"type":"Point","coordinates":[1.274746,48.9067182]},"properties":{"category":"bakery","name":"La Croustillante","phone":"+33232372159","osm_id":4032776693}}]}