{"type":"FeatureCollection","features":[{"type":"Feature","geometry":{"type":"Point","coordinates":[-52.3260884,4.8484869]},"properties":{"category":"bakery","name":"Boulangerie de Makoupy","opening_hours":"Mo-Sa 06:00-19:30; Su 06:00-13:00","phone":"+594 594 35 65 75","osm_id":4403606203}},{"type":"Feature","geometry":{"type":"Point","coordinates":[-52.3307399,4.8501853]},"properties":{"category":"bakery","name":"Saveurs K'Nell","opening_hours":"Mo-Sa 06:00-12:00,16:00-19:00; Su 06:00-13:00","phone":"+594 594 39 01 56","website":"https://www.saveursknell.com","osm_id":5435535545}},{"type":"Feature","geometry":{"type":"Point","coordinates":[-52.3321001,4.8896753]},"properties":{"category":"bakery","name":"Victor Martin","opening_hours":"Mo-Sa 06:00-19:00","phone":"+594 594 20 24 96","osm_id":7114766922}},{"type":"Feature","geometry":{"type":"Point","coordinates":[-52.3329535,4.8550121]},"properties":{"category":"compressed_air","osm_id":7181894854}},{"type":"Feature","geometry":{"type":"Point","coordinates":[-52.3342176,4.875081]},"properties":{"category":"bakery","name":"Le Petit Goûter","opening_hours":"Tu-Fr 06:00-13:30,15:30-19:00; Sa,Su 06:00-13:00","osm_id":9606505084}},{"type":"Feature","geometry":{"type":"Point","coordinates":[-52.3193152,4.8695068]},"properties":{"category":"bakery","name":"Boulangerie de la Rhumerie","opening_hours":"Mo-Sa 06:00-13:00,15:30-18:30","phone":"+594 694 43 57 13","osm_id":9705782380}},{"type":"Feature","geometry":{"type":"Point","coordinates":[-52.3483005,4.8388288]},"properties":{"category":"bakery","name":"Boulanjri Gwiyanez","opening_hours":"Mo-Sa 05:30-14:00,16:00-19:00; Su 07:30-13:00,16:00-18:30","phone":"+594 594 38 38 28","osm_id":10247578547}},{"type":"Feature","geometry":{"type":"Point","coordinates":[-52.3320135,4.8929739]},"properties":{"category":"compressed_air","osm_id":10951839750}}]}