{"type":"FeatureCollection","features":[{"type":"Feature","geometry":{"type":"Point","coordinates":[1.6342845,49.0003938]},"properties":{"category":"bakery","osm_id":1460354163}},{"type":"Feature","geometry":{"type":"Point","coordinates":[1.6310243,49.0009997]},"properties":{"category":"bakery","osm_id":1460357366}},{"type":"Feature","geometry":{"type":"Point","coordinates":[1.6015548,49.0487602]},"properties":{"category":"bakery","osm_id":3378362242}},{"type":"Feature","geometry":{"type":"Point","coordinates":[1.6298276,49.0813167]},"properties":{"category":"bakery","name":"Quai des Pains","osm_id":4185263135}},{"type":"Feature","geometry":{"type":"Point","coordinates":[1.605809,49.0902738]},"properties":{"category":"bakery","name":"L'amie des Pains","opening_hours":"Tu-Fr 07:00-13:00,15:00-19:00; Sa 07:00-13:00,15:00-18:00; Su 07:00-12:30","osm_id":5837972990}},{"type":"Feature","geometry":{"type":"Point","coordinates":[1.6120618,49.013157]},"properties":{"category":"bakery","name":"La Ruche","opening_hours":"Mo-Su,PH 07:00-19:00","osm_id":7414644698}},{"type":"Feature","geometry":{"type":"Point","coordinates":[1.6948157,49.0152241]},"properties":{"category":"bakery","name":"L'Oustalet","osm_id":9484358655}}]}