{"type":"FeatureCollection","features":[{"type":"Feature","geometry":{"type":"Point","coordinates":[-0.3263043,49.0458611]},"properties":{"category":"bakery","name":"Boulangerie Béliarde","phone":"+33 2 31 80 95 66","osm_id":2430830413}},{"type":"Feature","geometry":{"type":"Point","coordinates":[-0.3262621,49.0448546]},"properties":{"category":"bakery","name":"Boulangerie de la Poste","phone":"+33 2 31 23 50 36","osm_id":2430830466}},{"type":"Feature","geometry":{"type":"Point","coordinates":[-0.3524919,49.0937509]},"properties":{"category":"bakery","name":"La Baguette de Sarrazin","phone":"+33 2 31 79 82 84","osm_id":10223102661}},{"type":"Feature","geometry":{"type":"Point","coordinates":[-0.3024985,49.0006132]},"properties":{"category":"bakery","name":"Boulangerie Pâtisserie Lesage","phone":"+33 2 31 40 81 78","osm_id":12109825190}}]}