{"type":"FeatureCollection","features":[{"type":"Feature","geometry":{"type":"Point","coordinates":[1.1741655,49.0229297]},"properties":{"category":"shop","name":"Le Maillon Fort","phone":"+33 9 71 47 49 91","website":"https://www.maillonfort.com/","osm_id":3966886481}},{"type":"Feature","geometry":{"type":"Point","coordinates":[1.1536794,49.0279601]},"properties":{"category":"repair","osm_id":11969404522}},{"type":"Feature","geometry":{"type":"Point","coordinates":[1.1511397,49.0189693]},"properties":{"category":"repair","osm_id":13326478658}},{"type":"Feature","geometry":{"type":"Point","coordinates":[1.147118,49.0018304]},"properties":{"category":"shop","name":"Adhérence","phone":"+332 32 40 43 45","osm_id":13801447990}}]}