{"type":"FeatureCollection","features":[{"type":"Feature","geometry":{"type":"Point","coordinates":[1.3871375,49.0137634]},"properties":{"category":"bakery","name":"Le pétrin de Pacy","osm_id":3064006798}},{"type":"Feature","geometry":{"type":"Point","coordinates":[1.3807337,49.0142707]},"properties":{"category":"bakery","name":"C.B","opening_hours":"Mo off; Tu-Sa 06:15-19:30; Su 06:30-13:30","phone":"+33 2 32 36 02 07","osm_id":3064102346}},{"type":"Feature","geometry":{"type":"Point","coordinates":[1.377637,49.0163417]},"properties":{"category":"bakery","name":"Aux blés d'or","osm_id":3064105068}},{"type":"Feature","geometry":{"type":"Point","coordinates":[1.3784471,49.013558]},"properties":{"category":"bakery","name":"Maison Lepenant","opening_hours":"Mo,We-Sa 07:30-19:30; Su 08:00-13:00","phone":"+33 2 32 36 01 13","website":"https://www.maisonlepenant.fr/","osm_id":3064111441}},{"type":"Feature","geometry":{"type":"Point","coordinates":[1.3935687,49.0111596]},"properties":{"category":"shop","name":"Cycle Cauchois Dufossé","opening_hours":"Tu-Fr 09:30-12:00, 14:00-19:00; Sa 09:30-12:00, 14:00-18:00","phone":"+332 32 36 93 12","website":"https://www.cyclescauchois.fr/","osm_id":9906558684}},{"type":"Feature","geometry":{"type":"Point","coordinates":[1.3678625,49.0331946]},"properties":{"category":"bakery","name":"L'As Gourmand – Délices d'Auguste","opening_hours":"Tu-Fr 07:00-13:00, 15:00-19:15; Sa 07:00-19:00; Su,PH 07:30-12:30; Mo closed","phone":"+33 2 32 36 03 21","osm_id":12000261795}}]}