{"type":"FeatureCollection","features":[{"type":"Feature","geometry":{"type":"Point","coordinates":[0.5939358,49.0886281]},"properties":{"category":"bakery","name":"Sourdon","phone":"+33 2 32 43 20 78","osm_id":1847419292}},{"type":"Feature","geometry":{"type":"Point","coordinates":[0.5957298,49.0894745]},"properties":{"category":"bakery","name":"Au coin des gourmets","opening_hours":"Mo,Tu,Th-Sa 07:00-19:30; Su 07:00-13:00","osm_id":1847423316}},{"type":"Feature","geometry":{"type":"Point","coordinates":[0.5980632,49.0909335]},"properties":{"category":"bakery","name":"Pain de Sucre","opening_hours":"Tu-Sa 06:30-19:30; Su 06:30-19:00","phone":"+33 2 49 88 42 57","website":"https://www.paindesucre-bernay.fr/","osm_id":3276159227}},{"type":"Feature","geometry":{"type":"Point","coordinates":[0.5290952,49.0091005]},"properties":{"category":"bakery","name":"Douceurs et Tradition","phone":"+33 2 27191587","osm_id":5003079929}},{"type":"Feature","geometry":{"type":"Point","coordinates":[0.5314663,49.0003649]},"properties":{"category":"bakery","name":"La Maison du Macaron","phone":"+33 2 32463033","website":"https://www.maison-du-macaron.fr/","osm_id":5003726678}},{"type":"Feature","geometry":{"type":"Point","coordinates":[0.5987954,49.0916055]},"properties":{"category":"bakery","name":"Au petit creux","osm_id":6726057167}}]}