{"type":"FeatureCollection","features":[{"type":"Feature","geometry":{"type":"Point","coordinates":[4.0050067,49.0533419]},"properties":{"category":"bakery","osm_id":2498396401}},{"type":"Feature","geometry":{"type":"Point","coordinates":[4.0390378,49.0452287]},"properties":{"category":"bakery","name":"ABoulangerie Au Baquet Champenois","opening_hours":"Mo-Fr 06:30-13:00,16:00-19:00; We off; Sa 07:00-13:00,16:00-19:00; Su 07:00-13:00","osm_id":3632214907}},{"type":"Feature","geometry":{"type":"Point","coordinates":[4.0875712,49.044596]},"properties":{"category":"bakery","name":"Le Fournil De Bisseul","osm_id":3999875702}},{"type":"Feature","geometry":{"type":"Point","coordinates":[4.0875031,49.0446362]},"properties":{"category":"bakery","name":"Le Fournil de Bisseuil","osm_id":3999876811}},{"type":"Feature","geometry":{"type":"Point","coordinates":[4.0046795,49.0537047]},"properties":{"category":"bakery","name":"Boulangerie Patrick Baillet","opening_hours":"We-Su 06:00-19:30","osm_id":5774895586}}]}