{"type":"FeatureCollection","features":[{"type":"Feature","geometry":{"type":"Point","coordinates":[-0.9646456,49.0436214]},"properties":{"category":"bakery","osm_id":1692189215}},{"type":"Feature","geometry":{"type":"Point","coordinates":[-0.9726344,49.0934986]},"properties":{"category":"bakery","name":"Boulangerie Patisserie snacking Chez Marc","opening_hours":"Tu-Su 07:00-19:30, Su 07:00-13:00","osm_id":12051797004}},{"type":"Feature","geometry":{"type":"Point","coordinates":[-0.9894155,49.0458493]},"properties":{"category":"compressed_air","osm_id":12803703821}}]}