{"type":"FeatureCollection","features":[{"type":"Feature","geometry":{"type":"Point","coordinates":[2.674983,49.0731378]},"properties":{"category":"bakery","osm_id":2318363819}},{"type":"Feature","geometry":{"type":"Point","coordinates":[2.6964979,49.0372621]},"properties":{"category":"bakery","osm_id":3039196295}},{"type":"Feature","geometry":{"type":"Point","coordinates":[2.663045,49.0463651]},"properties":{"category":"bakery","name":"Boulangerie La Fab'rik & Co","opening_hours":"Mo-Sa 07:00-20:00; Su off","phone":"+33164774785","osm_id":12383895942}},{"type":"Feature","geometry":{"type":"Point","coordinates":[2.6780437,49.0540216]},"properties":{"category":"bakery","name":"Le Fournil de Dammartin","opening_hours":"Mo off; Tu-Su 07:00-20:00","phone":"+33160031143","osm_id":12383986135}},{"type":"Feature","geometry":{"type":"Point","coordinates":[2.6756092,49.060758]},"properties":{"category":"bakery","name":"Au Petit Plaisir","opening_hours":"Th-Tu 07:00-22:30; We off","osm_id":12383992776}}]}