{"type":"FeatureCollection","features":[{"type":"Feature","geometry":{"type":"Point","coordinates":[-0.4014983,49.0798896]},"properties":{"category":"bakery","name":"Le Brasillé","phone":"+33 2 31 79 82 22","osm_id":635971436}},{"type":"Feature","geometry":{"type":"Point","coordinates":[-0.4934668,49.0765041]},"properties":{"category":"bakery","name":"L'Épi de St'Ho","phone":"+33 9 67 62 53 17","osm_id":2642486897}},{"type":"Feature","geometry":{"type":"Point","coordinates":[-0.416829,49.0404443]},"properties":{"category":"bakery","name":"Boulangerie Lebailly","phone":"+33 2 31 79 37 87","osm_id":10239858580}},{"type":"Feature","geometry":{"type":"Point","coordinates":[-0.4235446,49.085876]},"properties":{"category":"repair","osm_id":13900958125}}]}