{"type":"FeatureCollection","features":[{"type":"Feature","geometry":{"type":"Point","coordinates":[-1.4387831,49.054734]},"properties":{"category":"bakery","name":"Au Chant du Pain","opening_hours":"Mo-Sa 06:30-19:45","osm_id":1607715518}},{"type":"Feature","geometry":{"type":"Point","coordinates":[-1.4350639,49.0556562]},"properties":{"category":"bakery","name":"La Ruche","osm_id":1607715520}},{"type":"Feature","geometry":{"type":"Point","coordinates":[-1.4443488,49.0491257]},"properties":{"category":"bakery","name":"Les Douceurs de Coutances","opening_hours":"Mo,Th-Sa 07:00-19:00; Su 07:00-13:30","osm_id":1608007420}},{"type":"Feature","geometry":{"type":"Point","coordinates":[-1.4435504,49.0518734]},"properties":{"category":"bakery","name":"Hébert","osm_id":1608007476}},{"type":"Feature","geometry":{"type":"Point","coordinates":[-1.4436935,49.0465256]},"properties":{"category":"bakery","osm_id":2086044555}},{"type":"Feature","geometry":{"type":"Point","coordinates":[-1.4437147,49.0502089]},"properties":{"category":"bakery","name":"Bertrand Godefroy","osm_id":2086044622}},{"type":"Feature","geometry":{"type":"Point","coordinates":[-1.4465059,49.039366]},"properties":{"category":"bakery","name":"La Gourmandise","opening_hours":"Tu-Sa 06:15-19:30; Su 06:15-13:00","phone":"+33 2 33 45 08 23","osm_id":6439790064}},{"type":"Feature","geometry":{"type":"Point","coordinates":[-1.4211688,49.0679404]},"properties":{"category":"shop","name":"Cycles and Co","opening_hours":"Mo-Sa 09:00-12:00,14:00-19:00","osm_id":6558098128}},{"type":"Feature","geometry":{"type":"Point","coordinates":[-1.4217786,49.0679694]},"properties":{"category":"tube_vending","osm_id":6558098129}},{"type":"Feature","geometry":{"type":"Point","coordinates":[-1.4287186,49.0707802]},"properties":{"category":"shop","name":"Esprit Vélo","osm_id":11169602998}},{"type":"Feature","geometry":{"type":"Point","coordinates":[-1.4429594,49.0468949]},"properties":{"category":"bakery","name":"Au pain qui grimpe","opening_hours":"We-Fr 10:00-13:00,16:00-19:00; Mo 16:00-19:00","phone":"+33 2 50 69 03 17","osm_id":11443116546}},{"type":"Feature","geometry":{"type":"Point","coordinates":[-1.4416415,49.042838]},"properties":{"category":"shop","name":"Maison du velo","osm_id":12922535260}}]}