{"type":"FeatureCollection","features":[{"type":"Feature","geometry":{"type":"Point","coordinates":[3.8786625,49.0713344]},"properties":{"category":"bakery","name":"Boulangerie Pâtisserie","osm_id":7892867097}},{"type":"Feature","geometry":{"type":"Point","coordinates":[3.8413036,49.0826533]},"properties":{"category":"bakery","name":"Les Saveurs de Flo","opening_hours":"Tu-Fr 06:30-13:00,16:00-19:00; Sa,Su 06:30-13:00","phone":"+33 326584847","osm_id":11900291662}},{"type":"Feature","geometry":{"type":"Point","coordinates":[3.8679903,49.0124723]},"properties":{"category":"bakery","osm_id":14131540129}}]}