{"type":"FeatureCollection","features":[{"type":"Feature","geometry":{"type":"Point","coordinates":[6.112665,49.0786171]},"properties":{"category":"shop","name":"Véloland","opening_hours":"Mo 14:00-18:30; Tu-Fr 09:30-12:30,14:00-19:00; Sa 09:30-18:30","phone":"+33 3 87 56 12 47","website":"https://veloland-metz.com","osm_id":4729283490}},{"type":"Feature","geometry":{"type":"Point","coordinates":[6.1069467,49.078088]},"properties":{"category":"shop","name":"Loisi Bike","opening_hours":"Tu-Fr 09:30-12:30,14:00-19:00; Sa 09:00-12:30,14:00-18:30","website":"https://loisibike.fr/magasins/loisibike-metz/?magasin=loisibike-metz","osm_id":8082642707}},{"type":"Feature","geometry":{"type":"Point","coordinates":[6.1068682,49.0779745]},"properties":{"category":"tube_vending","name":"Continental","osm_id":8082642708}},{"type":"Feature","geometry":{"type":"Point","coordinates":[6.1133384,49.0310376]},"properties":{"category":"repair","osm_id":11209109925}},{"type":"Feature","geometry":{"type":"Point","coordinates":[6.110564,49.0833765]},"properties":{"category":"compressed_air","osm_id":12300367839}},{"type":"Feature","geometry":{"type":"Point","coordinates":[6.1569317,49.0937559]},"properties":{"category":"repair","osm_id":12709999332}},{"type":"Feature","geometry":{"type":"Point","coordinates":[6.1027436,49.0740799]},"properties":{"category":"shop","name":"Titanium Bike Store","opening_hours":"Mo-Sa 10:00-18:00","phone":"+33 3 87 38 29 38","website":"https://titaniumbikestore.com","osm_id":12893582377}},{"type":"Feature","geometry":{"type":"Point","coordinates":[6.145017,49.0797685]},"properties":{"category":"shop","name":"Atelier cycles","osm_id":13624582532}},{"type":"Feature","geometry":{"type":"Point","coordinates":[6.1508001,49.0863747]},"properties":{"category":"compressed_air","name":"Air Express","opening_hours":"24/7","osm_id":13829264924}}]}