{"type":"FeatureCollection","features":[{"type":"Feature","geometry":{"type":"Point","coordinates":[3.0199354,49.0248554]},"properties":{"category":"bakery","name":"L'épi d'or","osm_id":462266309}},{"type":"Feature","geometry":{"type":"Point","coordinates":[3.0756108,49.0905224]},"properties":{"category":"bakery","osm_id":3042263844}},{"type":"Feature","geometry":{"type":"Point","coordinates":[3.0130199,49.0295314]},"properties":{"category":"bakery","name":"Boulangerie du Pays de l'Ourcq","osm_id":9341249388}}]}