{"type":"FeatureCollection","features":[{"type":"Feature","geometry":{"type":"Point","coordinates":[1.5794152,49.0370566]},"properties":{"category":"bakery","name":"JC Tardy","osm_id":2915767386}},{"type":"Feature","geometry":{"type":"Point","coordinates":[1.5789926,49.0369666]},"properties":{"category":"bakery","name":"Ronde des Pains","phone":"+33130930292","osm_id":2915767388}},{"type":"Feature","geometry":{"type":"Point","coordinates":[1.5951166,49.0390493]},"properties":{"category":"bakery","osm_id":3378362236}},{"type":"Feature","geometry":{"type":"Point","coordinates":[1.5265423,49.0771011]},"properties":{"category":"bakery","name":"Au coin du Pain'tre Giverny","opening_hours":"We-Mo 08:00-19:00; Tu 08:00-12:00","osm_id":5979703385}},{"type":"Feature","geometry":{"type":"Point","coordinates":[1.547594,49.0603984]},"properties":{"category":"bakery","name":"La Mie d'Or","opening_hours":"Tu-Su 08:00-13:00","osm_id":7334212065}},{"type":"Feature","geometry":{"type":"Point","coordinates":[1.5747484,49.0425038]},"properties":{"category":"bakery","name":"La Mie d'Or","opening_hours":"Tu-Sa 06:30-20:00; Su 06:30-17:00","phone":"+33130930128","osm_id":7334220718}},{"type":"Feature","geometry":{"type":"Point","coordinates":[1.5933434,49.0399689]},"properties":{"category":"bakery","name":"Boulangerie LAMAISON","osm_id":7632184525}}]}