{"type":"FeatureCollection","features":[{"type":"Feature","geometry":{"type":"Point","coordinates":[2.8399638,49.1969217]},"properties":{"category":"bakery","name":"Boulangerie l'Amandine","opening_hours":"Mo-Tu,Th-Fr 06:30-13:30,16:00-19:00; We 06:00-13:30; Sa-Su 07:00-13:00","phone":"+33 6 87 78 24 31","osm_id":3563188909}},{"type":"Feature","geometry":{"type":"Point","coordinates":[2.8091604,49.1418483]},"properties":{"category":"bakery","name":"La Tradi Gourmande","opening_hours":"Mo,Su 07:00-13:00; Tu off; We-Sa 07:00-13:00,15:00-19:30","phone":"+33 3 44 39 40 89","osm_id":8846043417}},{"type":"Feature","geometry":{"type":"Point","coordinates":[2.8104786,49.1392907]},"properties":{"category":"bakery","name":"A l'Aube des Saveurs","opening_hours":"Mo-Tu,Th-Sa 07:00-13:00,15:30-19:30; Su 07:00-13:00; We off","phone":"+33 3 44 88 00 44","osm_id":8846043420}}]}