{"type":"FeatureCollection","features":[{"type":"Feature","geometry":{"type":"Point","coordinates":[2.2053337,49.1061777]},"properties":{"category":"shop","name":"Declic Cyclo","opening_hours":"Tu-Fr 09:30-12:30,14:30-19:00; Sa 09:30-18:00","phone":"+33983993688","osm_id":11903351611}},{"type":"Feature","geometry":{"type":"Point","coordinates":[2.2488981,49.1274261]},"properties":{"category":"shop","name":"Mondovélo","opening_hours":"Tu-Fr 10:00-12:00, 14:00-19:00; Sa 10:00-19:00","phone":"+33 9 75 94 56 31","website":"https://l-isle-adam.mondovelo.fr/","osm_id":12461681541}}]}