{"type":"FeatureCollection","features":[{"type":"Feature","geometry":{"type":"Point","coordinates":[-1.5958045,49.1678891]},"properties":{"category":"bakery","name":"Aux Gourmandises de Pépette","opening_hours":"Tu-Sa 07:00-13:00,15:30-19:00; Su 06:30-13:00","phone":"+33 2 33 07 57 13","osm_id":9043512452}},{"type":"Feature","geometry":{"type":"Point","coordinates":[-1.5582293,49.1313979]},"properties":{"category":"bakery","opening_hours":"Mo-Tu 08:00-13:00,15:00-19:00; Th-Sa 08:00-13:00,15:00-19:00; Su 08:00-13:00","phone":"+33 2 33 47 82 80","osm_id":9428571071}}]}