{"type":"FeatureCollection","features":[{"type":"Feature","geometry":{"type":"Point","coordinates":[6.6371916,49.1147925]},"properties":{"category":"bakery","name":"Boulangerie Hypolite","osm_id":4119170590}},{"type":"Feature","geometry":{"type":"Point","coordinates":[6.6988445,49.1095213]},"properties":{"category":"bakery","name":"Dosda","osm_id":4119186193}},{"type":"Feature","geometry":{"type":"Point","coordinates":[6.6450147,49.1176665]},"properties":{"category":"bakery","osm_id":4119414489}},{"type":"Feature","geometry":{"type":"Point","coordinates":[6.6611484,49.1325262]},"properties":{"category":"compressed_air","osm_id":13028011467}},{"type":"Feature","geometry":{"type":"Point","coordinates":[6.6539638,49.1578165]},"properties":{"category":"bakery","name":"Chez Eugène","osm_id":13288130219}}]}