{"type":"FeatureCollection","features":[{"type":"Feature","geometry":{"type":"Point","coordinates":[-0.6732318,49.1747775]},"properties":{"category":"bakery","name":"Boulangerie Boudeau","phone":"+33 2 31 80 86 29","osm_id":9509024364}},{"type":"Feature","geometry":{"type":"Point","coordinates":[-0.625349,49.1741866]},"properties":{"category":"bakery","name":"Mamie Madeleine","phone":"+33 2 31 23 16 85","osm_id":11591337094}},{"type":"Feature","geometry":{"type":"Point","coordinates":[-0.6265052,49.1755017]},"properties":{"category":"bakery","name":"Douceurs et Traditions","phone":"+33 2 31 80 82 91","osm_id":11591337095}}]}