{"type":"FeatureCollection","features":[{"type":"Feature","geometry":{"type":"Point","coordinates":[4.5312814,49.1306943]},"properties":{"category":"shop","name":"Cycles Colmart","osm_id":1376646045}},{"type":"Feature","geometry":{"type":"Point","coordinates":[4.5317695,49.1297195]},"properties":{"category":"bakery","osm_id":1376646064}},{"type":"Feature","geometry":{"type":"Point","coordinates":[4.5336702,49.1296376]},"properties":{"category":"bakery","name":"Maginot","osm_id":1376649986}},{"type":"Feature","geometry":{"type":"Point","coordinates":[4.5331262,49.1316514]},"properties":{"category":"bakery","name":"Weiss","phone":"+33326642118","osm_id":12565340293}}]}