{"type":"FeatureCollection","features":[{"type":"Feature","geometry":{"type":"Point","coordinates":[-1.093726,49.1126318]},"properties":{"category":"bakery","osm_id":442059505}},{"type":"Feature","geometry":{"type":"Point","coordinates":[-1.084622,49.1155037]},"properties":{"category":"bakery","name":"Maison Leboyer","osm_id":1192888261}},{"type":"Feature","geometry":{"type":"Point","coordinates":[-1.067344,49.1106539]},"properties":{"category":"bakery","name":"Boulangerie Artémia","opening_hours":"Su 07:30-13:00; We-Sa 07:30-13:30,15:00-19:00","phone":"+33 2 33 06 00 34","osm_id":1981162112}},{"type":"Feature","geometry":{"type":"Point","coordinates":[-1.0632649,49.1158459]},"properties":{"category":"bakery","osm_id":1990982531}},{"type":"Feature","geometry":{"type":"Point","coordinates":[-1.0741024,49.1104414]},"properties":{"category":"bakery","name":"Boulangerie Louise","opening_hours":"Mo-Sa 07:30-19:30","osm_id":3016302310}},{"type":"Feature","geometry":{"type":"Point","coordinates":[-1.0924024,49.1155871]},"properties":{"category":"bakery","name":"Thierry","osm_id":10557580864}},{"type":"Feature","geometry":{"type":"Point","coordinates":[-1.0492242,49.1119878]},"properties":{"category":"repair","opening_hours":"24/7","osm_id":12101919464}},{"type":"Feature","geometry":{"type":"Point","coordinates":[-1.0989319,49.1144378]},"properties":{"category":"bakery","name":"L'Épi des Remparts","opening_hours":"We-Su 07:00-19:30","osm_id":12297744878}},{"type":"Feature","geometry":{"type":"Point","coordinates":[-1.0919782,49.1158502]},"properties":{"category":"bakery","name":"Maison Leboyer","osm_id":12624194101}},{"type":"Feature","geometry":{"type":"Point","coordinates":[-1.0898763,49.1153466]},"properties":{"category":"bakery","name":"La Mie Câline","osm_id":12794640554}},{"type":"Feature","geometry":{"type":"Point","coordinates":[-1.0865639,49.1132628]},"properties":{"category":"bakery","name":"Aux saveurs de la Marne","osm_id":13882263390}},{"type":"Feature","geometry":{"type":"Point","coordinates":[-1.0932178,49.1142065]},"properties":{"category":"bakery","name":"Le Fournil Saint-Thomas","osm_id":13883581494}},{"type":"Feature","geometry":{"type":"Point","coordinates":[-1.0983333,49.1154867]},"properties":{"category":"repair","osm_id":13948577339}}]}