{"type":"FeatureCollection","features":[{"type":"Feature","geometry":{"type":"Point","coordinates":[-0.1861923,49.180039]},"properties":{"category":"bakery","name":"La Boulaga","opening_hours":"Mo-Fr 05:00-20:00; Sa 06:00-20:00","phone":"+33 2 31 38 96 46","osm_id":662190242}},{"type":"Feature","geometry":{"type":"Point","coordinates":[-0.16458,49.1264134]},"properties":{"category":"bakery","name":"Au Fournil de Benjamin","phone":"+33 9 80 74 15 17","osm_id":5501245209}},{"type":"Feature","geometry":{"type":"Point","coordinates":[-0.1639625,49.1254131]},"properties":{"category":"bakery","name":"La Talemière d'Argences","phone":"+33 2 31 23 61 10","osm_id":5501245437}},{"type":"Feature","geometry":{"type":"Point","coordinates":[-0.1649432,49.1163572]},"properties":{"category":"bakery","name":"Le Fournil de Cyril","opening_hours":"Mo-Tu 06:00-19:45; Th-Su 06:00-19:45","phone":"+33 2 31 23 66 94","website":"https://www.franceboulangerie.fr/boulangeries/boulangerie-le-fournil-de-cyril/","osm_id":5501485393}},{"type":"Feature","geometry":{"type":"Point","coordinates":[-0.1826583,49.1823301]},"properties":{"category":"bakery","name":"La Huche à Pain","opening_hours":"Mo, We-Su 06:00-19:30","osm_id":9066984498}},{"type":"Feature","geometry":{"type":"Point","coordinates":[-0.1830742,49.1806032]},"properties":{"category":"shop","name":"La Tête dans le Guidon","phone":"+33744951989","website":"https://latetedansleguidontroarn.fr/","osm_id":12030715191}},{"type":"Feature","geometry":{"type":"Point","coordinates":[-0.1865993,49.1113457]},"properties":{"category":"repair","opening_hours":"24/7","osm_id":13456124164}}]}