{"type":"FeatureCollection","features":[{"type":"Feature","geometry":{"type":"Point","coordinates":[5.4976002,49.1804267]},"properties":{"category":"bakery","osm_id":4809863133}},{"type":"Feature","geometry":{"type":"Point","coordinates":[5.4079213,49.148785]},"properties":{"category":"bakery","name":"Marie Blachère","opening_hours":"Mo-Sa 07:00-19:30","phone":"+33 3 29 85 41 23","website":"https://boulangeries.marieblachere.com/fr/france-FR/7069/marie-blachere-verdun/details","osm_id":8608520935}},{"type":"Feature","geometry":{"type":"Point","coordinates":[5.4223281,49.1267121]},"properties":{"category":"bakery","name":"Maison Lisambert","opening_hours":"Mo 06:30-13:00,16:00-19:00; Tu off; We-Fr 06:30-13:00,16:00-19:00; Sa,Su 07:00-13:00","osm_id":10678490400}}]}