{"type":"FeatureCollection","features":[{"type":"Feature","geometry":{"type":"Point","coordinates":[-0.4177806,49.1653116]},"properties":{"category":"bakery","name":"Boulangerie Tournerie","opening_hours":"Tu-Fr 08:30-13:15,15:00-19:30; Sa 07:00-13:15,15:00-19:30; Su 07:00-13:00; Mo off","phone":"+33 2 31 26 65 80","osm_id":4481532589}},{"type":"Feature","geometry":{"type":"Point","coordinates":[-0.4763017,49.1999604]},"properties":{"category":"bakery","name":"Intuition Gourmande","opening_hours":"Mo-Sa 07:00-19:30; Su 07:00-13:00","phone":"+33 2 31 26 53 07","osm_id":4713483745}},{"type":"Feature","geometry":{"type":"Point","coordinates":[-0.4510191,49.1555395]},"properties":{"category":"bakery","name":"Boulangerie de Jules","opening_hours":"Tu-Sa 06:30-19:30","phone":"+33 2 31 26 61 25","osm_id":5579930738}},{"type":"Feature","geometry":{"type":"Point","coordinates":[-0.4049011,49.1862317]},"properties":{"category":"bakery","name":"Mie Figue - Mie Raisin","opening_hours":"Mo 16:00-20:00; We 16:00-20:00; Fr 16:00-20:00","phone":"+33 6 95 22 97 71","osm_id":6165567517}},{"type":"Feature","geometry":{"type":"Point","coordinates":[-0.4217943,49.14041]},"properties":{"category":"bakery","name":"Boulangerie Clément","opening_hours":"Mo-Sa 06:00-20:00","phone":"+33 9 71 56 78 31","osm_id":8235491542}},{"type":"Feature","geometry":{"type":"Point","coordinates":[-0.4547943,49.1546523]},"properties":{"category":"bakery","name":"Le Fournil de Justin","opening_hours":"Mo,Tu,Fr,Sa 06:30-19:30, Sa 07:00-19:30, Su 07:00-13:00","phone":"+33 2 31 26 64 15","osm_id":8302845233}},{"type":"Feature","geometry":{"type":"Point","coordinates":[-0.4825373,49.1464443]},"properties":{"category":"bakery","name":"Maison Hays","opening_hours":"Mo-Fr 06:30-19:30; Sa 07:00-19:00, Su 07:00-13:00; We off","phone":"+33 2 31 39 98 36","osm_id":9944607851}},{"type":"Feature","geometry":{"type":"Point","coordinates":[-0.4406861,49.1920608]},"properties":{"category":"bakery","name":"Boulangerie Ange","osm_id":10887592099}},{"type":"Feature","geometry":{"type":"Point","coordinates":[-0.411644,49.1869252]},"properties":{"category":"bakery","name":"Boulangerie Louise","opening_hours":"Mo-Sa 07:30-19:30","phone":"+33 2 31 80 55 68","website":"https://www.boulangerielouise.com/boulangerie/boulangerie-louise-caen/","osm_id":12116890907}},{"type":"Feature","geometry":{"type":"Point","coordinates":[-0.4028768,49.1868943]},"properties":{"category":"bakery","name":"Pain et Malice","opening_hours":"Tu-Sa 06:30-19:30; Su 06:30-13:00","phone":"+33 2 31 73 35 03","osm_id":12223916024}},{"type":"Feature","geometry":{"type":"Point","coordinates":[-0.4002821,49.1607427]},"properties":{"category":"bakery","name":"Nicolas & Clément","opening_hours":"Tu-Sa 07:00-19:30; Su 07:00-12:30","phone":"+33 2 31 71 86 01","osm_id":12401784027}},{"type":"Feature","geometry":{"type":"Point","coordinates":[-0.4565126,49.1435979]},"properties":{"category":"bakery","name":"Clément Lucas","opening_hours":"Mo-Tu 07:00-19:30; Th-Sa 07:00-19:30; Su 07:00-13:00","phone":"+33 2 31 26 74 89","osm_id":13360764912}},{"type":"Feature","geometry":{"type":"Point","coordinates":[-0.4838403,49.1461229]},"properties":{"category":"repair","osm_id":13901206532}}]}