{"type":"FeatureCollection","features":[{"type":"Feature","geometry":{"type":"Point","coordinates":[-1.1667965,49.1273138]},"properties":{"category":"bakery","name":"boulangerie","osm_id":1868260723}},{"type":"Feature","geometry":{"type":"Point","coordinates":[-1.114672,49.1164694]},"properties":{"category":"bakery","osm_id":2126933100}},{"type":"Feature","geometry":{"type":"Point","coordinates":[-1.1740359,49.1047189]},"properties":{"category":"bakery","name":"Boulangerie Pâtisserie Housset","opening_hours":"We, Fr-Mo 06:00-19:30","phone":"+33 2 33 56 02 06","website":"https://www.facebook.com/Boulangeriepatisseriehousset/","osm_id":2967465655}},{"type":"Feature","geometry":{"type":"Point","coordinates":[-1.1081557,49.117973]},"properties":{"category":"bakery","name":"Au Fournil d'Agneaux","phone":"+33 2 33 57 14 63","osm_id":10706900639}},{"type":"Feature","geometry":{"type":"Point","coordinates":[-1.1332219,49.1112813]},"properties":{"category":"bakery","name":"L'encas","opening_hours":"Mo-Fr 07:00-19:00; Sa 08:00-18:00","phone":"+33 2 14 16 43 52","website":"https://www.facebook.com/EncasAgneauxSaintLo/?locale=fr_FR","osm_id":13631243301}},{"type":"Feature","geometry":{"type":"Point","coordinates":[-1.101512,49.1162975]},"properties":{"category":"bakery","osm_id":13885464391}}]}