{"type":"FeatureCollection","features":[{"type":"Feature","geometry":{"type":"Point","coordinates":[0.228586,49.1445533]},"properties":{"category":"shop","name":"Cycles F. Billette","opening_hours":"Tu 09:30-12:15,14:15-19:00; We 09:30-12:15,14:30-19:00; Th 09:30-12:15,14:15-19:00; Fr 09:30-12:15,14:15-19:00; Sa 09:30-12:15,14:15-18:30","phone":"+33 2 31 31 45 00","osm_id":1763175062}},{"type":"Feature","geometry":{"type":"Point","coordinates":[0.2269112,49.1410048]},"properties":{"category":"bakery","name":"Pains, Douceurs & Chocolats","osm_id":1763175092}},{"type":"Feature","geometry":{"type":"Point","coordinates":[0.2290212,49.1466516]},"properties":{"category":"bakery","osm_id":1763175191}},{"type":"Feature","geometry":{"type":"Point","coordinates":[0.2285847,49.1436136]},"properties":{"category":"bakery","name":"Maison Berthelot","opening_hours":"We-Mo 06:00-20:00","osm_id":1763178529}},{"type":"Feature","geometry":{"type":"Point","coordinates":[0.2219416,49.1448808]},"properties":{"category":"shop","name":"Cycles Evasion 14","osm_id":4060998559}},{"type":"Feature","geometry":{"type":"Point","coordinates":[0.2232399,49.1447318]},"properties":{"category":"bakery","name":"La Mascotte","osm_id":4060998587}},{"type":"Feature","geometry":{"type":"Point","coordinates":[0.2279178,49.1444188]},"properties":{"category":"bakery","name":"Le pétrin normand","osm_id":4138295406}},{"type":"Feature","geometry":{"type":"Point","coordinates":[0.2183291,49.1112589]},"properties":{"category":"bakery","name":"Les Douceurs de Saint-Martin","osm_id":4417577067}},{"type":"Feature","geometry":{"type":"Point","coordinates":[0.2665758,49.1446899]},"properties":{"category":"compressed_air","osm_id":5337505172}},{"type":"Feature","geometry":{"type":"Point","coordinates":[0.2216398,49.1446831]},"properties":{"category":"bakery","name":"Letellier","opening_hours":"Mo,Tu,Th-Su 06:00-19:00","osm_id":6840201605}},{"type":"Feature","geometry":{"type":"Point","coordinates":[0.2269288,49.1413867]},"properties":{"category":"bakery","name":"Au rendez-vous des saveurs","osm_id":10123255678}},{"type":"Feature","geometry":{"type":"Point","coordinates":[0.2276502,49.1453519]},"properties":{"category":"bakery","name":"Maison Barbet","website":"https://www.recreationsucree.com/","osm_id":11543414924}},{"type":"Feature","geometry":{"type":"Point","coordinates":[0.2177316,49.1432559]},"properties":{"category":"bakery","name":"Aux Délices D'Athénaïs","osm_id":12180011126}},{"type":"Feature","geometry":{"type":"Point","coordinates":[0.2539364,49.1436229]},"properties":{"category":"bakery","name":"Saveurs et Gourmandises de Pierre","osm_id":12896732486}},{"type":"Feature","geometry":{"type":"Point","coordinates":[0.2531907,49.1501647]},"properties":{"category":"bakery","name":"Boulangerie Louise","osm_id":12992489576}},{"type":"Feature","geometry":{"type":"Point","coordinates":[0.2263111,49.1450443]},"properties":{"category":"bakery","name":"Fournil de Lisieux","osm_id":13062346905}},{"type":"Feature","geometry":{"type":"Point","coordinates":[0.2245816,49.1457333]},"properties":{"category":"bakery","name":"La Mie Câline","osm_id":13347624739}},{"type":"Feature","geometry":{"type":"Point","coordinates":[0.2282109,49.146076]},"properties":{"category":"bakery","osm_id":13355429740}},{"type":"Feature","geometry":{"type":"Point","coordinates":[0.2277951,49.1540506]},"properties":{"category":"bakery","name":"Boulangerie Le Lay","opening_hours":"Mo,Tu,We,Fr,Sa-Su 06:00-13:30,15:00-19:30","osm_id":13482421273}}]}