{"type":"FeatureCollection","features":[{"type":"Feature","geometry":{"type":"Point","coordinates":[5.0845565,49.145224]},"properties":{"category":"bakery","name":"Boulangerie Pâtisserie d'Aubréville","osm_id":3370812777}},{"type":"Feature","geometry":{"type":"Point","coordinates":[5.0676316,49.104174]},"properties":{"category":"bakery","name":"La P'tite Pause de Clermont","osm_id":7861177792}},{"type":"Feature","geometry":{"type":"Point","coordinates":[5.0705404,49.1053113]},"properties":{"category":"bakery","name":"Boulangerie Pâtisserie","osm_id":7861178086}}]}