{"type":"FeatureCollection","features":[{"type":"Feature","geometry":{"type":"Point","coordinates":[-0.3569981,49.1835008]},"properties":{"category":"shop","name":"Citibike","opening_hours":"Tu-Sa 10:00-13:00, 14:00-19:00","phone":"+33 9 52 31 20 14","website":"https://www.citibike.fr/fr/magasin/6","osm_id":3735654226}},{"type":"Feature","geometry":{"type":"Point","coordinates":[-0.357591,49.1834296]},"properties":{"category":"shop","name":"E-Bike","opening_hours":"Mo 14:00-19:00; Tu-Sa 10:00-13:00,14:00-19:00","phone":"+33 2 31 47 53 13","website":"https://e-bikecaen.fr/","osm_id":3737489725}},{"type":"Feature","geometry":{"type":"Point","coordinates":[-0.3560981,49.1773106]},"properties":{"category":"shop","name":"Cyclable","opening_hours":"Tu-Sa 10:00-12:30,14:00-19:00","phone":"+33 2 31833415","osm_id":5132655692}},{"type":"Feature","geometry":{"type":"Point","coordinates":[-0.3535654,49.1744356]},"properties":{"category":"shop","name":"Les 3 Roux","opening_hours":"Mo-Fr 09:00-13:00, 14:00-18:30; Sa 09:00-13:00","phone":"+33 6 76146925","osm_id":6428025118}},{"type":"Feature","geometry":{"type":"Point","coordinates":[-0.3565508,49.179698]},"properties":{"category":"shop","name":"Electro Bike","phone":"+33 2 31 24 38 59","website":"https://electrobike-caen.fr/","osm_id":7475506045}},{"type":"Feature","geometry":{"type":"Point","coordinates":[-0.3781283,49.1830115]},"properties":{"category":"shop","name":"Rose Cambouis","opening_hours":"Mo,Su off; Tu 13:30-20:00; We-Th,Sa 10:00-12:30,13:30-18:00; Fr 10:00-12:30,13:30-19:00","phone":"+33 6 51 20 20 96","osm_id":9965494158}},{"type":"Feature","geometry":{"type":"Point","coordinates":[-0.3654992,49.113013]},"properties":{"category":"shop","name":"Réparation Vélos Toutes Marques","phone":"+33 6 25 09 77 42","website":"https://www.reparation-velo-toutes-marques.fr","osm_id":10223361401}},{"type":"Feature","geometry":{"type":"Point","coordinates":[-0.3737931,49.1473553]},"properties":{"category":"shop","name":"Specialized","opening_hours":"Tu-Fr 09:30-12:00,14:00-19:00; Sa 09:30-12:00,14:00-18:00","phone":"+33 9 73 58 82 11","website":"https://www.normandie-cycles.fr/","osm_id":10772679097}},{"type":"Feature","geometry":{"type":"Point","coordinates":[-0.3688185,49.1396845]},"properties":{"category":"shop","name":"Giant Caen","phone":"+332 31 34 45 36","website":"https://www.velocity.fr/","osm_id":10772679098}},{"type":"Feature","geometry":{"type":"Point","coordinates":[-0.3845625,49.1723279]},"properties":{"category":"repair","opening_hours":"24/7","osm_id":11472364271}},{"type":"Feature","geometry":{"type":"Point","coordinates":[-0.3754058,49.1914353]},"properties":{"category":"repair","opening_hours":"24/7","osm_id":11506325114}},{"type":"Feature","geometry":{"type":"Point","coordinates":[-0.3652119,49.168063]},"properties":{"category":"repair","opening_hours":"24/7","osm_id":11524374883}},{"type":"Feature","geometry":{"type":"Point","coordinates":[-0.3619707,49.1908901]},"properties":{"category":"repair","opening_hours":"24/7","osm_id":11576343056}},{"type":"Feature","geometry":{"type":"Point","coordinates":[-0.3642777,49.1933767]},"properties":{"category":"repair","opening_hours":"24/7","osm_id":11576343057}},{"type":"Feature","geometry":{"type":"Point","coordinates":[-0.3651639,49.1948671]},"properties":{"category":"repair","opening_hours":"24/7","osm_id":11576343058}},{"type":"Feature","geometry":{"type":"Point","coordinates":[-0.349801,49.1798039]},"properties":{"category":"repair","opening_hours":"24/7","osm_id":11576363540}},{"type":"Feature","geometry":{"type":"Point","coordinates":[-0.3574282,49.179126]},"properties":{"category":"shop","name":"Guibolles","opening_hours":"Mo,Th 09:00-13:00,14:00-18:00; Tu,We,Fr 10:00-13:00,14:00-18:00; Sa 11:00-13:00,14:00-18:00","phone":"+33 2 59 16 06 39","website":"https://www.guibolles.fr/","osm_id":11645245076}},{"type":"Feature","geometry":{"type":"Point","coordinates":[-0.3489618,49.1760532]},"properties":{"category":"shop","name":"Maison du Vélo de Caen","opening_hours":"Tu,Fr,Sa 10:00-12:30,15:00-18:00; We 10:00-12:30; PH off","osm_id":11649257759}},{"type":"Feature","geometry":{"type":"Point","coordinates":[-0.3484604,49.1776037]},"properties":{"category":"repair","opening_hours":"24/7","osm_id":11728140243}},{"type":"Feature","geometry":{"type":"Point","coordinates":[-0.3840961,49.170829]},"properties":{"category":"repair","opening_hours":"24/7","osm_id":11740736732}},{"type":"Feature","geometry":{"type":"Point","coordinates":[-0.3661883,49.1717151]},"properties":{"category":"repair","opening_hours":"24/7","osm_id":11927631667}},{"type":"Feature","geometry":{"type":"Point","coordinates":[-0.3489991,49.1759998]},"properties":{"category":"repair","osm_id":12070280784}},{"type":"Feature","geometry":{"type":"Point","coordinates":[-0.3540691,49.176873]},"properties":{"category":"shop","name":"Planet Eco Mobility","opening_hours":"Tu-Sa 10:00-12:30,13:30-19:00","phone":"+33 2 31 57 69 01","website":"https://www.planetecomobility.com/","osm_id":12094643569}},{"type":"Feature","geometry":{"type":"Point","coordinates":[-0.3209436,49.1739313]},"properties":{"category":"shop","name":"Cycle Soca","phone":"+33 7 82 42 70 08","website":"https://www.cycles-soca.fr","osm_id":12558442209}},{"type":"Feature","geometry":{"type":"Point","coordinates":[-0.3646488,49.1591287]},"properties":{"category":"shop","name":"Rustine et Compagnie","phone":"+33 6 61 80 12 93","osm_id":12582219605}},{"type":"Feature","geometry":{"type":"Point","coordinates":[-0.326378,49.1729195]},"properties":{"category":"compressed_air","osm_id":12883518351}},{"type":"Feature","geometry":{"type":"Point","coordinates":[-0.3823113,49.186238]},"properties":{"category":"compressed_air","osm_id":13366609293}},{"type":"Feature","geometry":{"type":"Point","coordinates":[-0.3868988,49.143998]},"properties":{"category":"repair","opening_hours":"24/7","osm_id":13603543006}},{"type":"Feature","geometry":{"type":"Point","coordinates":[-0.3607417,49.1800472]},"properties":{"category":"repair","osm_id":13723190101}},{"type":"Feature","geometry":{"type":"Point","coordinates":[-0.3661846,49.1717143]},"properties":{"category":"repair","osm_id":13749230502}},{"type":"Feature","geometry":{"type":"Point","coordinates":[-0.3651809,49.1680582]},"properties":{"category":"repair","osm_id":13749311601}},{"type":"Feature","geometry":{"type":"Point","coordinates":[-0.3845366,49.1723226]},"properties":{"category":"repair","osm_id":13755151601}},{"type":"Feature","geometry":{"type":"Point","coordinates":[-0.3568384,49.179943]},"properties":{"category":"shop","name":"Electro Bike - Le shop d'en face !","phone":"+33 2 31 24 38 59","website":"https://electrobike-caen.fr/","osm_id":13756591712}}]}