{"type":"FeatureCollection","features":[{"type":"Feature","geometry":{"type":"Point","coordinates":[5.8816236,49.1732607]},"properties":{"category":"bakery","name":"À l'Abri","osm_id":1705546328}},{"type":"Feature","geometry":{"type":"Point","coordinates":[5.8852131,49.1713573]},"properties":{"category":"bakery","name":"au plaisir du paain","opening_hours":"Th-Tu,PH 06:00-19:00","osm_id":3583978450}},{"type":"Feature","geometry":{"type":"Point","coordinates":[5.8754591,49.1614276]},"properties":{"category":"bakery","name":"L’Amoureux du pain","opening_hours":"Mo-Tu,Th-Fr 16:30-19:00; We 16:30-18:30","website":"http://www.lamoureuxdupain.fr","osm_id":6789242995}},{"type":"Feature","geometry":{"type":"Point","coordinates":[5.8574818,49.1666339]},"properties":{"category":"bakery","name":"Le Fournil de Victor et Rémy","osm_id":8485290826}},{"type":"Feature","geometry":{"type":"Point","coordinates":[5.8826649,49.1568642]},"properties":{"category":"bakery","name":"Boulangerie Pâtisserie Chocolaterie Wisniewski","opening_hours":"Mo-Fr 06:00-18:00; Sa 06:00-16:00","osm_id":10217369218}},{"type":"Feature","geometry":{"type":"Point","coordinates":[5.8788338,49.1586435]},"properties":{"category":"bakery","name":"La Renardise","osm_id":10221535917}}]}