{"type":"FeatureCollection","features":[{"type":"Feature","geometry":{"type":"Point","coordinates":[-0.2976666,49.2042376]},"properties":{"category":"bakery","name":"Banette","opening_hours":"Tu-Fr 06:00-13:00,15:00-19:30; Sa 06:30-13:00,15:00-19:30; Su 06:30-13:00","osm_id":1635211199}},{"type":"Feature","geometry":{"type":"Point","coordinates":[-0.2967971,49.2034252]},"properties":{"category":"bakery","name":"La Pâte d'Ours","phone":"+33 2 31 72 62 96","osm_id":1635211890}},{"type":"Feature","geometry":{"type":"Point","coordinates":[-0.2920609,49.2001953]},"properties":{"category":"bakery","name":"Maison Noël","opening_hours":"Mo-Su 06:00-19:30; Sa off","phone":"+33 2 31 52 12 31","osm_id":1635213694}},{"type":"Feature","geometry":{"type":"Point","coordinates":[-0.2767079,49.2466959]},"properties":{"category":"bakery","name":"Chez Ludivine et Dimitri","opening_hours":"Tu-Su 07:00-19:00","phone":"+33 2 31 44 61 86","osm_id":1700392772}},{"type":"Feature","geometry":{"type":"Point","coordinates":[-0.2343745,49.2491966]},"properties":{"category":"bakery","name":"L’Atelier T55","opening_hours":"Su,PH 07:00-13:00; Mo,Tu,Th-Sa 07:00-13:00,15:30-19:00; We off","phone":"+33 2 31 34 85 27","osm_id":1992928162}},{"type":"Feature","geometry":{"type":"Point","coordinates":[-0.2415673,49.2204751]},"properties":{"category":"bakery","name":"Boulangerie Lechartier","phone":"+33 2 31 78 62 01","osm_id":3552127310}},{"type":"Feature","geometry":{"type":"Point","coordinates":[-0.2584904,49.2760112]},"properties":{"category":"bakery","name":"La Panetière","osm_id":4097545709}},{"type":"Feature","geometry":{"type":"Point","coordinates":[-0.295952,49.2288095]},"properties":{"category":"bakery","name":"Boulangerie S.V.C.","phone":"+33 2 31 44 62 89","osm_id":4420129390}},{"type":"Feature","geometry":{"type":"Point","coordinates":[-0.2299953,49.263359]},"properties":{"category":"bakery","name":"Aux Sablés normands","phone":"+33 2 31 78 73 14","osm_id":5024020031}},{"type":"Feature","geometry":{"type":"Point","coordinates":[-0.2576619,49.2760034]},"properties":{"category":"bakery","name":"Pasquier & co","phone":"+33 2 31 97 18 05","osm_id":5033073702}},{"type":"Feature","geometry":{"type":"Point","coordinates":[-0.2022676,49.2842857]},"properties":{"category":"bakery","name":"Boulangerie de la plage - Aux délices de Merville Franceville","opening_hours":"We,Th,Sa 07:00-19:30; Fr,Su 07:00-19:00; Mo,Tu off","phone":"+33231242343","osm_id":5036268025}},{"type":"Feature","geometry":{"type":"Point","coordinates":[-0.2595459,49.2851242]},"properties":{"category":"bakery","name":"L'Atelier Gourmand","phone":"+33 2 31 97 19 97","osm_id":5054123343}},{"type":"Feature","geometry":{"type":"Point","coordinates":[-0.2603819,49.2854516]},"properties":{"category":"bakery","name":"Aux Délices de Riva","phone":"+33 2 31 96 84 08","osm_id":5054123351}},{"type":"Feature","geometry":{"type":"Point","coordinates":[-0.2583027,49.2674995]},"properties":{"category":"bakery","name":"Clatot","opening_hours":"Mo-Sa 06:30-19:00; Su 07:00-12:30","osm_id":5746650678}},{"type":"Feature","geometry":{"type":"Point","coordinates":[-0.2548769,49.2320699]},"properties":{"category":"bakery","name":"Les Délices de Mathis","phone":"+33 2 31 78 09 78","osm_id":6743774523}},{"type":"Feature","geometry":{"type":"Point","coordinates":[-0.2690484,49.2868479]},"properties":{"category":"bakery","name":"Du Croissant au Dessert","osm_id":9980239254}},{"type":"Feature","geometry":{"type":"Point","coordinates":[-0.2588466,49.2871965]},"properties":{"category":"shop","name":"Riva location vélo","phone":"+33 6 04 15 55 69","osm_id":10870236859}},{"type":"Feature","geometry":{"type":"Point","coordinates":[-0.2829928,49.2933249]},"properties":{"category":"repair","opening_hours":"24/7","osm_id":12057152825}},{"type":"Feature","geometry":{"type":"Point","coordinates":[-0.2771841,49.2434316]},"properties":{"category":"bakery","name":"Chez Nini","opening_hours":"Mo 06:30-19:30; Tu off; We-Su 06:30-19:30","phone":"+33 2 31 53 26 70","osm_id":12287946086}},{"type":"Feature","geometry":{"type":"Point","coordinates":[-0.2745236,49.2432673]},"properties":{"category":"repair","opening_hours":"24/7","osm_id":12733035719}},{"type":"Feature","geometry":{"type":"Point","coordinates":[-0.2589215,49.2862775]},"properties":{"category":"bakery","name":"L'Épi d'Or","phone":"+33 2 31 97 18 10","osm_id":13167373450}},{"type":"Feature","geometry":{"type":"Point","coordinates":[-0.2031946,49.2811398]},"properties":{"category":"bakery","name":"Boulangerie Clatot","opening_hours":"Fr-Tu 07:00-19:30; We,Th off","phone":"+33 2 31 24 22 81","osm_id":13661380412}}]}