{"type":"FeatureCollection","features":[{"type":"Feature","geometry":{"type":"Point","coordinates":[-0.6990514,49.284803]},"properties":{"category":"shop","name":"Planète vélo","opening_hours":"Tu-Fr 10:00-12:30,14:00-19:00; Sa 10:00-12:00,14:00-18:00","phone":"+33 2 31 21 45 16","website":"https://www.planete-velo.fr","osm_id":8312982571}},{"type":"Feature","geometry":{"type":"Point","coordinates":[-0.6846727,49.2661258]},"properties":{"category":"shop","name":"Loc Vélo","phone":"+33 6 46 34 37 21","website":"https://www.locvelo.fr","osm_id":8342488204}},{"type":"Feature","geometry":{"type":"Point","coordinates":[-0.6841322,49.2787052]},"properties":{"category":"shop","name":"Cycles 14","phone":"+33 2 78 77 15 23","website":"https://www.magasin-cycles14.fr","osm_id":8478514288}}]}