{"type":"FeatureCollection","features":[{"type":"Feature","geometry":{"type":"Point","coordinates":[2.5874048,49.2059512]},"properties":{"category":"bakery","name":"Délices et Gourmandises (artisan bio)","opening_hours":"Mo-Tu 06:30-19:30; We off; Th-Fr 06:30-19:30; Sa 07:00-19:30; Su 07:00-19:00","phone":"+33 3 44 53 06 50","osm_id":2408276802}},{"type":"Feature","geometry":{"type":"Point","coordinates":[2.5960517,49.2172395]},"properties":{"category":"bakery","name":"Boulangerie Louise","opening_hours":"Mo-Sa 07:30-19:30","phone":"+33 3 44 31 35 05","website":"https://www.boulangerielouise.com/","osm_id":4358622747}},{"type":"Feature","geometry":{"type":"Point","coordinates":[2.5839299,49.2595874]},"properties":{"category":"bakery","name":"Boulangerie Pâtisserie","opening_hours":"Mo off; Tu-Sa 07:00-19:30; Su 07:00-13:00","phone":"+33 3 44 54 12 68","osm_id":4704461713}},{"type":"Feature","geometry":{"type":"Point","coordinates":[2.5829068,49.2053731]},"properties":{"category":"bakery","name":"Maison Ringeval","opening_hours":"Mo off; Tu-Fr 07:00-13:30,15:00-19:30; Sa 07:00-19:30; Su 07:00-13:00","phone":"+33 3 44 53 50 47","osm_id":5708508071}},{"type":"Feature","geometry":{"type":"Point","coordinates":[2.5708768,49.2063964]},"properties":{"category":"bakery","name":"Le Fournil Gourmand","opening_hours":"Mo 07:00-19:30; Tu off; We-Sa 07:00-19:30; Su 07:00-18:00","phone":"+33 3 44 53 41 20","osm_id":10917571580}},{"type":"Feature","geometry":{"type":"Point","coordinates":[2.5853281,49.2049589]},"properties":{"category":"bakery","name":"Frères et Artisans","opening_hours":"Mo-We 06:30-19:00; Th off; Fr-Sa 06:30-19:00; Su 07:00-13:00","phone":"+33 3 44 53 00 43","osm_id":10960325590}},{"type":"Feature","geometry":{"type":"Point","coordinates":[2.5175913,49.2749557]},"properties":{"category":"bakery","name":"Szyszynski Cédric","opening_hours":"Mo,Tu off; We-Sa 06:30-13:30,15:30-20:00; Su 06:30-13:30,16:00-19:00","phone":"+33 3 44 24 37 44","osm_id":11142945854}}]}