{"type":"FeatureCollection","features":[{"type":"Feature","geometry":{"type":"Point","coordinates":[2.466297,49.2730286]},"properties":{"category":"shop","name":"Atelier ABC-Velo","opening_hours":"We 14:00-17:00; Sa 09:30-12:30","phone":"+33 3 44 60 11 63","osm_id":4546802489}},{"type":"Feature","geometry":{"type":"Point","coordinates":[2.4640077,49.2403573]},"properties":{"category":"shop","name":"Cycle Gaston Rahier Loisirs","opening_hours":"Tu-Sa 09:30-12:30,14:00-19:00; Su off","phone":"+33 3 44 24 40 70","website":"https://www.velos-gaston-rahier.fr","osm_id":6113342527}},{"type":"Feature","geometry":{"type":"Point","coordinates":[2.466429,49.2389012]},"properties":{"category":"shop","name":"Bouticycle","opening_hours":"Th-Fr 10:00-13:00, 14:30-19:00; Sa 10:00-19:00","phone":"+33 3 44 28 34 96","website":"https://bouticycle.com/-Saint-Maximin-","osm_id":6113347640}},{"type":"Feature","geometry":{"type":"Point","coordinates":[2.4685729,49.2631291]},"properties":{"category":"shop","name":"Relais Vélo","opening_hours":"Tu-Fr 16:30-19:00; We 09:00-12:00,16:30-19:00; Sa 09:00-14:00","phone":"+33 3 44 60 11 63","website":"https://www.au5v.fr/-RELAIS-VELO-AXO-.html","osm_id":8717793321}},{"type":"Feature","geometry":{"type":"Point","coordinates":[2.4583355,49.2009471]},"properties":{"category":"shop","name":"Happy Cyclo Jo !","website":"https://happyculturechantilly.fr/happy-cyclo-jo/","osm_id":9899984690}},{"type":"Feature","geometry":{"type":"Point","coordinates":[2.4704822,49.2383343]},"properties":{"category":"compressed_air","osm_id":11162403987}},{"type":"Feature","geometry":{"type":"Point","coordinates":[2.470167,49.2425619]},"properties":{"category":"compressed_air","opening_hours":"24/7","osm_id":11841779096}},{"type":"Feature","geometry":{"type":"Point","coordinates":[2.4391118,49.2540314]},"properties":{"category":"shop","name":"Vélo-école VélOOoise","opening_hours":"Sa-Su 09:50-11:30","phone":"+33 6 95 26 86 52","website":"https://framadate.org/AXHSr7kvUsZvdjGg","osm_id":12262693728}},{"type":"Feature","geometry":{"type":"Point","coordinates":[2.4619218,49.2024504]},"properties":{"category":"compressed_air","osm_id":13265444999}}]}