{"type":"FeatureCollection","features":[{"type":"Feature","geometry":{"type":"Point","coordinates":[-0.1877063,49.2297275]},"properties":{"category":"bakery","name":"Une Note Sucrée","opening_hours":"Mo off; Tu-Sa 06:30-13:30,15:30-19:00; Su 06:30-13:00","phone":"+33 2 31 78 00 08","osm_id":2592430805}},{"type":"Feature","geometry":{"type":"Point","coordinates":[-0.1161383,49.2909648]},"properties":{"category":"bakery","name":"Chez Meunier","opening_hours":"07:00-20:00; Mo off","phone":"+33 2 31 91 28 48","osm_id":4991185236}},{"type":"Feature","geometry":{"type":"Point","coordinates":[-0.116318,49.2901627]},"properties":{"category":"bakery","name":"La Maison Florent","osm_id":4991185241}},{"type":"Feature","geometry":{"type":"Point","coordinates":[-0.1164857,49.2888962]},"properties":{"category":"bakery","name":"Une Aff@!re de Goût","phone":"+33 2 31 91 28 18","osm_id":4991185249}},{"type":"Feature","geometry":{"type":"Point","coordinates":[-0.1585519,49.2843687]},"properties":{"category":"bakery","name":"La Boulangerie du Marais","opening_hours":"Tu-Su 07:00-13:00","osm_id":5841637404}},{"type":"Feature","geometry":{"type":"Point","coordinates":[-0.1454298,49.2848126]},"properties":{"category":"bakery","name":"Maison Chaudemanche","opening_hours":"Tu-Sa 07:30-18:30; Su 07:30-13:00","phone":"+33 9 87 72 59 07","website":"https://www.maison-chaudemanche.fr","osm_id":5843341741}},{"type":"Feature","geometry":{"type":"Point","coordinates":[-0.192769,49.2697647]},"properties":{"category":"shop","name":"Bike 14","osm_id":9603407704}},{"type":"Feature","geometry":{"type":"Point","coordinates":[-0.112692,49.2856875]},"properties":{"category":"bakery","name":"Balbec","phone":"+33 2 31 15 12 82","osm_id":11077011878}},{"type":"Feature","geometry":{"type":"Point","coordinates":[-0.1602774,49.2537856]},"properties":{"category":"bakery","name":"Maison Flambard","phone":"+33 2 31 74 63 05","osm_id":12699251357}},{"type":"Feature","geometry":{"type":"Point","coordinates":[-0.1041639,49.2851781]},"properties":{"category":"bakery","name":"La Maison Florent","osm_id":12829798782}},{"type":"Feature","geometry":{"type":"Point","coordinates":[-0.1915555,49.2834871]},"properties":{"category":"repair","opening_hours":"24/7","osm_id":12986245126}}]}