{"type":"FeatureCollection","features":[{"type":"Feature","geometry":{"type":"Point","coordinates":[2.90346,49.22619]},"properties":{"category":"bakery","name":"Au Bon Fournil","opening_hours":"Mo-Fr 06:30-13:00,15:00-18:00; Sa 07:30-13:00,15:00-18:00; Su 07:30-12:30","phone":"+33 3 44 88 83 15","osm_id":2844472701}},{"type":"Feature","geometry":{"type":"Point","coordinates":[2.9948714,49.284514]},"properties":{"category":"bakery","name":"Aux Délices de Bonneuil","opening_hours":"Mo off; Tu-Fr 06:30-13:00,16:00-19:00; Su 07:00-12:30","phone":"+33 3 44 88 50 05","osm_id":5175341524}}]}