{"type":"FeatureCollection","features":[{"type":"Feature","geometry":{"type":"Point","coordinates":[0.873498,49.2976046]},"properties":{"category":"bakery","osm_id":9708874694}},{"type":"Feature","geometry":{"type":"Point","coordinates":[0.8736724,49.2982613]},"properties":{"category":"bakery","name":"La tradi","osm_id":11290568040}},{"type":"Feature","geometry":{"type":"Point","coordinates":[0.8736707,49.2978296]},"properties":{"category":"bakery","name":"Maison blondé","osm_id":11290592990}},{"type":"Feature","geometry":{"type":"Point","coordinates":[0.8788124,49.2915968]},"properties":{"category":"shop","name":"Le Petit Braquet","opening_hours":"Tu-Fr 08:30-12:30,14:30-19:00; Sa 08:30-18:00","phone":"+33 2 35 76 33 84","osm_id":11999241557}},{"type":"Feature","geometry":{"type":"Point","coordinates":[0.8411545,49.2261551]},"properties":{"category":"bakery","name":"La Gourmandise","opening_hours":"Mo-Sa 06:30-19:30; Su 07:00-13:30; We off","osm_id":13131363118}}]}