{"type":"FeatureCollection","features":[{"type":"Feature","geometry":{"type":"Point","coordinates":[2.2003812,49.289779]},"properties":{"category":"bakery","name":"Au Pain Du Jour","opening_hours":"Mo off; Tu-Su 06:00-20:00","phone":"+33 3 44 45 02 80","osm_id":2459283687}},{"type":"Feature","geometry":{"type":"Point","coordinates":[2.2009916,49.288316]},"properties":{"category":"bakery","name":"Au Four à Bois Frédéric Entraygues","opening_hours":"Mo-Tu,Th-Sa 06:30-20:00; Su 07:00-13:00,15:00-19:00; We off","phone":"+33 3 44 08 60 87","osm_id":2887452516}},{"type":"Feature","geometry":{"type":"Point","coordinates":[2.28498,49.2239357]},"properties":{"category":"bakery","name":"Pâtisserie Traditions Poulingue","opening_hours":"Mo 06:30-19:30; We off; Tu,Th,Fr,Sa 06:30-19:30; Su 07:00-13:00","phone":"+33 3 44 28 97 90","osm_id":3417398858}},{"type":"Feature","geometry":{"type":"Point","coordinates":[2.2810168,49.2771047]},"properties":{"category":"bakery","name":"Corbeille a Pain d'Ully","opening_hours":"Mo,Tu,Th 08:00-12:30,16:30-19:00; Fr-Su 08:00-12:30; We off","phone":"+33 3 44 25 24 52","osm_id":7531366060}}]}