{"type":"FeatureCollection","features":[{"type":"Feature","geometry":{"type":"Point","coordinates":[0.0783746,49.2051068]},"properties":{"category":"bakery","osm_id":1392955323}},{"type":"Feature","geometry":{"type":"Point","coordinates":[0.0171153,49.2598502]},"properties":{"category":"repair","opening_hours":"24/7","osm_id":11011984500}},{"type":"Feature","geometry":{"type":"Point","coordinates":[0.0552046,49.2551907]},"properties":{"category":"bakery","name":"Maison Dupont","osm_id":13355443574}}]}