{"type":"FeatureCollection","features":[{"type":"Feature","geometry":{"type":"Point","coordinates":[5.9922821,49.2245823]},"properties":{"category":"bakery","name":"Boulangerie Pasteur","osm_id":2241793088}},{"type":"Feature","geometry":{"type":"Point","coordinates":[5.9940828,49.2264543]},"properties":{"category":"bakery","osm_id":2241820469}},{"type":"Feature","geometry":{"type":"Point","coordinates":[5.9638052,49.2336785]},"properties":{"category":"bakery","name":"Boulangerie Patisserie Lerch","osm_id":4000549451}},{"type":"Feature","geometry":{"type":"Point","coordinates":[5.9645271,49.2345703]},"properties":{"category":"bakery","name":"Boulangerie Patisserie Draskovic","osm_id":4000549452}},{"type":"Feature","geometry":{"type":"Point","coordinates":[5.9434523,49.2499168]},"properties":{"category":"bakery","name":"Gillant","osm_id":7427999719}},{"type":"Feature","geometry":{"type":"Point","coordinates":[5.9451727,49.2540608]},"properties":{"category":"bakery","name":"Marie Blachère","opening_hours":"Mo-Sa 06:30-19:30","phone":"+33 3 82 20 27 96","website":"https://boulangeries.marieblachere.com/fr/france-FR/5274/marie-blachere-briey/details","osm_id":8828992231}},{"type":"Feature","geometry":{"type":"Point","coordinates":[5.9930751,49.22274]},"properties":{"category":"bakery","name":"Artisan Boulangerie","osm_id":13423612760}}]}