{"type":"FeatureCollection","features":[{"type":"Feature","geometry":{"type":"Point","coordinates":[1.2107509,49.2673453]},"properties":{"category":"bakery","name":"Le Fournil de Val-de-reuil","opening_hours":"Mo-Fr 07:00-19:00; Sa 08:00-14:00; Su off","phone":"+33 2 32 59 81 13","osm_id":867571106}},{"type":"Feature","geometry":{"type":"Point","coordinates":[1.204123,49.2671864]},"properties":{"category":"bakery","name":"Le Fournil de Val de Reuil","opening_hours":"Mo-Fr 06:30-19:00; Sa,Su,PH 07:00-19:00","osm_id":6867082236}},{"type":"Feature","geometry":{"type":"Point","coordinates":[1.2206371,49.2110854]},"properties":{"category":"bakery","name":"La Mie Câline","osm_id":7270949235}},{"type":"Feature","geometry":{"type":"Point","coordinates":[1.2214428,49.2319177]},"properties":{"category":"bakery","name":"Boulanger","osm_id":8820852107}},{"type":"Feature","geometry":{"type":"Point","coordinates":[1.2094617,49.2568869]},"properties":{"category":"bakery","name":"Maison Guincêtre","opening_hours":"Tu-Sa 06:30-13:30,15:00-19:30; Su 07:00-13:00; Mo off","phone":"+33 2 32 59 02 53","osm_id":10233235336}},{"type":"Feature","geometry":{"type":"Point","coordinates":[1.2078955,49.2701345]},"properties":{"category":"bakery","name":"Aux Quatre Saisons","phone":"+33 2 32 59 07 96","osm_id":11300157300}},{"type":"Feature","geometry":{"type":"Point","coordinates":[1.2196344,49.2116733]},"properties":{"category":"compressed_air","osm_id":12643592964}}]}