{"type":"FeatureCollection","features":[{"type":"Feature","geometry":{"type":"Point","coordinates":[2.8889852,49.233956]},"properties":{"category":"bakery","name":"Patisserie Saint-Thomas","opening_hours":"Mo off; Tu-Sa 07:00-12:45,14:15-19:00; Su 07:00-13:00,14:30-16:30","phone":"+33 3 44 59 15 68","osm_id":1160944855}},{"type":"Feature","geometry":{"type":"Point","coordinates":[2.8876389,49.2359204]},"properties":{"category":"bakery","name":"Boulangerie Pâtisserie Vuyge","opening_hours":"Mo-Fr 06:30-13:00,14:30-19:30; Sa 06:45-13:00,14:30-19:30; Su 07:00-13:00","phone":"+33 3 44 59 11 82","osm_id":1848077190}},{"type":"Feature","geometry":{"type":"Point","coordinates":[2.887265,49.2346016]},"properties":{"category":"bakery","name":"Rétro & Praliné","opening_hours":"Mo-Fr 06:30-19:00; Sa 07:00-19:00; Su 07:00-12:30","phone":"+33 3 44 59 12 10","osm_id":2844459701}},{"type":"Feature","geometry":{"type":"Point","coordinates":[2.8789368,49.2324167]},"properties":{"category":"bakery","name":"Boulangerie Patisserie des Albères","opening_hours":"Mo-Sa 06:30-19:00; Su 07:00-13:30","phone":"+33 3 44 87 11 44","osm_id":3480332034}},{"type":"Feature","geometry":{"type":"Point","coordinates":[2.8817236,49.2263418]},"properties":{"category":"bakery","name":"Boulangerie Patisserie","opening_hours":"Mo off; Mo-Sa 07:00-12:30,14:30-19:00; Su 06:30-12:30","phone":"+33 6 42 91 26 13","osm_id":3891506306}},{"type":"Feature","geometry":{"type":"Point","coordinates":[2.8872928,49.2370913]},"properties":{"category":"bakery","name":"Le Vieux Fournil","opening_hours":"Mo-Sa 06:30-13:30,16:00-19:30; Su 07:00-13:00","phone":"+33 3 44 39 60 20","osm_id":7804313232}},{"type":"Feature","geometry":{"type":"Point","coordinates":[2.8011009,49.2993941]},"properties":{"category":"bakery","name":"Boulangerie Pâtisserie Luna","opening_hours":"Mo-Tu,Fr 06:30-13:00,16:00-19:00; We-Th off; Sa 07:00-13:00,15:30-18:30; Su 07:00-13:00","phone":"+33 3 64 23 67 30","osm_id":7899929126}}]}