{"type":"FeatureCollection","features":[{"type":"Feature","geometry":{"type":"Point","coordinates":[4.1050467,49.262873]},"properties":{"category":"bakery","name":"Jaquet","osm_id":2968380733}},{"type":"Feature","geometry":{"type":"Point","coordinates":[4.1214368,49.2936107]},"properties":{"category":"bakery","name":"JP Marest","opening_hours":"Mo-Tu 06:00-13:30,15:30-19:30;Th-Sa 06:00-13:30,15:30-19:30;Su 06:00-13:30","osm_id":6710004432}},{"type":"Feature","geometry":{"type":"Point","coordinates":[4.1102598,49.2877055]},"properties":{"category":"bakery","name":"Boulangerie Szezepaniak","opening_hours":"Mo-Sa 06:30-13:00,16:00-19:00; Su 07:00-13:00; We off","phone":"+33326972031","website":"https://boulangerieszezepaniak.fr","osm_id":12716356259}}]}