{"type":"FeatureCollection","features":[{"type":"Feature","geometry":{"type":"Point","coordinates":[3.0912342,49.2544461]},"properties":{"category":"bakery","name":"La Fromentine","opening_hours":"Mo-Tu,Th-Sa 06:30-19:00; Su 06:30-16:00; We off","phone":"+33 3 23 96 03 85","osm_id":2987802377}},{"type":"Feature","geometry":{"type":"Point","coordinates":[3.0851709,49.2559865]},"properties":{"category":"shop","name":"Cycles du RETZ","phone":"+33 6 16 32 22 34","website":"https://www.cyclesduretz.fr","osm_id":7523072483}},{"type":"Feature","geometry":{"type":"Point","coordinates":[3.0919192,49.2542877]},"properties":{"category":"bakery","name":"Boulangerie Saint-Rémy","opening_hours":"Mo,Su 07:00-12:30; Tu 06:30-13:30,15:00-19:00; We-Sa 06:30-19:00","phone":"+33 3 23 96 13 31","osm_id":10949429330}},{"type":"Feature","geometry":{"type":"Point","coordinates":[3.0907941,49.2541446]},"properties":{"category":"bakery","name":"Aux Délices de Damien","opening_hours":"Mo off; Tu-Su 07:00-19:00","phone":"+33 3 23 96 16 63","osm_id":10949431689}},{"type":"Feature","geometry":{"type":"Point","coordinates":[3.0920171,49.2529859]},"properties":{"category":"bakery","name":"Le Palais Gourmand","opening_hours":"Mo off; Tu-Fr 05:00-19:00; Sa 06:00-18:00; Su 06:00-12:15","phone":"+33 3 23 96 14 68","osm_id":10949439598}},{"type":"Feature","geometry":{"type":"Point","coordinates":[3.0955406,49.251537]},"properties":{"category":"bakery","name":"L'Arbre à Pain","opening_hours":"Mo-Fr 06:30-20:00; Sa 07:30-13:30; Su off","phone":"+33 3 23 74 85 29","osm_id":10949446041}},{"type":"Feature","geometry":{"type":"Point","coordinates":[3.095124,49.2488264]},"properties":{"category":"bakery","name":"Marie Blachère","opening_hours":"Mo-Sa 06:30-19:30; Su off","phone":"+33 3 60 69 00 47","website":"https://boulangeries.marieblachere.com/fr/france-FR/5556/marie-blachere-villers-cotterets/details","osm_id":13245258104}}]}