{"type":"FeatureCollection","features":[{"type":"Feature","geometry":{"type":"Point","coordinates":[-1.7565182,49.3826152]},"properties":{"category":"bakery","osm_id":4083640612}},{"type":"Feature","geometry":{"type":"Point","coordinates":[-1.7519195,49.381262]},"properties":{"category":"bakery","osm_id":4083640614}},{"type":"Feature","geometry":{"type":"Point","coordinates":[-1.7855029,49.3777292]},"properties":{"category":"bakery","osm_id":4771895965}},{"type":"Feature","geometry":{"type":"Point","coordinates":[-1.7534455,49.3815837]},"properties":{"category":"bakery","name":"Christophe Renard","osm_id":11034005133}},{"type":"Feature","geometry":{"type":"Point","coordinates":[-1.7857184,49.3795112]},"properties":{"category":"repair","osm_id":12786378212}},{"type":"Feature","geometry":{"type":"Point","coordinates":[-1.7603445,49.386274]},"properties":{"category":"shop","name":"l’Atelier B","opening_hours":"Tu 10:00-12:00,14:30-18:30; We 14:30-18:30; Th-Sa Tu 10:00-12:00,14:30-18:30","osm_id":12832444844}}]}