{"type":"FeatureCollection","features":[{"type":"Feature","geometry":{"type":"Point","coordinates":[0.6193748,49.3903619]},"properties":{"category":"bakery","name":"Genet","osm_id":7741636208}},{"type":"Feature","geometry":{"type":"Point","coordinates":[0.6489787,49.3099438]},"properties":{"category":"bakery","name":"Aux blés d'or","opening_hours":"Mo,Tu,We,Fr 07:30-13:30,16:00-19:00; Sa-Su 08:00-13:00","osm_id":9013307209}},{"type":"Feature","geometry":{"type":"Point","coordinates":[0.6149815,49.3908842]},"properties":{"category":"shop","name":"Pédal'Eure","osm_id":13758255725}}]}