{"type":"FeatureCollection","features":[{"type":"Feature","geometry":{"type":"Point","coordinates":[-0.9059886,49.308969]},"properties":{"category":"bakery","name":"L'Épi du Marais","opening_hours":"Mo,Tu,Fr,Sa 07:00-19:00; Su 07:00-14:00","phone":"+33 2 31 22 50 22","osm_id":1499533466}},{"type":"Feature","geometry":{"type":"Point","coordinates":[-0.9046681,49.3094582]},"properties":{"category":"repair","opening_hours":"24/7","osm_id":11843440205}},{"type":"Feature","geometry":{"type":"Point","coordinates":[-0.9041358,49.3092587]},"properties":{"category":"bakery","name":"Au Fournil de Trévières","opening_hours":"We-Su 07:00-20:00","phone":"+33 2 31 22 50 10","osm_id":13452182215}}]}