{"type":"FeatureCollection","features":[{"type":"Feature","geometry":{"type":"Point","coordinates":[-1.5288968,49.3862027]},"properties":{"category":"bakery","name":"Les Gourmandes","osm_id":6654349985}},{"type":"Feature","geometry":{"type":"Point","coordinates":[-1.5821385,49.3326132]},"properties":{"category":"shop","name":"Perform Bike","opening_hours":"Mo-Sa 07:30-20:00","phone":"+33 6 32 06 54 04","osm_id":9784872426}},{"type":"Feature","geometry":{"type":"Point","coordinates":[-1.5326826,49.3846275]},"properties":{"category":"bakery","name":"Hamel","phone":"+33 2 33 41 66 58","osm_id":11034054931}}]}