{"type":"FeatureCollection","features":[{"type":"Feature","geometry":{"type":"Point","coordinates":[1.4314828,49.3104082]},"properties":{"category":"bakery","name":"Aux Delices d'Écouis","opening_hours":"We-Mo 07:00-19:30; Tu off","phone":"+33 2 32 69 43 15","osm_id":1837666890}},{"type":"Feature","geometry":{"type":"Point","coordinates":[1.4770713,49.3990548]},"properties":{"category":"bakery","name":"AUX Delires de Lyons","osm_id":4193370728}},{"type":"Feature","geometry":{"type":"Point","coordinates":[1.4765514,49.3991669]},"properties":{"category":"shop","name":"loc \"e\" velo","opening_hours":"Tu-Fr 09:00-12:00,14:00-18:00; Sa 09:00-19:00; Su 09:00-18:00","phone":"+33 277 131 463","website":"http://locationvélo.com","osm_id":7553371022}}]}