{"type":"FeatureCollection","features":[{"type":"Feature","geometry":{"type":"Point","coordinates":[5.9526105,49.3794376]},"properties":{"category":"bakery","name":"Boulangerie Duhr","osm_id":1872698203}},{"type":"Feature","geometry":{"type":"Point","coordinates":[5.9513284,49.380384]},"properties":{"category":"bakery","name":"Boulangerie","osm_id":1872698267}},{"type":"Feature","geometry":{"type":"Point","coordinates":[5.9308066,49.3245507]},"properties":{"category":"bakery","name":"Calvisi","osm_id":2938830361}},{"type":"Feature","geometry":{"type":"Point","coordinates":[5.9271714,49.3248118]},"properties":{"category":"bakery","name":"BECQ","osm_id":2973019636}},{"type":"Feature","geometry":{"type":"Point","coordinates":[5.9986844,49.3569333]},"properties":{"category":"bakery","osm_id":5163262119}}]}