{"type":"FeatureCollection","features":[{"type":"Feature","geometry":{"type":"Point","coordinates":[0.0787453,49.3591953]},"properties":{"category":"shop","name":"Lucas Cycles","phone":"+332 31 88 53 55","website":"https://www.cycleslucas.com/","osm_id":1864496221}},{"type":"Feature","geometry":{"type":"Point","coordinates":[0.0909224,49.3519769]},"properties":{"category":"shop","name":"Mary Cycles Deauville","opening_hours":"Mo-Sa 09:30-13:00,14:00-18:30","phone":"+332 31 88 03 91","website":"https://www.mary-cycles.fr/","osm_id":8554127517}},{"type":"Feature","geometry":{"type":"Point","coordinates":[0.0794075,49.365614]},"properties":{"category":"shop","name":"Les Trouvillaises","phone":"+33 2 31 98 54 11","website":"https://www.lestrouvillaises.com/","osm_id":9855957362}},{"type":"Feature","geometry":{"type":"Point","coordinates":[0.0812203,49.36269]},"properties":{"category":"shop","name":"Jean connaît un rayon","opening_hours":"Mo-Su 10:00-12:30,14:00-18:30","phone":"+33 7 86 15 48 31","website":"https://jean-connait-un-rayon.fr/","osm_id":10212047889}},{"type":"Feature","geometry":{"type":"Point","coordinates":[0.0287881,49.3385898]},"properties":{"category":"shop","name":"Les vélos de Blonville","osm_id":10870259383}},{"type":"Feature","geometry":{"type":"Point","coordinates":[0.0125709,49.3280653]},"properties":{"category":"shop","name":"Cycles La Villersoise","phone":"+33 2 31 81 91 11","website":"https://www.la-villersoise.com/","osm_id":12332583964}}]}