{"type":"FeatureCollection","features":[{"type":"Feature","geometry":{"type":"Point","coordinates":[2.109494,49.465556]},"properties":{"category":"bakery","name":"Boulangerie Pâtisserie Coppens","opening_hours":"Mo,We-Fr 07:00-13:00,16:00-19:00; Sa 07:00-13:00; Su 07:00-12:30; Tu off","phone":"+33 3 44 45 12 72","osm_id":1785343423}},{"type":"Feature","geometry":{"type":"Point","coordinates":[2.1072331,49.4322666]},"properties":{"category":"bakery","name":"Boulangerie Saint-Antoine","opening_hours":"Mo off; Tu-Fr 06:30-13:00,15:30-20:00; Sa-Su 06:30-20:00","phone":"+33 3 44 05 41 03","osm_id":3104313487}},{"type":"Feature","geometry":{"type":"Point","coordinates":[2.1130753,49.416569]},"properties":{"category":"bakery","name":"Boulangerie Feuillette","opening_hours":"Mo-Sa 06:00-20:00; Su 07:00-20:00","phone":"+33 3 64 19 82 57","website":"https://www.etablissements.groupe-feuillette.fr/etablissement/boulangerie-feuillette-beauvais","osm_id":3712055335}},{"type":"Feature","geometry":{"type":"Point","coordinates":[2.1144495,49.4143588]},"properties":{"category":"shop","name":"Veteix","opening_hours":"Tu-Th 09:30-12:30,14:00-19:00; Fr 09:30-12:30,14:00-18:30; Sa 09:30-12:30,15:00-18:30; Mo,Su off","phone":"+33 3 44 83 44 83","website":"https://www.veteix.fr","osm_id":6115930611}},{"type":"Feature","geometry":{"type":"Point","coordinates":[2.1027284,49.4307188]},"properties":{"category":"bakery","name":"Boulangerie Pâtisserie Lemarié","opening_hours":"Mo-Fr 07:30-13:30,16:30-20:00; Sa 08:00-13:30; Su off","phone":"+33 3 44 05 47 19","osm_id":7404932685}},{"type":"Feature","geometry":{"type":"Point","coordinates":[2.1129035,49.4106918]},"properties":{"category":"bakery","name":"L'Atelier Papilles","opening_hours":"Mo-Fr 06:00-20:00; Sa-Su 07:00-20:00","phone":"+33 3 44 05 50 75","osm_id":7761312217}},{"type":"Feature","geometry":{"type":"Point","coordinates":[2.1236892,49.4085627]},"properties":{"category":"bakery","name":"Marie Blachère","opening_hours":"Mo-Sa 06:30-19:30; Su off","phone":"+33 3 44 03 03 96","website":"https://boulangeries.marieblachere.com/fr/france-FR/7081/marie-blachere-allonne-beauvais/details","osm_id":7846489154}},{"type":"Feature","geometry":{"type":"Point","coordinates":[2.1145013,49.4065258]},"properties":{"category":"bakery","name":"Boulangerie Victor Florent","opening_hours":"Mo-Su 07:00-20:00","website":"https://www.victorflorent.fr/","osm_id":7846489179}},{"type":"Feature","geometry":{"type":"Point","coordinates":[2.1142992,49.459899]},"properties":{"category":"bakery","name":"Paul","opening_hours":"Mo-Su 06:00-21:29","phone":"+33 3 44 11 19 19","website":"https://www.paul.fr/stores/beauvais_aeroport","osm_id":9957052510}},{"type":"Feature","geometry":{"type":"Point","coordinates":[2.1065069,49.4347512]},"properties":{"category":"bakery","name":"La Nougatine","opening_hours":"Mo-Sa 06:30-20:00; Su off","phone":"+33 3 44 05 79 85","osm_id":10946759947}},{"type":"Feature","geometry":{"type":"Point","coordinates":[2.111554,49.4590025]},"properties":{"category":"bakery","name":"Paul","opening_hours":"Mo-Su 06:00-22:00","phone":"+33 3 44 11 19 10","website":"https://www.paul.fr/stores/aeroport_de_beauvais_t1","osm_id":10949692411}},{"type":"Feature","geometry":{"type":"Point","coordinates":[2.1150087,49.4148733]},"properties":{"category":"shop","name":"Cycles Clémer","opening_hours":"Mo 14:00-19:00; Tu-Sa 09:00-13:00,14:00-19:00; Su off","phone":"+33 3 44 45 54 73","website":"https://www.cyclesclemer.fr/","osm_id":11169056640}},{"type":"Feature","geometry":{"type":"Point","coordinates":[2.1099056,49.4124687]},"properties":{"category":"compressed_air","osm_id":11169128006}},{"type":"Feature","geometry":{"type":"Point","coordinates":[2.1181025,49.438306]},"properties":{"category":"bakery","name":"Boulangerie Feuillette","opening_hours":"Mo 09:00-18:00; Tu-Sa 08:00-20:00; Su 08:30-20:00","phone":"+33 3 74 09 10 28","website":"https://www.etablissements.groupe-feuillette.fr/etablissement/boulangerie-feuillette-beauvais-1","osm_id":11582569576}},{"type":"Feature","geometry":{"type":"Point","coordinates":[2.1073875,49.4096364]},"properties":{"category":"shop","name":"Tek Cycle","opening_hours":"Mo 14:00-19:00; Tu-Sa 10:00-19:00","phone":"+33 3 44 06 24 56","website":"https://www.tek-cycle.fr/beauvais/c-24.html","osm_id":12292635580}}]}