{"type":"FeatureCollection","features":[{"type":"Feature","geometry":{"type":"Point","coordinates":[2.7774893,49.4070673]},"properties":{"category":"shop","name":"Cycles Evasion","opening_hours":"Mo 14:00-19:00; Tu-Th 09:00-12:00,14:00-19:00; Fr-Sa 09:00-19:00; Su off","phone":"+33 3 44 97 54 18","website":"https://www.cyclesevasion.com/","osm_id":3908362127}},{"type":"Feature","geometry":{"type":"Point","coordinates":[2.7799709,49.4086747]},"properties":{"category":"compressed_air","osm_id":11099336863}},{"type":"Feature","geometry":{"type":"Point","coordinates":[2.7839199,49.4073657]},"properties":{"category":"compressed_air","osm_id":13765827675}}]}