{"type":"FeatureCollection","features":[{"type":"Feature","geometry":{"type":"Point","coordinates":[3.0085157,49.4878102]},"properties":{"category":"bakery","name":"Distributeur de pain","osm_id":7925002392}},{"type":"Feature","geometry":{"type":"Point","coordinates":[3.0482418,49.4122904]},"properties":{"category":"bakery","name":"Boulangerie Dricourt Jérôme","opening_hours":"Mo,We-Sa 06:30-13:00,15:00-19:00; Su 07:00-13:00; Tu off","phone":"+33 3 44 42 10 07","osm_id":8648352329}},{"type":"Feature","geometry":{"type":"Point","coordinates":[3.0154505,49.4022652]},"properties":{"category":"bakery","name":"La Pierre Qui Tourne","opening_hours":"Tu-Sa 09:00-19:00; Su,Mo off","phone":"+33 3 60 19 05 52","website":"https://www.lapierrequitourne.com/","osm_id":8998234309}},{"type":"Feature","geometry":{"type":"Point","coordinates":[3.0044534,49.4036063]},"properties":{"category":"bakery","name":"Boulangerie Piraux-Tavernier","opening_hours":"Mo off; Tu-Sa 06:30-19:00; Su 07:00-13:00","phone":"+33 3 44 85 70 43","osm_id":10945749035}},{"type":"Feature","geometry":{"type":"Point","coordinates":[3.0035925,49.4045302]},"properties":{"category":"bakery","name":"Boulangerie Dricourt","opening_hours":"Mo, We-Sa 06:30-12:30,15:15-19:15; Su 07:30-13:00; Tu off","phone":"+33 3 44 85 77 14","osm_id":10945755838}}]}