{"type":"FeatureCollection","features":[{"type":"Feature","geometry":{"type":"Point","coordinates":[0.1337782,49.4851569]},"properties":{"category":"bakery","name":"Le Fournil Saint-Nicolas","osm_id":1632646984}},{"type":"Feature","geometry":{"type":"Point","coordinates":[0.1096336,49.4944713]},"properties":{"category":"bakery","name":"La Mie Câline","phone":"+33 2 35 46 50 30","osm_id":1867012248}},{"type":"Feature","geometry":{"type":"Point","coordinates":[0.1091238,49.4951353]},"properties":{"category":"bakery","name":"Place des pains","opening_hours":"Mo-Sa 06:00-19:00","phone":"+33 2 35 43 45 60","website":"https://place-des-pains.fr/","osm_id":1867027987}},{"type":"Feature","geometry":{"type":"Point","coordinates":[0.1055433,49.4912326]},"properties":{"category":"bakery","name":"Bidault","osm_id":1867061590}},{"type":"Feature","geometry":{"type":"Point","coordinates":[0.1016935,49.4913488]},"properties":{"category":"bakery","name":"L'Atelier Papilles","opening_hours":"Tu-Sa 06:30-19:30, Su 06:30-19:00","website":"https://latelier-papilles.com/latelier-papilles-le-havre/","osm_id":1867106522}},{"type":"Feature","geometry":{"type":"Point","coordinates":[0.1246312,49.4923187]},"properties":{"category":"bakery","name":"Marie Blachère","osm_id":1867204651}},{"type":"Feature","geometry":{"type":"Point","coordinates":[0.1120741,49.4878503]},"properties":{"category":"bakery","name":"Au fournil Saint-François","opening_hours":"06:00-20:00; Sa-Su off","phone":"+33 2 35 45 08 02","osm_id":1867509540}},{"type":"Feature","geometry":{"type":"Point","coordinates":[0.1298065,49.4994866]},"properties":{"category":"bakery","name":"Père la Brioche","osm_id":1867535412}},{"type":"Feature","geometry":{"type":"Point","coordinates":[0.1173395,49.4921684]},"properties":{"category":"bakery","name":"L'Ami Du Pain","osm_id":1891228772}},{"type":"Feature","geometry":{"type":"Point","coordinates":[0.1003868,49.495263]},"properties":{"category":"bakery","name":"Jonart Pierre","osm_id":1891286437}},{"type":"Feature","geometry":{"type":"Point","coordinates":[0.1201728,49.4938884]},"properties":{"category":"shop","name":"Association La Roue Libre","opening_hours":"Tu-Fr 10:00-18:00; Sa 13:00-18:00","phone":"+33 9 84 11 52 95","osm_id":1972076177}},{"type":"Feature","geometry":{"type":"Point","coordinates":[0.114158,49.4873895]},"properties":{"category":"shop","name":"Giant","opening_hours":"Tu-Fr 10:00-12:00,14:00-19:00; Sa 10:00-12:00,14:00-18:30","phone":"+33 2 35 42 24 57","website":"https://www.giant-le-havre.fr/fr","osm_id":1973738341}},{"type":"Feature","geometry":{"type":"Point","coordinates":[0.1221058,49.4993403]},"properties":{"category":"bakery","name":"Boulangerie Piquenot","opening_hours":"Su 08:00-16:00; Tu-Sa 06:15-20:00","osm_id":2013778891}},{"type":"Feature","geometry":{"type":"Point","coordinates":[0.1206532,49.4992333]},"properties":{"category":"bakery","name":"Boulangerie centrale","osm_id":2013781753}},{"type":"Feature","geometry":{"type":"Point","coordinates":[0.1222395,49.4951984]},"properties":{"category":"bakery","name":"Fournil Danton","opening_hours":"Mo-Sa 06:30-13:00","osm_id":2013871785}},{"type":"Feature","geometry":{"type":"Point","coordinates":[0.1176049,49.4983512]},"properties":{"category":"bakery","name":"Friboulet","osm_id":2017662887}},{"type":"Feature","geometry":{"type":"Point","coordinates":[0.1306498,49.484282]},"properties":{"category":"bakery","name":"Boulangerie Louise","opening_hours":"Mo-Fr 06:30-19:30; Sa 07:30-19:30","phone":"+33 2 35 26 16 81","website":"https://www.boulangerielouise.com/boulangerie/boulangerie-louise-le-havre-saint-nicolas/","osm_id":2713674620}},{"type":"Feature","geometry":{"type":"Point","coordinates":[0.1235378,49.4928702]},"properties":{"category":"bakery","name":"Festival des Pains","osm_id":2717019104}},{"type":"Feature","geometry":{"type":"Point","coordinates":[0.1088577,49.4940798]},"properties":{"category":"repair","osm_id":3070128819}},{"type":"Feature","geometry":{"type":"Point","coordinates":[0.1237632,49.4925707]},"properties":{"category":"bakery","name":"Au fournil de la gare","opening_hours":"Mo-Fr","osm_id":3125733247}},{"type":"Feature","geometry":{"type":"Point","coordinates":[0.1044407,49.4950322]},"properties":{"category":"bakery","name":"Le Fournil Saint-Roch","osm_id":4881663023}},{"type":"Feature","geometry":{"type":"Point","coordinates":[0.1506243,49.4973833]},"properties":{"category":"bakery","name":"Feuillette","opening_hours":"Mo-Su 06:00-20:00","website":"https://www.feuillette.fr/","osm_id":6183622188}},{"type":"Feature","geometry":{"type":"Point","coordinates":[0.1403761,49.4865063]},"properties":{"category":"bakery","name":"Le Père La Brioche","osm_id":6184395101}},{"type":"Feature","geometry":{"type":"Point","coordinates":[0.1393349,49.4927484]},"properties":{"category":"bakery","name":"Le Fournil Brindeau","osm_id":6185591404}},{"type":"Feature","geometry":{"type":"Point","coordinates":[0.1391115,49.4931188]},"properties":{"category":"bakery","name":"Au Palais Gourmand","osm_id":6185591437}},{"type":"Feature","geometry":{"type":"Point","coordinates":[0.1110663,49.4918467]},"properties":{"category":"bakery","name":"Boulangerie de Saint-Nicolas","opening_hours":"Mo-Sa 07:00-19:30; Su,PH off","osm_id":6303736715}},{"type":"Feature","geometry":{"type":"Point","coordinates":[0.1076556,49.4887412]},"properties":{"category":"bakery","name":"M & s","osm_id":6604585621}},{"type":"Feature","geometry":{"type":"Point","coordinates":[0.1048197,49.4905869]},"properties":{"category":"bakery","name":"Brunet","osm_id":7440961481}},{"type":"Feature","geometry":{"type":"Point","coordinates":[0.1100711,49.4923326]},"properties":{"category":"shop","name":"LiAvélos","opening_hours":"Mo 14:00-19:00; Tu-Sa 11:00-19:00","phone":"+33 2 35 22 35 00","osm_id":7843416220}},{"type":"Feature","geometry":{"type":"Point","coordinates":[0.1129465,49.4973008]},"properties":{"category":"shop","name":"Cyclable","opening_hours":"Tu-Sa 10:00-13:00,14:00-19:00","phone":"+33 2 27 15 25 05","website":"https://le-havre.cyclable.com/","osm_id":9737311582}},{"type":"Feature","geometry":{"type":"Point","coordinates":[0.1093429,49.4870495]},"properties":{"category":"shop","name":"ride n’move","osm_id":9857511355}},{"type":"Feature","geometry":{"type":"Point","coordinates":[0.1020423,49.4872051]},"properties":{"category":"bakery","name":"Le Fournil du Perrey","opening_hours":"Mo,We-Sa 06:45-19:30","phone":"+33 2 35 61 11 03","osm_id":10858007911}},{"type":"Feature","geometry":{"type":"Point","coordinates":[0.1360492,49.4972986]},"properties":{"category":"bakery","name":"Le Fournil Demidoff","osm_id":11127084985}},{"type":"Feature","geometry":{"type":"Point","coordinates":[0.1138438,49.4975024]},"properties":{"category":"bakery","name":"Maison Boussai","osm_id":11336353878}},{"type":"Feature","geometry":{"type":"Point","coordinates":[0.1118835,49.4960086]},"properties":{"category":"bakery","name":"Maison Yvonne","opening_hours":"Mo-Sa 09:30-19:30","osm_id":11794042262}},{"type":"Feature","geometry":{"type":"Point","coordinates":[0.1046224,49.4910851]},"properties":{"category":"shop","name":"Bike 76","opening_hours":"Tu-Fr 10:00-13:00,15:00-19:00; Th 15:00-19:00; Sa 10:00-13:00,14:00-19:00","phone":"+33 2 35 55 96 32","osm_id":11829102758}},{"type":"Feature","geometry":{"type":"Point","coordinates":[0.1111717,49.4965713]},"properties":{"category":"bakery","name":"Du pain et des gourmandises","osm_id":11898882102}},{"type":"Feature","geometry":{"type":"Point","coordinates":[0.1236279,49.493829]},"properties":{"category":"bakery","name":"Aimé","osm_id":12207354595}},{"type":"Feature","geometry":{"type":"Point","coordinates":[0.1466504,49.4950689]},"properties":{"category":"shop","name":"Mary cycles","phone":"+33 2 35 53 42 00","website":"https://www.mary-cycles.fr/","osm_id":12641449377}},{"type":"Feature","geometry":{"type":"Point","coordinates":[0.1011437,49.4926343]},"properties":{"category":"bakery","name":"Maison Vasseur","osm_id":12846454864}},{"type":"Feature","geometry":{"type":"Point","coordinates":[0.1554207,49.4950191]},"properties":{"category":"bakery","name":"Tiphaigne","opening_hours":"Mo-Tu 06:30-19:30; Th-Fr 06:30-19:30; Sa 07:00-19:30; Su 07:30-19:30","phone":"+33 2 35 26 40 33","osm_id":12847456487}},{"type":"Feature","geometry":{"type":"Point","coordinates":[0.1053563,49.4908825]},"properties":{"category":"bakery","name":"Maison Portier","osm_id":12848715538}},{"type":"Feature","geometry":{"type":"Point","coordinates":[0.1025476,49.4953869]},"properties":{"category":"bakery","name":"La mie Saint-Roch","osm_id":12848715540}}]}