{"type":"FeatureCollection","features":[{"type":"Feature","geometry":{"type":"Point","coordinates":[2.2504909,49.4093762]},"properties":{"category":"bakery","name":"Pain Nature Chocolat","opening_hours":"Mo off; Tu-Fr 05:30-19:30; Sa 06:00-19:30; Su 06:00-13:00","phone":"+33 3 44 07 90 39","osm_id":3060558742}},{"type":"Feature","geometry":{"type":"Point","coordinates":[2.2489969,49.4107317]},"properties":{"category":"bakery","name":"Au Fournil du Coin","opening_hours":"Mo-Tu,Th-Fr 05:30-20:00; Sa-Su 07:00-20:00; We off","phone":"+33 3 44 07 90 36","osm_id":4314504489}}]}