{"type":"FeatureCollection","features":[{"type":"Feature","geometry":{"type":"Point","coordinates":[1.3706133,49.4113396]},"properties":{"category":"bakery","name":"Le fournil de l'Andelle","opening_hours":"Tu-Sa 07:00-13:30, Su 07:00-13:00, Tu-Sa 15:30-19:30","osm_id":9440366930}},{"type":"Feature","geometry":{"type":"Point","coordinates":[1.3791758,49.4441455]},"properties":{"category":"bakery","name":"Boulangerie du château","website":"https://www.facebook.com/boulangerieduchateau27/","osm_id":11810418788}},{"type":"Feature","geometry":{"type":"Point","coordinates":[1.3428334,49.470895]},"properties":{"category":"shop","name":"Pignon fixe cycles","opening_hours":"Tu-Fr 10:00-12:00,14:00-19:00; Sa 09:00-12:00,14:00-18:00","phone":"+33 2 35 32 49 27","osm_id":13755454511}}]}