{"type":"FeatureCollection","features":[{"type":"Feature","geometry":{"type":"Point","coordinates":[5.825415,49.4725465]},"properties":{"category":"bakery","name":"Point Chaud Boulangerie Patisserie Vuillemard Nicolas","opening_hours":"Tu-Fr 05:00-12:15, 15:00-19:00; Sa 06:00-12:15, 15:00-19:00; Su 06:00-12:15","osm_id":12117454501}},{"type":"Feature","geometry":{"type":"Point","coordinates":[5.8623563,49.4966498]},"properties":{"category":"bakery","name":"Boulangerie BEHEM","opening_hours":"Mo-Sa 06:00-12:30,16:00-19:00;Su 06:00-12:30","osm_id":13230442052}},{"type":"Feature","geometry":{"type":"Point","coordinates":[5.8730683,49.492568]},"properties":{"category":"bakery","name":"Maison Ponzoni","opening_hours":"Mo-Tu 05:00-20:00;Th-Fr 05:00-20:00; Sa-Su 06:00-13:00","osm_id":13230493577}}]}