{"type":"FeatureCollection","features":[{"type":"Feature","geometry":{"type":"Point","coordinates":[1.8780059,49.4202245]},"properties":{"category":"bakery","name":"Bernardin Cyrille Patrice","opening_hours":"Th-Tu 07:00-13:00; We off","phone":"+33 3 44 81 60 28","osm_id":317158259}},{"type":"Feature","geometry":{"type":"Point","coordinates":[1.8264121,49.4268307]},"properties":{"category":"bakery","name":"La Grange à Pain","opening_hours":"Mo-Tu,Th-Sa 06:30-13:30,15:30-19:30; Su 06:00-13:00; We off","phone":"+33 3 44 46 51 15","osm_id":6644198875}},{"type":"Feature","geometry":{"type":"Point","coordinates":[1.8608189,49.4645166]},"properties":{"category":"bakery","name":"Le Fournil de Blacourt","opening_hours":"Mo,Tu,Fr 07:00-13:00,16:00-19:00; We,Sa,Su 07:00-13:00; Th off","phone":"+33 9 81 33 22 74","osm_id":7946248539}},{"type":"Feature","geometry":{"type":"Point","coordinates":[1.8698452,49.4411466]},"properties":{"category":"bakery","name":"Le Pain d'Hervé","opening_hours":"Mo-Fr 06:30-19:30; Sa 07:30-18:30; Su off","phone":"+33 3 44 80 55 05","website":"https://lepaindherve.fr/","osm_id":12705420397}},{"type":"Feature","geometry":{"type":"Point","coordinates":[1.8997328,49.443938]},"properties":{"category":"repair","osm_id":12828828004}}]}