{"type":"FeatureCollection","features":[{"type":"Feature","geometry":{"type":"Point","coordinates":[3.6835237,49.4643319]},"properties":{"category":"shop","name":"Cycle Center","website":"https://www.centerparcs.fr/fr-fr/velo-et-cycle-center_ms","osm_id":5926362164}},{"type":"Feature","geometry":{"type":"Point","coordinates":[3.6650938,49.47214]},"properties":{"category":"bakery","name":"Boulangerie Pâtisserie Christian Lambert","opening_hours":"Mo-Tu,Th-Sa 06:00-13:30,16:00-19:30; Su 06:00-13:30; We off","phone":"+33 3 23 24 71 32","osm_id":6519231958}}]}