{"type":"FeatureCollection","features":[{"type":"Feature","geometry":{"type":"Point","coordinates":[1.0845973,49.4403057]},"properties":{"category":"shop","name":"Électro Scoot","phone":"+33 2 35 89 21 24","osm_id":3010329842}},{"type":"Feature","geometry":{"type":"Point","coordinates":[1.084364,49.4274788]},"properties":{"category":"shop","name":"L'Atelier du Cycle Rouennais","opening_hours":"Tu-Fr 09:30-12:00, 14:30-19:00; Sa 09:30-12:30, 14:30-18:30","phone":"+33 2 35 63 57 72","website":"https://acr76.fr/","osm_id":4550705634}},{"type":"Feature","geometry":{"type":"Point","coordinates":[1.0866706,49.4410147]},"properties":{"category":"shop","name":"Rouen Bike","opening_hours":"Tu-Sa 09:00-12:00,14:00-19:00","phone":"+33 2 35 71 34 30","website":"https://www.rouenbike.fr/","osm_id":5556581126}},{"type":"Feature","geometry":{"type":"Point","coordinates":[1.0827785,49.4707902]},"properties":{"category":"shop","name":"Retro Elec Bike","phone":"+33 6 64 44 44 06","website":"https://www.retroelecbike.com","osm_id":6669211622}},{"type":"Feature","geometry":{"type":"Point","coordinates":[1.0983786,49.4390027]},"properties":{"category":"shop","name":"Cyclable","opening_hours":"Tu-Sa 10:00-13:00,14:00-19:00","phone":"+33 9 84 22 29 58","website":"https://rouen.cyclable.com/","osm_id":8032087748}},{"type":"Feature","geometry":{"type":"Point","coordinates":[1.0836503,49.4406552]},"properties":{"category":"shop","name":"Modern Trott'","opening_hours":"Tu-Su 10:00-12:00,14:30-18:30","osm_id":8062795221}},{"type":"Feature","geometry":{"type":"Point","coordinates":[1.0918054,49.4438909]},"properties":{"category":"shop","name":"Vélostation Lovélo","opening_hours":"Su off; Mo-Sa 09:30-18:30","phone":"+33 2 35 52 52 52","website":"https://www.reseau-astuce.fr/fr/lovelo/1042","osm_id":9039564274}},{"type":"Feature","geometry":{"type":"Point","coordinates":[1.0917667,49.443938]},"properties":{"category":"compressed_air","opening_hours":"24/7","osm_id":9318115113}},{"type":"Feature","geometry":{"type":"Point","coordinates":[1.0891172,49.4142451]},"properties":{"category":"repair","opening_hours":"24/7","osm_id":9318121049}},{"type":"Feature","geometry":{"type":"Point","coordinates":[1.090949,49.4227269]},"properties":{"category":"shop","name":"Guidoline","opening_hours":"We,Fr,Sa 13:00-17:30","phone":"+33 2 27 08 36 52","osm_id":9819515683}},{"type":"Feature","geometry":{"type":"Point","coordinates":[1.0142434,49.4832017]},"properties":{"category":"compressed_air","opening_hours":"24/7","osm_id":10591625875}},{"type":"Feature","geometry":{"type":"Point","coordinates":[1.0773189,49.4418965]},"properties":{"category":"repair","opening_hours":"24/7","osm_id":11158408182}},{"type":"Feature","geometry":{"type":"Point","coordinates":[1.0745409,49.4258766]},"properties":{"category":"shop","name":"Berti Cycles","opening_hours":"Th-Fr 10:00-19:00, Sa 10:00-18:00, Su-We off","phone":"+33 6 24 13 33 14","website":"https://berti-cycles.fr/","osm_id":11266136496}},{"type":"Feature","geometry":{"type":"Point","coordinates":[1.0987448,49.4386007]},"properties":{"category":"shop","name":"ZENAVELO","opening_hours":"Tu 10:00-13:00,14:00-18:00; We-Fr 10:00-19:00; Sa 10:00-13:00,14:00-19:00","phone":"+33785365821","osm_id":12367440244}},{"type":"Feature","geometry":{"type":"Point","coordinates":[1.0730485,49.4673473]},"properties":{"category":"repair","osm_id":12531720396}},{"type":"Feature","geometry":{"type":"Point","coordinates":[1.0933299,49.431873]},"properties":{"category":"shop","name":"Rustine","opening_hours":"Mo-Tu 12:30-17:00; We-Fr 12:30-19:00; Sa 16:00-19:00","website":"https://rustinerouen.wixsite.com/rustine","osm_id":12735162491}},{"type":"Feature","geometry":{"type":"Point","coordinates":[1.0308446,49.4520403]},"properties":{"category":"repair","osm_id":13022683681}},{"type":"Feature","geometry":{"type":"Point","coordinates":[1.0278022,49.4410928]},"properties":{"category":"repair","osm_id":13567319289}}]}