{"type":"FeatureCollection","features":[{"type":"Feature","geometry":{"type":"Point","coordinates":[3.5168748,49.4089248]},"properties":{"category":"bakery","name":"Boulangerie Pesta","opening_hours":"Mo off; Tu-Fr 06:30-13:00,15:30-19:00; Sa 07:00-13:00,15:30-19:00; Su 07:00-13:00","phone":"+33 3 23 54 64 48","osm_id":6131174092}},{"type":"Feature","geometry":{"type":"Point","coordinates":[3.5187544,49.4090671]},"properties":{"category":"bakery","name":"Boulangerie Pâtisserie Paume de Pain","opening_hours":"Mo,We-Sa 06:30-19:00; Su 07:00-13:00","phone":"+33 3 23 54 71 78","osm_id":9393818562}},{"type":"Feature","geometry":{"type":"Point","coordinates":[3.5577911,49.4903513]},"properties":{"category":"bakery","name":"Au Fournil Des Rois","opening_hours":"Mo-Sa 06:00-19:00; Su off","phone":"+33 3 23 26 06 86","osm_id":13246260538}}]}