{"type":"FeatureCollection","features":[{"type":"Feature","geometry":{"type":"Point","coordinates":[2.6409804,49.4249504]},"properties":{"category":"bakery","name":"Boulangerie Pâtisserie Moscipan","opening_hours":"Mo-Tu, Th-Fr 06:30-13:00,15:30-19:30; Sa 07:00-13:00,15:30-19:30; Su 07:00-13:00; We off","phone":"+33 3 44 41 30 15","osm_id":4926152540}},{"type":"Feature","geometry":{"type":"Point","coordinates":[2.6374797,49.4259337]},"properties":{"category":"bakery","name":"Boulangerie Maison Vasseux","opening_hours":"Mo-Fr 06:00-19:30; Sa 07:00-13:30; Su off","phone":"+33 3 44 41 10 11","osm_id":4926203163}},{"type":"Feature","geometry":{"type":"Point","coordinates":[2.6431284,49.425967]},"properties":{"category":"bakery","name":"Boulangerie Branlant","opening_hours":"Mo,We-Fr 06:30-13:30,15:00-19:30; Sa-Su 07:00-19:30; Tu off","phone":"+33 3 44 41 31 79","osm_id":4926203168}},{"type":"Feature","geometry":{"type":"Point","coordinates":[2.6743376,49.491784]},"properties":{"category":"bakery","name":"Pechon Morgan","opening_hours":"Mo off; Tu-Sa 07:00-07:45,17:30-18:30; Su 07:00-07:45","phone":"+33 3 44 42 22 70","osm_id":10681500681}},{"type":"Feature","geometry":{"type":"Point","coordinates":[2.6466294,49.4141302]},"properties":{"category":"bakery","name":"Boulangerie Victor Florent","opening_hours":"Mo-Su 07:00-20:00","website":"https://www.victorflorent.fr/","osm_id":13238383356}}]}