{"type":"FeatureCollection","features":[{"type":"Feature","geometry":{"type":"Point","coordinates":[5.8026877,49.5357161]},"properties":{"category":"bakery","name":"Maison Vuillemard","phone":"+33 3 82 24 33 52","osm_id":12265803395}},{"type":"Feature","geometry":{"type":"Point","coordinates":[5.8109428,49.5394986]},"properties":{"category":"bakery","name":"Boulangerie Ange","opening_hours":"Mo-Sa 05:00-19:00","phone":"+33 3 82 39 02 07","website":"https://www.boulangerie-ange.fr/stores/boulangerie-ange-longlaville","osm_id":12269153874}}]}