{"type":"FeatureCollection","features":[{"type":"Feature","geometry":{"type":"Point","coordinates":[2.5195639,49.5521406]},"properties":{"category":"bakery","name":"Chez Guillaume et Émile","opening_hours":"Mo-Tu,Th-Sa 07:00-13:00,16:00-19:00; Su 07:00-13:00; We off","phone":"+33 3 44 51 14 72","osm_id":3725455545}},{"type":"Feature","geometry":{"type":"Point","coordinates":[2.5082876,49.5452929]},"properties":{"category":"bakery","name":"Boulangerie Pâtisserie Ehrlich","opening_hours":"Mo off; Tu-Sa 07:00-13:30,16:00-19:30; Su 07:00-13:30","phone":"+33 3 44 51 14 33","osm_id":11051202317}},{"type":"Feature","geometry":{"type":"Point","coordinates":[2.5875561,49.5610229]},"properties":{"category":"bakery","name":"Boulangerie Mendy","opening_hours":"We-Mo 06:00-20:00; Tu off","phone":"+33 9 51 97 46 06","website":"https://www.boulangeriemendy.fr","osm_id":12730731022}},{"type":"Feature","geometry":{"type":"Point","coordinates":[2.5041903,49.5147515]},"properties":{"category":"bakery","name":"Aux Délices de Méry","phone":"+33 3 44 51 87 42","osm_id":13094836948}}]}