{"type":"FeatureCollection","features":[{"type":"Feature","geometry":{"type":"Point","coordinates":[3.000673,49.5805684]},"properties":{"category":"shop","name":"Office du Tourisme","opening_hours":"Mo off; Tu-Sa 10:00-12:00,14:00-17:00; Su 10:00-12:00","phone":"+33 3 44 44 21 88","website":"https://noyon-tourisme.com/","osm_id":1934185006}},{"type":"Feature","geometry":{"type":"Point","coordinates":[3.0120295,49.5744616]},"properties":{"category":"bakery","name":"Boulangerie Pâtisserie Sandwich Bouleau","opening_hours":"Th-Tu 06:30-19:30; We off","phone":"+33 3 44 44 06 31","osm_id":1934364554}},{"type":"Feature","geometry":{"type":"Point","coordinates":[3.0242791,49.5138892]},"properties":{"category":"bakery","name":"Boulangerie Pâtisserie de Carlepont","opening_hours":"Mo off; Tu-Sa 07:00-13:30,14:00-19:00; Su 07:00-12:45","phone":"+33 9 81 27 99 94","osm_id":8835654418}},{"type":"Feature","geometry":{"type":"Point","coordinates":[3.0980869,49.5304574]},"properties":{"category":"bakery","name":"Boulangerie Boutteville","opening_hours":"Mo-Tu,Th-Fr 07:00-13:00,16:30-19:00; Sa-Su 07:30-13:00; We off","phone":"+33 3 44 09 74 61","osm_id":10231539157}},{"type":"Feature","geometry":{"type":"Point","coordinates":[3.0041298,49.5822678]},"properties":{"category":"bakery","name":"Les Fils Rousseaux","opening_hours":"Mo off; Tu-Fr 05:30-19:30; Sa-Su 06:30-19:30","phone":"+33 3 44 23 20 02","osm_id":11142989021}}]}