{"type":"FeatureCollection","features":[{"type":"Feature","geometry":{"type":"Point","coordinates":[5.7091252,49.5191009]},"properties":{"category":"bakery","name":"Les sens du plaisir","osm_id":1252758382}},{"type":"Feature","geometry":{"type":"Point","coordinates":[5.7644488,49.5248433]},"properties":{"category":"bakery","name":"L’Atelier du Délice","opening_hours":"Tu-Fr 05:00-19:00; Sa 05:00-18:00; Su 05:00-12:30","phone":"+33 3 82 23 23 78","osm_id":2172322751}},{"type":"Feature","geometry":{"type":"Point","coordinates":[5.7647322,49.5247649]},"properties":{"category":"bakery","name":"La Fournée","osm_id":2172322782}},{"type":"Feature","geometry":{"type":"Point","coordinates":[5.7622672,49.5235688]},"properties":{"category":"bakery","name":"Boulangerie Udasse","osm_id":2172322799}},{"type":"Feature","geometry":{"type":"Point","coordinates":[5.7307314,49.5141017]},"properties":{"category":"bakery","name":"Thomas Hodel","opening_hours":"Mo-Fr 05:00-19:00; Sa 05:00-18:00","phone":"+33 3 82 23 67 95","osm_id":6633814033}},{"type":"Feature","geometry":{"type":"Point","coordinates":[5.7524395,49.5157255]},"properties":{"category":"bakery","name":"Marie Blachère","osm_id":10099163206}},{"type":"Feature","geometry":{"type":"Point","coordinates":[5.7777161,49.5266202]},"properties":{"category":"bakery","name":"Epi d'or","osm_id":13727177906}}]}