{"type":"FeatureCollection","features":[{"type":"Feature","geometry":{"type":"Point","coordinates":[1.9996234,49.5007897]},"properties":{"category":"bakery","name":"Boulangerie de Milly","opening_hours":"Mo off; Tu-Sa 06:30-19:30; Su 07:00-13:00","phone":"+33 3 44 81 00 33","osm_id":1800918793}},{"type":"Feature","geometry":{"type":"Point","coordinates":[1.9561981,49.5745102]},"properties":{"category":"bakery","name":"Boulangerie des Halles","opening_hours":"Mo-Tu,Th-Fr 06:30-13:00,14:30-19:00; Sa 07:00-13:00,14:30-18:30; Su 07:00-13:00; We off","phone":"+33 3 44 46 20 43","osm_id":5512320215}}]}