{"type":"FeatureCollection","features":[{"type":"Feature","geometry":{"type":"Point","coordinates":[3.4511381,49.5052136]},"properties":{"category":"bakery","name":"Boulangerie Chatrieux","opening_hours":"Mo-Tu,Th-Sa 05:30-19:30; Su 05:30-13:30,16:00-19:00; We off","phone":"+33 3 23 80 10 63","osm_id":2117621887}},{"type":"Feature","geometry":{"type":"Point","coordinates":[3.4527019,49.504962]},"properties":{"category":"bakery","name":"Boulangerie Les Délices d'Anizy","opening_hours":"Mo off; Tu-Sa 06:00-12:45,15:30-19:00; Su 07:00-12:45","phone":"+33 3 23 79 51 23","osm_id":8835641917}}]}