{"type":"FeatureCollection","features":[{"type":"Feature","geometry":{"type":"Point","coordinates":[-1.3697806,49.6180085]},"properties":{"category":"bakery","name":"La Brioche du Vast","phone":"+33 2 33 54 13 35","website":"https://www.la-brioche-du-vast.com/","osm_id":10049486739}},{"type":"Feature","geometry":{"type":"Point","coordinates":[-1.3533917,49.6196744]},"properties":{"category":"bakery","name":"La Boulangerie du Vast","phone":"+33 2 33 54 13 56","website":"http://www.boulangerie-du-vast.com/","osm_id":10049486741}}]}