{"type":"FeatureCollection","features":[{"type":"Feature","geometry":{"type":"Point","coordinates":[2.5598827,49.6475521]},"properties":{"category":"shop","name":"Les cycles auguets","phone":"+33 3 22 78 19 38","website":"https://www.la-maison-du-cycle.fr/page26.html","osm_id":7522990048}},{"type":"Feature","geometry":{"type":"Point","coordinates":[2.5922153,49.6486572]},"properties":{"category":"shop","name":"L'atelier repart cycles","opening_hours":"Mo-Th 13:30-16:00; Tu off","website":"https://lesastelles.fr/","osm_id":9494747295}}]}