{"type":"FeatureCollection","features":[{"type":"Feature","geometry":{"type":"Point","coordinates":[0.5464303,49.6141997]},"properties":{"category":"bakery","name":"Paul","phone":"+33 2 35 31 93 41","website":"https://www.paul.fr/stores/aire_de_bolleville","osm_id":7279428882}},{"type":"Feature","geometry":{"type":"Point","coordinates":[0.5472351,49.6142055]},"properties":{"category":"compressed_air","osm_id":9238914881}},{"type":"Feature","geometry":{"type":"Point","coordinates":[0.5455906,49.6143008]},"properties":{"category":"compressed_air","osm_id":9238914882}},{"type":"Feature","geometry":{"type":"Point","coordinates":[0.5911481,49.6514801]},"properties":{"category":"bakery","name":"Boulangerie Charlie","website":"https://www.boulangerie-charly.fr/","osm_id":12770396126}},{"type":"Feature","geometry":{"type":"Point","coordinates":[0.5919633,49.6516741]},"properties":{"category":"bakery","name":"Maison Tanay","osm_id":12770396127}},{"type":"Feature","geometry":{"type":"Point","coordinates":[0.5920544,49.6523111]},"properties":{"category":"bakery","osm_id":12770396131}}]}