{"type":"FeatureCollection","features":[{"type":"Feature","geometry":{"type":"Point","coordinates":[0.3672937,49.6454898]},"properties":{"category":"bakery","name":"Aux grands gourmands","osm_id":2348387414}},{"type":"Feature","geometry":{"type":"Point","coordinates":[0.3675883,49.6454958]},"properties":{"category":"bakery","name":"Saveur et Tradition","osm_id":5119562837}},{"type":"Feature","geometry":{"type":"Point","coordinates":[0.325239,49.649772]},"properties":{"category":"bakery","name":"Le Fournil D'ecrainville","osm_id":12532185497}}]}