{"type":"FeatureCollection","features":[{"type":"Feature","geometry":{"type":"Point","coordinates":[1.7639258,49.6978647]},"properties":{"category":"bakery","name":"Omer Alain","opening_hours":"Mo-Sa 07:00-19:00; Su 07:00-13:30","phone":"+33 3 44 04 20 19","osm_id":6153223186}},{"type":"Feature","geometry":{"type":"Point","coordinates":[1.7303748,49.6493769]},"properties":{"category":"bakery","name":"Boulangerie Levasseur","opening_hours":"Mo off; Tu-Sa 06:30-19:30; Su 06:30-13:00","phone":"+33 9 83 22 83 91","osm_id":9943376468}},{"type":"Feature","geometry":{"type":"Point","coordinates":[1.7319161,49.6494825]},"properties":{"category":"bakery","name":"Aux Délices de Formerie","opening_hours":"Mo off; Tu-Sa 06:45-20:00; Su 06:45-19:30","phone":"+33 3 44 46 18 24","osm_id":9943969155}},{"type":"Feature","geometry":{"type":"Point","coordinates":[1.7321669,49.6495902]},"properties":{"category":"bakery","name":"Jean Philippe Buso","opening_hours":"Mo 07:30-10:00; Tu-Fr 06:30-19:00; Sa 07:00-19:30; Su 07:00-13:00","phone":"+33 3 44 46 17 47","osm_id":9944007159}}]}