{"type":"FeatureCollection","features":[{"type":"Feature","geometry":{"type":"Point","coordinates":[1.5457214,49.6126021]},"properties":{"category":"bakery","name":"Hérault","osm_id":5775286165}},{"type":"Feature","geometry":{"type":"Point","coordinates":[1.5442869,49.6120936]},"properties":{"category":"bakery","name":"Levasseur","opening_hours":"Tu,Th,Fr 07:00-13:00,14:30-19:00; We,Sa 07:00-13:15,14:30-19:00","phone":"+33 2 35 90 51 34","osm_id":5776843576}},{"type":"Feature","geometry":{"type":"Point","coordinates":[1.5448662,49.6121267]},"properties":{"category":"bakery","name":"Pain9","osm_id":5776843600}},{"type":"Feature","geometry":{"type":"Point","coordinates":[1.5490021,49.6122341]},"properties":{"category":"shop","name":"Cycles Vauquet","osm_id":5777230972}},{"type":"Feature","geometry":{"type":"Point","coordinates":[1.5469063,49.6124585]},"properties":{"category":"shop","name":"Le Cycle Forgion","opening_hours":"Tu-Fr 09:00-12:30, 14:00-18:30; Sa 09:00-12:30, 14:00-18:00","phone":"+33 2 78 08 38 28","osm_id":5777231046}},{"type":"Feature","geometry":{"type":"Point","coordinates":[1.5374202,49.6288942]},"properties":{"category":"bakery","osm_id":9562194610}},{"type":"Feature","geometry":{"type":"Point","coordinates":[1.5463564,49.6127134]},"properties":{"category":"bakery","name":"Léa Alexandre Artisans","phone":"+33 2 32 89 32 92","osm_id":12127968006}}]}