{"type":"FeatureCollection","features":[{"type":"Feature","geometry":{"type":"Point","coordinates":[0.3809708,49.7618278]},"properties":{"category":"bakery","name":"Maison Barray","website":"https://www.boulangerie-barray-fecamp.fr/","osm_id":493975953}},{"type":"Feature","geometry":{"type":"Point","coordinates":[0.36703,49.760575]},"properties":{"category":"bakery","name":"Martin","website":"http://boulangeriemartin.fr/","osm_id":2830401301}},{"type":"Feature","geometry":{"type":"Point","coordinates":[0.3681552,49.7473247]},"properties":{"category":"bakery","osm_id":5224745187}},{"type":"Feature","geometry":{"type":"Point","coordinates":[0.3123137,49.7384765]},"properties":{"category":"bakery","name":"Le fournil de Mathieu","opening_hours":"Tu-Sa 07:00-13:00,15:00-19:00; Su 07:00-13:00","phone":"+33 2 35 27 31 69","osm_id":6654382587}},{"type":"Feature","geometry":{"type":"Point","coordinates":[0.3970303,49.7533755]},"properties":{"category":"shop","name":"Coffee Bike","phone":"+33 7 67 70 40 65","osm_id":6699610383}},{"type":"Feature","geometry":{"type":"Point","coordinates":[0.377838,49.7574864]},"properties":{"category":"bakery","name":"La Mie Câline","opening_hours":"Mo-Sa 06:00-19:30; Su 07:00-19:00","website":"https://www.lamiecaline.com/boutiques/fecamp/","osm_id":9016423326}},{"type":"Feature","geometry":{"type":"Point","coordinates":[0.3782186,49.75708]},"properties":{"category":"bakery","name":"S. Hodierne","osm_id":9016496320}},{"type":"Feature","geometry":{"type":"Point","coordinates":[0.3329667,49.7233833]},"properties":{"category":"bakery","name":"Le fournil d'Albatre","opening_hours":"Tu-Sa 07:00-13:30,15:00-19:00; Su 07:00-13:30","osm_id":11158761978}},{"type":"Feature","geometry":{"type":"Point","coordinates":[0.3933546,49.7521214]},"properties":{"category":"bakery","name":"Marie Blachère","opening_hours":"Mo-Sa 07:30-19:30","phone":"+33 2 35 27 42 66","website":"https://boulangeries.marieblachere.com/fr/france-FR/5445/marie-blachere-fecamp/details","osm_id":13140414465}},{"type":"Feature","geometry":{"type":"Point","coordinates":[0.378513,49.7557052]},"properties":{"category":"bakery","name":"Boulangerie Piquenot","opening_hours":"Mo-Tu 07:00-19:00; Th-Sa 07:00-19:00; Su 07:00-13:00","osm_id":13208998792}},{"type":"Feature","geometry":{"type":"Point","coordinates":[0.3687177,49.7601717]},"properties":{"category":"bakery","name":"Trop Chou","website":"https://www.facebook.com/p/Trop-Chou-100064359330534/?locale=fr_FR","osm_id":14026910657}},{"type":"Feature","geometry":{"type":"Point","coordinates":[0.3858783,49.7536057]},"properties":{"category":"bakery","osm_id":14063195036}},{"type":"Feature","geometry":{"type":"Point","coordinates":[0.376774,49.7564845]},"properties":{"category":"bakery","name":"Maison Barray","website":"https://www.boulangerie-barray-fecamp.fr/","osm_id":14073351457}}]}