{"type":"FeatureCollection","features":[{"type":"Feature","geometry":{"type":"Point","coordinates":[1.2262704,49.7074664]},"properties":{"category":"bakery","name":"Boulangerie de la Vallée","phone":"+33 2 35 93 95 09","osm_id":11407138804}},{"type":"Feature","geometry":{"type":"Point","coordinates":[1.227351,49.7859191]},"properties":{"category":"bakery","name":"Graines De Courbe","opening_hours":"Mo-Tu 06:30-19:30; Th-Fr 06:30-19:30; Sa 07:00-19:30; Su 07:00-19:00","phone":"+33 2 35 06 05 46","osm_id":11592227169}}]}