{"type":"FeatureCollection","features":[{"type":"Feature","geometry":{"type":"Point","coordinates":[4.6994518,49.7550963]},"properties":{"category":"bakery","name":"Maison Roger","opening_hours":"Mo-Sa 06:30-19:30; Su 07:00-13:00","osm_id":1611968520}},{"type":"Feature","geometry":{"type":"Point","coordinates":[4.6893882,49.7548953]},"properties":{"category":"bakery","osm_id":1611981180}},{"type":"Feature","geometry":{"type":"Point","coordinates":[4.6956682,49.7878412]},"properties":{"category":"bakery","osm_id":11594243469}},{"type":"Feature","geometry":{"type":"Point","coordinates":[4.677322,49.7862963]},"properties":{"category":"bakery","name":"Maison Roger","phone":"+33 3 24 22 74 21","osm_id":13078789689}}]}