{"type":"FeatureCollection","features":[{"type":"Feature","geometry":{"type":"Point","coordinates":[1.1104981,49.791004]},"properties":{"category":"bakery","osm_id":1262003737}},{"type":"Feature","geometry":{"type":"Point","coordinates":[1.1094842,49.7919806]},"properties":{"category":"bakery","osm_id":1262003780}},{"type":"Feature","geometry":{"type":"Point","coordinates":[1.1014358,49.7189066]},"properties":{"category":"bakery","name":"Boulangerie le Fournil D Auffay","website":"https://www.franceboulangerie.fr/boulangeries/boulangerie-le-fournil-d-auffay-val-de-scie","osm_id":13739480401}}]}