{"type":"FeatureCollection","features":[{"type":"Feature","geometry":{"type":"Point","coordinates":[1.982399,49.7748671]},"properties":{"category":"bakery","name":"Aux délices de Lempereur","opening_hours":"Mo-Sa 06:00-20:00; Su 06:00-13:00","phone":"+33 3 22 90 01 36","osm_id":8145365520}},{"type":"Feature","geometry":{"type":"Point","coordinates":[1.9820337,49.7751223]},"properties":{"category":"bakery","name":"Aux Saveurs Oubliées","opening_hours":"Mo,Th-Sa 06:30-13:15,15:00-19:00; Tu,Su 06:30-13:00; We off","phone":"+33 3 22 49 61 66","osm_id":10114550353}}]}