{"type":"FeatureCollection","features":[{"type":"Feature","geometry":{"type":"Point","coordinates":[4.1808578,49.7682556]},"properties":{"category":"bakery","name":"Boulangerie Ponsinet","opening_hours":"Mo-Fr 06:00-19:00; Sa 06:00-13:00; Su off","phone":"+33 3 23 58 07 96","osm_id":11035595258}},{"type":"Feature","geometry":{"type":"Point","coordinates":[4.1291149,49.7113782]},"properties":{"category":"bakery","name":"Au Pain Paysan","opening_hours":"Mo-Sa 06:30-13:30,16:00-19:00; Su 06:30-13:30","phone":"+33 3 23 90 03 67","osm_id":12691195409}},{"type":"Feature","geometry":{"type":"Point","coordinates":[4.1287733,49.7103293]},"properties":{"category":"bakery","name":"Le Fournil d'Autrefois","opening_hours":"Mo-Tu,Fr-Sa 05:30-13:00,16:00-19:00; We 05:30-13:00, Su 05:30-12:45; Th off","phone":"+33 3 23 98 57 60","osm_id":12691204770}},{"type":"Feature","geometry":{"type":"Point","coordinates":[4.1591285,49.7394473]},"properties":{"category":"repair","osm_id":13382908580}}]}