{"type":"FeatureCollection","features":[{"type":"Feature","geometry":{"type":"Point","coordinates":[2.2864123,49.8839499]},"properties":{"category":"shop","name":"La Scooterie et velo&oxygen","phone":"+33 3 22 95 20 30","website":"https://www.scooterie.fr/","osm_id":3270401721}},{"type":"Feature","geometry":{"type":"Point","coordinates":[2.2995381,49.8933741]},"properties":{"category":"shop","name":"Vélo Station","opening_hours":"Tu-Fr 09:30-13:00, 14:30-19:00; Sa 09:30-13:00, 14:00-18:30","phone":"+33 3 22 48 35 14","osm_id":4258325661}},{"type":"Feature","geometry":{"type":"Point","coordinates":[2.2388212,49.8686725]},"properties":{"category":"shop","name":"Tek Cycle","phone":"+33 3 22 48 63 47","website":"http://www.tekcycle.fr","osm_id":7522966664}},{"type":"Feature","geometry":{"type":"Point","coordinates":[2.2895791,49.8934254]},"properties":{"category":"repair","opening_hours":"24/7","osm_id":8933213940}},{"type":"Feature","geometry":{"type":"Point","coordinates":[2.2971561,49.8929161]},"properties":{"category":"repair","opening_hours":"24/7","osm_id":9517045359}},{"type":"Feature","geometry":{"type":"Point","coordinates":[2.2774553,49.8624595]},"properties":{"category":"compressed_air","osm_id":11163350862}},{"type":"Feature","geometry":{"type":"Point","coordinates":[2.2851779,49.8939382]},"properties":{"category":"compressed_air","osm_id":13077586124}}]}