{"type":"FeatureCollection","features":[{"type":"Feature","geometry":{"type":"Point","coordinates":[0.8885128,49.8655945]},"properties":{"category":"bakery","name":"Le Fournil du Dun","osm_id":544477902}},{"type":"Feature","geometry":{"type":"Point","coordinates":[0.8293396,49.8821658]},"properties":{"category":"bakery","name":"La Malice","opening_hours":"Tu-Su 07:30-13:00, 15:00-19:00","osm_id":848031088}},{"type":"Feature","geometry":{"type":"Point","coordinates":[0.8506444,49.8126704]},"properties":{"category":"bakery","name":"Le Fournil du Dun","osm_id":6135157283}},{"type":"Feature","geometry":{"type":"Point","coordinates":[0.8448545,49.82401]},"properties":{"category":"compressed_air","osm_id":13992816268}}]}