{"type":"FeatureCollection","features":[{"type":"Feature","geometry":{"type":"Point","coordinates":[3.4845333,49.8396951]},"properties":{"category":"bakery","name":"Aux délices de la Sucrerie","opening_hours":"Mo off; Tu-Su 04:00-17:00","phone":"+33 3 23 09 70 05","osm_id":1144721813}},{"type":"Feature","geometry":{"type":"Point","coordinates":[3.4877217,49.8400783]},"properties":{"category":"bakery","name":"Les Fournils de Mathis","opening_hours":"Mo-Sa 04:30-19:00; Su off","phone":"+33 6 44 16 33 85","osm_id":12922659494}}]}