{"type":"FeatureCollection","features":[{"type":"Feature","geometry":{"type":"Point","coordinates":[1.1027299,49.8588543]},"properties":{"category":"bakery","osm_id":5776844479}},{"type":"Feature","geometry":{"type":"Point","coordinates":[1.1259372,49.8815242]},"properties":{"category":"bakery","name":"Maison Courbe","opening_hours":"Tu-Fr 06:30-19:30; Sa-Su 07:00-19:30","phone":"+33 2 35 85 51 31","website":"https://maison-courbe.fr/","osm_id":7688227084}},{"type":"Feature","geometry":{"type":"Point","coordinates":[1.1301134,49.8806677]},"properties":{"category":"bakery","name":"Banette","osm_id":7688248985}},{"type":"Feature","geometry":{"type":"Point","coordinates":[1.1806843,49.8680807]},"properties":{"category":"bakery","name":"La Mie De Saint-Aubin","opening_hours":"Mo 07:15-13:15; We-Fr 07:15-13:30; Sa 07:00-13:15; Su 07:30-13:00","phone":"+33 2 35 85 84 43","website":"https://www.maison-courbe.fr/","osm_id":7714558398}},{"type":"Feature","geometry":{"type":"Point","coordinates":[1.1755595,49.8026736]},"properties":{"category":"bakery","name":"Les Délices Des Pains","opening_hours":"Tu-Sa 07:00-13:30,15:00-19:00; Su 07:00-13:30","phone":"+33 2 77 23 65 70","website":"https://www.maison-courbe.fr/","osm_id":11592223670}},{"type":"Feature","geometry":{"type":"Point","coordinates":[1.178228,49.8677729]},"properties":{"category":"compressed_air","osm_id":12986012521}},{"type":"Feature","geometry":{"type":"Point","coordinates":[1.1056888,49.8985652]},"properties":{"category":"bakery","osm_id":13626282820}}]}