{"type":"FeatureCollection","features":[{"type":"Feature","geometry":{"type":"Point","coordinates":[4.7387292,49.887258]},"properties":{"category":"bakery","name":"Boulangerie La Ruche","opening_hours":"Mo-Sa 05:00-13:15, 15:30-18:30; Su 05:00-13:15; Tu off","osm_id":2686997836}},{"type":"Feature","geometry":{"type":"Point","coordinates":[4.7595829,49.8586943]},"properties":{"category":"bakery","osm_id":3687469821}},{"type":"Feature","geometry":{"type":"Point","coordinates":[4.7433156,49.8160074]},"properties":{"category":"bakery","name":"David BERTRAND","opening_hours":"Mo,Tu,Th-Sa 06:00-19:15; Su 06:00-17:00","osm_id":5241717241}},{"type":"Feature","geometry":{"type":"Point","coordinates":[4.7058046,49.8801222]},"properties":{"category":"bakery","name":"Boulangerie Dias","osm_id":6469811232}},{"type":"Feature","geometry":{"type":"Point","coordinates":[4.7398549,49.8158867]},"properties":{"category":"bakery","name":"La Halte Gourmande","opening_hours":"Mo-Sa 06:30-19:30","phone":"+33 9 83 73 39 41","osm_id":6815625818}},{"type":"Feature","geometry":{"type":"Point","coordinates":[4.751933,49.8167739]},"properties":{"category":"bakery","osm_id":7892537595}},{"type":"Feature","geometry":{"type":"Point","coordinates":[4.743561,49.8172736]},"properties":{"category":"bakery","osm_id":7893911685}},{"type":"Feature","geometry":{"type":"Point","coordinates":[4.794365,49.809472]},"properties":{"category":"bakery","osm_id":7904413661}},{"type":"Feature","geometry":{"type":"Point","coordinates":[4.7403316,49.8656284]},"properties":{"category":"repair","osm_id":10911700569}},{"type":"Feature","geometry":{"type":"Point","coordinates":[4.7433472,49.8159857]},"properties":{"category":"bakery","name":"David bertrand","opening_hours":"Mo,Tu,Th-Sa 06:00-19:15; Su 06:00-17:00","osm_id":11594258869}}]}