{"type":"FeatureCollection","features":[{"type":"Feature","geometry":{"type":"Point","coordinates":[1.2705657,49.8165903]},"properties":{"category":"bakery","name":"Frédéric Lefèvre","phone":"+33 2 35 85 31 93","osm_id":7716486591}},{"type":"Feature","geometry":{"type":"Point","coordinates":[1.2649191,49.8957765]},"properties":{"category":"bakery","osm_id":11708927897}},{"type":"Feature","geometry":{"type":"Point","coordinates":[1.2643932,49.8959522]},"properties":{"category":"bakery","name":"Aux Délices Gourmands","osm_id":11708927900}}]}