{"type":"FeatureCollection","features":[{"type":"Feature","geometry":{"type":"Point","coordinates":[3.7916926,49.9056369]},"properties":{"category":"bakery","name":"La Mie des Marlysiens","opening_hours":"Mo-Fr 05:00-18:00; Sa,Su 05:00-13:00; We off","phone":"+33 3 23 60 53 46","osm_id":9737464407}},{"type":"Feature","geometry":{"type":"Point","coordinates":[3.7448623,49.9865051]},"properties":{"category":"bakery","name":"Aux gourmandizes d'Esquéhéries","opening_hours":"Mo,We-Fr 06:30-14:00,16:00-19:00; Sa 07:00-13:00,14:00-16:00; Su 07:00-13:00; Tu off","phone":"+33 3 23 58 06 65","osm_id":13238571253}}]}