{"type":"FeatureCollection","features":[{"type":"Feature","geometry":{"type":"Point","coordinates":[2.2743436,49.903505]},"properties":{"category":"bakery","name":"Secrets de Pains","opening_hours":"Mo,We-Sa 07:00-13:30,16:00-19:30; Su 07:00-13:00; Tu off","phone":"+33 3 22 43 28 67","osm_id":1825591329}},{"type":"Feature","geometry":{"type":"Point","coordinates":[2.2715135,49.9059415]},"properties":{"category":"bakery","name":"Boulangerie Girard","opening_hours":"Mo off; Tu-Sa 07:00-13:00,14:30-19:00; Su 07:00-12:30","phone":"+33 3 22 43 20 03","osm_id":1826586755}},{"type":"Feature","geometry":{"type":"Point","coordinates":[2.290571,49.9077707]},"properties":{"category":"shop","name":"Duquesnoy Cycles","opening_hours":"Tu-Fr 09:00-12:00,14:00-19:00; Sa 09:00-12:00,14:00-18:00; Mo,Su off","phone":"+33 3 22 43 51 53","osm_id":3334272907}},{"type":"Feature","geometry":{"type":"Point","coordinates":[2.2884049,49.9042819]},"properties":{"category":"bakery","name":"Au Pain Qui Fume","opening_hours":"Mo-Su 07:30-20:30","phone":"+33 3 22 48 32 58","osm_id":3794925050}},{"type":"Feature","geometry":{"type":"Point","coordinates":[2.2576111,49.9105469]},"properties":{"category":"bakery","name":"Patachoux Boulangerie Pâtisserie Amiens Ouest Étouvie Montière","opening_hours":"Mo-Sa 06:00-20:00; Su 07:00-20:00","phone":"+33 9 73 52 44 14","osm_id":5871789457}},{"type":"Feature","geometry":{"type":"Point","coordinates":[2.2536303,49.9123676]},"properties":{"category":"shop","name":"Les Astelles","phone":"+33 3 22 69 26 26","osm_id":6318469227}},{"type":"Feature","geometry":{"type":"Point","coordinates":[2.2303515,49.9152025]},"properties":{"category":"bakery","name":"Boulangerie Pâtisserie Demarcy","opening_hours":"Tu-Fr 07:00-13:00,16:00-19:00; Sa 07:30-13:00; Su 07:30-12:30; Mo off","phone":"+33 3 22 54 12 40","osm_id":9906920764}},{"type":"Feature","geometry":{"type":"Point","coordinates":[2.2841161,49.927465]},"properties":{"category":"bakery","name":"Sophie Lebreuilly","opening_hours":"Mo-Sa 05:00-20:00; Su off","phone":"+33 3 22 80 84 66","website":"https://commandes.sophie-lebreuilly.com/fr-fr/sophielebreuilly-amiens/info/time","osm_id":9979908451}},{"type":"Feature","geometry":{"type":"Point","coordinates":[2.2898177,49.9068903]},"properties":{"category":"bakery","name":"Boulangerie Patisserie","opening_hours":"Mo off; Tu-Sa 06:30-19:00; Su 06:30-15:00","phone":"+33 3 22 52 36 85","osm_id":12805919580}},{"type":"Feature","geometry":{"type":"Point","coordinates":[2.2439576,49.9116753]},"properties":{"category":"bakery","name":"Fournil de Steph","opening_hours":"Mo-Fr 07:00-19:30; Sa 07:00-14:00; Su off","phone":"+33 3 22 93 44 98","osm_id":12811777650}},{"type":"Feature","geometry":{"type":"Point","coordinates":[2.2016892,49.9298072]},"properties":{"category":"shop","name":"Cycle en Somme","phone":"+33 6 29 50 34 13","website":"https://www.cyclensomme.fr/","osm_id":13098083107}}]}