{"type":"FeatureCollection","features":[{"type":"Feature","geometry":{"type":"Point","coordinates":[2.7162709,49.9391023]},"properties":{"category":"bakery","name":"Boulangerie Fournier","phone":"+33 3 22 75 85 73","osm_id":5085739720}},{"type":"Feature","geometry":{"type":"Point","coordinates":[2.7151358,49.9983746]},"properties":{"category":"bakery","name":"Boulangerie Miette","opening_hours":"Mo-Tu,Th-Sa 05:00-13:00,15:30-19:30; We 05:00-13:00; Su 06:00-13:00","phone":"+33 3 22 75 11 16","osm_id":8441189091}}]}