{"type":"FeatureCollection","features":[{"type":"Feature","geometry":{"type":"Point","coordinates":[2.1965101,49.9289036]},"properties":{"category":"bakery","name":"Boulangerie Pâtisserie Marcourt","opening_hours":"Mo-Su 06:30-20:00","phone":"+33 3 22 39 30 97","osm_id":1786400519}},{"type":"Feature","geometry":{"type":"Point","coordinates":[2.1992827,49.9281401]},"properties":{"category":"bakery","name":"Au Fournil d’Ailly","opening_hours":"Mo-Tu,Th-Sa 07:00-19:00; Su 07:00-18:00","phone":"+33 3 22 51 97 09","osm_id":1786400522}},{"type":"Feature","geometry":{"type":"Point","coordinates":[2.1423349,49.9470822]},"properties":{"category":"shop","name":"Maison du tourisme Nièvre et Somme","website":"https://www.amiens-ouest-tourisme.fr/-accueil.cfm","osm_id":9496414539}},{"type":"Feature","geometry":{"type":"Point","coordinates":[2.1425692,49.9442933]},"properties":{"category":"bakery","name":"La Picquignoise","osm_id":11179604740}},{"type":"Feature","geometry":{"type":"Point","coordinates":[2.1713509,49.9485848]},"properties":{"category":"repair","osm_id":11944924115}},{"type":"Feature","geometry":{"type":"Point","coordinates":[2.1714266,49.948578]},"properties":{"category":"repair","osm_id":13246060243}}]}