{"type":"FeatureCollection","features":[{"type":"Feature","geometry":{"type":"Point","coordinates":[4.1010249,49.9900886]},"properties":{"category":"bakery","name":"Boulangerie Banette","opening_hours":"Mo 07:00-12:30,16:00-17:40; Tu,Th-Sa 07:00-12:30,16:00-18:00; Su 07:00-12:30; We off","phone":"+33 3 27 66 82 60","osm_id":3239821757}},{"type":"Feature","geometry":{"type":"Point","coordinates":[4.1031771,49.9567359]},"properties":{"category":"shop","name":"Thiérache Sport Nature","phone":"+33 3 23 58 34 41","website":"https://thierachesportnature.com","osm_id":6135086732}},{"type":"Feature","geometry":{"type":"Point","coordinates":[4.1328859,49.9185992]},"properties":{"category":"bakery","name":"Boulangerie Le Saint-Michel","opening_hours":"Mo-Su 05:30-19:00","phone":"+33 3 23 97 20 01","website":"https://eater.space/le-saint-michel-saint-michel","osm_id":10805354528}}]}