{"type":"FeatureCollection","features":[{"type":"Feature","geometry":{"type":"Point","coordinates":[4.6402559,49.933872]},"properties":{"category":"bakery","name":"Au Coin du Feu","osm_id":1315991684}},{"type":"Feature","geometry":{"type":"Point","coordinates":[4.639301,49.9388985]},"properties":{"category":"bakery","name":"Boulangerie Camus","osm_id":1773566457}},{"type":"Feature","geometry":{"type":"Point","coordinates":[4.6375124,49.941462]},"properties":{"category":"bakery","name":"La Maison Des Pains","osm_id":11465107269}}]}