{"type":"FeatureCollection","features":[{"type":"Feature","geometry":{"type":"Point","coordinates":[2.6579008,49.9812667]},"properties":{"category":"bakery","name":"La Méaultoise","opening_hours":"Mo-Fr 07:00-14:00, 16:00-19:00; Sa 07:00-13:00, 16:00-19:00; Su 07:00-13:00","phone":"+33 3 22 74 59 78","website":"https://www.facebook.com/profile.php?id=100090548532449","osm_id":2684144841}},{"type":"Feature","geometry":{"type":"Point","coordinates":[2.6366058,49.9777762]},"properties":{"category":"shop","name":"Bicycl'home","osm_id":12167752365}}]}