{"type":"FeatureCollection","features":[{"type":"Feature","geometry":{"type":"Point","coordinates":[2.5122565,49.908464]},"properties":{"category":"bakery","name":"Boulangerie Langlet","opening_hours":"Mo off; Tu-Sa 07:00-13:00,14:00-19:00; Su 07:30-13:00,14:30-18:30","phone":"+33 3 22 48 40 28","osm_id":1899164189}},{"type":"Feature","geometry":{"type":"Point","coordinates":[2.5095185,49.9088808]},"properties":{"category":"bakery","name":"Boulangerie Patisserie Leclercq","opening_hours":"Mo-Sa 07:00-18:00; Su 07:00-12:30","phone":"+33 3 22 48 44 21","osm_id":5085773225}},{"type":"Feature","geometry":{"type":"Point","coordinates":[2.5116186,49.9086512]},"properties":{"category":"bakery","name":"Pain du Jour","opening_hours":"Mo-Su 06:30-20:00","osm_id":5085773227}},{"type":"Feature","geometry":{"type":"Point","coordinates":[2.5031342,49.9002881]},"properties":{"category":"bakery","name":"Boulangerie Leclerc","opening_hours":"Mo-We,Fr-Sa 07:00-18:00; Su 07:00-13:00; Th off","phone":"+33 3 22 96 92 55","osm_id":13092569102}},{"type":"Feature","geometry":{"type":"Point","coordinates":[2.5072837,49.9656776]},"properties":{"category":"bakery","osm_id":13346640157}},{"type":"Feature","geometry":{"type":"Point","coordinates":[2.5093666,49.9047699]},"properties":{"category":"repair","osm_id":14058319707}}]}