{"type":"FeatureCollection","features":[{"type":"Feature","geometry":{"type":"Point","coordinates":[-52.2839066,4.9243038]},"properties":{"category":"shop","name":"Easy Bike","opening_hours":"Mo-Fr 09:00-13:00,15:00-18:00; Sa 09:00-13:00","osm_id":1794370147}},{"type":"Feature","geometry":{"type":"Point","coordinates":[-52.285718,4.9247295]},"properties":{"category":"shop","name":"Happy Bike","opening_hours":"Mo-Fr 09:00-12:30, Mo-Fr 15:00-18:00, Sa 09:00-12:30","phone":"+594 594 30 71 06","osm_id":5417607788}},{"type":"Feature","geometry":{"type":"Point","coordinates":[-52.2818602,4.9223939]},"properties":{"category":"compressed_air","osm_id":5994097612}},{"type":"Feature","geometry":{"type":"Point","coordinates":[-52.2858358,4.9254635]},"properties":{"category":"compressed_air","osm_id":6985078473}},{"type":"Feature","geometry":{"type":"Point","coordinates":[-52.2744271,4.9154016]},"properties":{"category":"compressed_air","osm_id":7248375915}}]}