{"type":"FeatureCollection","features":[{"type":"Feature","geometry":{"type":"Point","coordinates":[-52.3313207,4.9421175]},"properties":{"category":"shop","name":"Chen S.A.R.L.","opening_hours":"Mo-Sa 08:00 - 13:00, Mo-Sa 15:00 - 18:15","phone":"+594 976 50 16 89","osm_id":1024365996}},{"type":"Feature","geometry":{"type":"Point","coordinates":[-52.3296209,4.9395274]},"properties":{"category":"shop","name":"Velo & Oxygen","opening_hours":"Mo-Fr 09:00-12:30,16:00-19:00; Sa 09:00-12:30, 16:00-18:00","phone":"+594 594 30 31 08","osm_id":1024366000}},{"type":"Feature","geometry":{"type":"Point","coordinates":[-52.3316804,4.9374083]},"properties":{"category":"shop","name":"Janitex","osm_id":1024403556}},{"type":"Feature","geometry":{"type":"Point","coordinates":[-52.3138848,4.9357906]},"properties":{"category":"shop","name":"Polymeca","opening_hours":"Tu-Fr 09:00-12:30, 15:30-18:30; Mo 10:00-12:30, 15:30-18:30; Sa 09:00-12:30","osm_id":1025984180}},{"type":"Feature","geometry":{"type":"Point","coordinates":[-52.3277237,4.9357861]},"properties":{"category":"shop","name":"Lie Kon Wah","osm_id":1769073785}},{"type":"Feature","geometry":{"type":"Point","coordinates":[-52.3335663,4.934757]},"properties":{"category":"shop","name":"Atelier de réparation La Kaz à Vélo","opening_hours":"Tu-Fr 09:00-12:00,14:00-17:00; Sa 09:00-12:00","phone":"+594 594 20 38 57","website":"https://la-kaz-a-velo.fr/","osm_id":1808385643}},{"type":"Feature","geometry":{"type":"Point","coordinates":[-52.3282285,4.9367324]},"properties":{"category":"shop","name":"Amazon Riders","osm_id":1819541033}},{"type":"Feature","geometry":{"type":"Point","coordinates":[-52.3314485,4.9379596]},"properties":{"category":"shop","name":"100% Cycles","opening_hours":"Tu-Sa 09:00-12:30, Tu-Sa 16:00 - 18:45, Mo 16:00 - 18:45","phone":"+594 594 37 85 32","osm_id":4406298196}},{"type":"Feature","geometry":{"type":"Point","coordinates":[-52.3051623,4.9421217]},"properties":{"category":"shop","name":"Prêt à rouler","osm_id":5875657249}},{"type":"Feature","geometry":{"type":"Point","coordinates":[-52.3094276,4.9439887]},"properties":{"category":"compressed_air","osm_id":5994097610}},{"type":"Feature","geometry":{"type":"Point","coordinates":[-52.3267508,4.9320559]},"properties":{"category":"compressed_air","osm_id":5994106698}},{"type":"Feature","geometry":{"type":"Point","coordinates":[-52.3266713,4.9309166]},"properties":{"category":"compressed_air","osm_id":5994106699}},{"type":"Feature","geometry":{"type":"Point","coordinates":[-52.3245061,4.9248968]},"properties":{"category":"compressed_air","osm_id":5994106700}},{"type":"Feature","geometry":{"type":"Point","coordinates":[-52.3132728,4.9361168]},"properties":{"category":"compressed_air","osm_id":7248375913}},{"type":"Feature","geometry":{"type":"Point","coordinates":[-52.3148492,4.9364619]},"properties":{"category":"compressed_air","osm_id":7248375914}},{"type":"Feature","geometry":{"type":"Point","coordinates":[-52.3270621,4.9409691]},"properties":{"category":"shop","name":"Scoot Elec","osm_id":11483461387}},{"type":"Feature","geometry":{"type":"Point","coordinates":[-52.3208316,4.9046528]},"properties":{"category":"compressed_air","osm_id":11952194079}}]}