{"type":"FeatureCollection","features":[{"type":"Feature","geometry":{"type":"Point","coordinates":[1.387683,50.0659306]},"properties":{"category":"bakery","name":"Boulangerie du Littoral","opening_hours":"Th-Tu 06:30-19:00","osm_id":2239206898}},{"type":"Feature","geometry":{"type":"Point","coordinates":[1.3783374,50.0594656]},"properties":{"category":"bakery","name":"Fécamp","osm_id":5777079679}},{"type":"Feature","geometry":{"type":"Point","coordinates":[1.3713076,50.0613215]},"properties":{"category":"bakery","name":"Boulanger pâtissier","osm_id":5777079703}},{"type":"Feature","geometry":{"type":"Point","coordinates":[1.3829518,50.0665233]},"properties":{"category":"shop","name":"Cabine à Vél’eau","phone":"+33 2 35 50 17 89","website":"https://www.surf-paddle-mers.fr/","osm_id":6229306990}},{"type":"Feature","geometry":{"type":"Point","coordinates":[1.331521,50.0432244]},"properties":{"category":"bakery","name":"Boulangerie de la Plage","opening_hours":"Tu-Sa 07:00-13:00,15:30-19:00; Su 07:00-13:00","osm_id":6673675237}},{"type":"Feature","geometry":{"type":"Point","coordinates":[1.3703795,50.0614136]},"properties":{"category":"bakery","name":"Boulangerie Notre-Dame","opening_hours":"Fr-We 06:30-19:30","osm_id":7947044108}},{"type":"Feature","geometry":{"type":"Point","coordinates":[1.3962761,50.0324228]},"properties":{"category":"shop","name":"Le Bicloune","osm_id":9123849111}},{"type":"Feature","geometry":{"type":"Point","coordinates":[1.3864556,50.0672423]},"properties":{"category":"bakery","name":"Place des Délices","opening_hours":"Tu-Sa 07:00-13:00, 14:00-19:00; Su 07:00-13:00","osm_id":9664275017}},{"type":"Feature","geometry":{"type":"Point","coordinates":[1.3192883,50.0168607]},"properties":{"category":"bakery","name":"Boulangerie patisserie Gaudry","osm_id":12458576443}}]}