{"type":"FeatureCollection","features":[{"type":"Feature","geometry":{"type":"Point","coordinates":[4.7275537,50.08533]},"properties":{"category":"bakery","name":"Boulangerie","osm_id":10921483327}},{"type":"Feature","geometry":{"type":"Point","coordinates":[4.706327,50.010264]},"properties":{"category":"bakery","name":"La Pétrie","opening_hours":"Tu-Su 07:30-19:00","osm_id":10921487915}},{"type":"Feature","geometry":{"type":"Point","coordinates":[4.7277023,50.0841519]},"properties":{"category":"bakery","name":"Pâte à choux","opening_hours":"Mo-Sa 06:00-19:00","osm_id":11116013593}},{"type":"Feature","geometry":{"type":"Point","coordinates":[4.726733,50.0850152]},"properties":{"category":"repair","osm_id":14122918610}}]}