{"type":"FeatureCollection","features":[{"type":"Feature","geometry":{"type":"Point","coordinates":[1.5481515,50.08942]},"properties":{"category":"bakery","osm_id":11007192393}},{"type":"Feature","geometry":{"type":"Point","coordinates":[1.5522053,50.0910557]},"properties":{"category":"bakery","name":"Boulangerie Boutrouille","osm_id":11021686843}},{"type":"Feature","geometry":{"type":"Point","coordinates":[1.5750207,50.0672264]},"properties":{"category":"bakery","name":"La Huche picarde","osm_id":12084511939}},{"type":"Feature","geometry":{"type":"Point","coordinates":[1.5369607,50.0654291]},"properties":{"category":"bakery","name":"Place des Délices","osm_id":13093077977}},{"type":"Feature","geometry":{"type":"Point","coordinates":[1.5060225,50.0139165]},"properties":{"category":"repair","osm_id":13899248141}}]}