{"type":"FeatureCollection","features":[{"type":"Feature","geometry":{"type":"Point","coordinates":[1.406606,50.0593822]},"properties":{"category":"bakery","name":"Marie Blachère","opening_hours":"Mo-Sa 07:30-19:30; Su off","phone":"+33 2 32 14 22 29","website":"https://boulangeries.marieblachere.com/fr/france-FR/5179/marie-blachere-mers-les-bains/details","osm_id":6093127437}},{"type":"Feature","geometry":{"type":"Point","coordinates":[1.421043,50.0517611]},"properties":{"category":"bakery","name":"J&J Magnier","osm_id":6717998893}},{"type":"Feature","geometry":{"type":"Point","coordinates":[1.4207632,50.0506257]},"properties":{"category":"bakery","name":"Pâtissier boulanger Lefranc","osm_id":8244742754}},{"type":"Feature","geometry":{"type":"Point","coordinates":[1.420625,50.0485323]},"properties":{"category":"bakery","osm_id":8244742786}},{"type":"Feature","geometry":{"type":"Point","coordinates":[1.417147,50.0538156]},"properties":{"category":"shop","name":"Les 3 vélos","website":"https://www.normandie-tourisme.fr/activite/les-3-velos/","osm_id":8992784991}},{"type":"Feature","geometry":{"type":"Point","coordinates":[1.4195605,50.0458839]},"properties":{"category":"bakery","name":"Maison Landini","opening_hours":"Tu-Sa 06:00-20:00; Su 06:15-19:30","osm_id":9123860823}},{"type":"Feature","geometry":{"type":"Point","coordinates":[1.4189735,50.0471614]},"properties":{"category":"bakery","name":"La Caverne D'oli Bonbon","osm_id":14123879171}},{"type":"Feature","geometry":{"type":"Point","coordinates":[1.4190495,50.0475237]},"properties":{"category":"bakery","name":"Marine & Alexandre Pochon","osm_id":14123879173}},{"type":"Feature","geometry":{"type":"Point","coordinates":[1.4189622,50.0468722]},"properties":{"category":"bakery","name":"Artisan Boulanger Pâtissier Demare Franck","osm_id":14123879176}}]}