{"type":"FeatureCollection","features":[{"type":"Feature","geometry":{"type":"Point","coordinates":[2.6502269,50.0025581]},"properties":{"category":"shop","name":"MBK Brasselet Tony Agent","opening_hours":"Tu-Sa 09:00-12:00,14:00-18:30; Su,Mo off","phone":"+33 3 22 75 05 11","website":"https://brasselettony.site-solocal.com/","osm_id":4561526340}},{"type":"Feature","geometry":{"type":"Point","coordinates":[2.6466478,50.0050741]},"properties":{"category":"shop","name":"Méli-vélos","osm_id":12167701717}},{"type":"Feature","geometry":{"type":"Point","coordinates":[2.6876107,50.0525787]},"properties":{"category":"repair","osm_id":14058348723}}]}