{"type":"FeatureCollection","features":[{"type":"Feature","geometry":{"type":"Point","coordinates":[1.862801,50.0993683]},"properties":{"category":"bakery","name":"Sophie Lebreuilly","opening_hours":"Mo-Su 06:30-20:00","phone":"+33 3 22 20 48 69","website":"https://commandes.sophie-lebreuilly.com/fr-fr/sophielebreuilly-abbeville/info/time","osm_id":6522722472}},{"type":"Feature","geometry":{"type":"Point","coordinates":[1.8697235,50.0965159]},"properties":{"category":"shop","name":"Cycles Fred","phone":"+33 3 22 31 48 56","website":"https://www.cyclesfred.com/","osm_id":7522884903}}]}