{"type":"FeatureCollection","features":[{"type":"Feature","geometry":{"type":"Point","coordinates":[2.124347,50.0736642]},"properties":{"category":"bakery","name":"Boulangerie de Domart","opening_hours":"Mo off; Tu-Sa 05:30-18:00; Su 05:30-12:30","phone":"+33 3 22 09 25 49","website":"https://horaires.lefigaro.fr/80620/Domart-en-Ponthieu/Serret-Jean-Domart-en-Ponthieu-29-Rue-Gaston-Morin,293879.html","osm_id":2578087976}},{"type":"Feature","geometry":{"type":"Point","coordinates":[2.1955403,50.0094006]},"properties":{"category":"bakery","name":"Zest de Gourmandise","opening_hours":"Mo off; Tu-Sa 05:00-19:00; Su 06:00-13:00","phone":"+33 3 22 52 82 57","osm_id":9453630736}}]}