{"type":"FeatureCollection","features":[{"type":"Feature","geometry":{"type":"Point","coordinates":[4.0406657,50.0158063]},"properties":{"category":"bakery","name":"Le Four à Bois","opening_hours":"Mo-Fr 06:30-19:00; Sa 06:30-13:00; Su off","phone":"+33 3 27 65 36 78","osm_id":4264781837}},{"type":"Feature","geometry":{"type":"Point","coordinates":[4.0419148,50.0157554]},"properties":{"category":"bakery","name":"Pâtisserie Au Palais d'Or","osm_id":4265007408}},{"type":"Feature","geometry":{"type":"Point","coordinates":[4.0441381,50.0147642]},"properties":{"category":"bakery","name":"Boulangerie Meurant","opening_hours":"Mo off; Tu-Sa 06:00-12:30,15:00-19:00; Su 06:00-12:00","phone":"+33 3 27 60 02 42","osm_id":4265007424}},{"type":"Feature","geometry":{"type":"Point","coordinates":[4.0460057,50.0157036]},"properties":{"category":"bakery","name":"La Grange Aux Pains","opening_hours":"Mo off; Tu-Sa 06:30-19:00; Su 06:30-15:00","phone":"+33 3 27 60 13 06","osm_id":4265149878}},{"type":"Feature","geometry":{"type":"Point","coordinates":[4.0450881,50.0158495]},"properties":{"category":"bakery","name":"Boulangerie La Fourmisienne","opening_hours":"Mo,We-Su 06:30-19:00; Tu off","phone":"+33 3 27 60 37 80","osm_id":4265150607}},{"type":"Feature","geometry":{"type":"Point","coordinates":[4.0594807,50.0149965]},"properties":{"category":"bakery","osm_id":4266779930}},{"type":"Feature","geometry":{"type":"Point","coordinates":[4.0561906,50.0193008]},"properties":{"category":"bakery","name":"Barbet","osm_id":4268448631}},{"type":"Feature","geometry":{"type":"Point","coordinates":[4.0608126,50.0075831]},"properties":{"category":"shop","name":"Base de loisirs des Etangs des Moines - Location de vélos","osm_id":4557383114}},{"type":"Feature","geometry":{"type":"Point","coordinates":[4.043846,50.0181206]},"properties":{"category":"shop","name":"Maison de la mobilité de Fourmies","osm_id":5641853629}},{"type":"Feature","geometry":{"type":"Point","coordinates":[4.036302,50.0222414]},"properties":{"category":"bakery","name":"Au Plaisir du Goût","opening_hours":"Mo-Fr 05:30-19:30; Sa 05:30-19:00; Su off","phone":"+33 3 61 95 10 12","osm_id":10802252916}},{"type":"Feature","geometry":{"type":"Point","coordinates":[4.0016983,50.0889508]},"properties":{"category":"bakery","osm_id":12901930843}},{"type":"Feature","geometry":{"type":"Point","coordinates":[4.0399632,50.0145004]},"properties":{"category":"bakery","name":"Boulangerie Larzillière","opening_hours":"Mo-Sa 06:00-18:30; Su off","phone":"+33 3 27 60 29 55","osm_id":13251297551}},{"type":"Feature","geometry":{"type":"Point","coordinates":[4.0018937,50.0177071]},"properties":{"category":"bakery","name":"Le Fournil D’or","opening_hours":"Mo-Sa 06:00-19:00; Su 06:00-13:00","phone":"+33 7 81 72 16 04","osm_id":13251388577}},{"type":"Feature","geometry":{"type":"Point","coordinates":[4.0064133,50.0163891]},"properties":{"category":"bakery","name":"Boulangerie Sellier","opening_hours":"Mo off; Tu-Fr 06:30-19:00; Sa 06:30-18:30; Su 06:30-13:30","phone":"+33 3 27 60 10 90","osm_id":13251402997}},{"type":"Feature","geometry":{"type":"Point","coordinates":[4.0745437,50.0575115]},"properties":{"category":"bakery","name":"L'Atelier des Pains","opening_hours":"Mo-Sa 06:00-19:00; Su 06:00-13:00","phone":"+33 3 27 57 56 91","osm_id":13251407961}},{"type":"Feature","geometry":{"type":"Point","coordinates":[4.0633778,50.0078616]},"properties":{"category":"repair","osm_id":13977905455}}]}