{"type":"FeatureCollection","features":[{"type":"Feature","geometry":{"type":"Point","coordinates":[3.7857545,50.0167956]},"properties":{"category":"bakery","name":"Au Pain de Benjamin","opening_hours":"Mo-Fr 05:00-19:30; Sa 05:00-19:00; Su off","phone":"+33 3 23 98 82 20","osm_id":2018131647}},{"type":"Feature","geometry":{"type":"Point","coordinates":[3.7835094,50.014397]},"properties":{"category":"bakery","name":"Boulangerie Copin","opening_hours":"Mo off; Tu-Sa 07:00-20:00; Su 09:00-20:00","phone":"+33 3 23 97 00 34","osm_id":13238580774}}]}