{"type":"FeatureCollection","features":[{"type":"Feature","geometry":{"type":"Point","coordinates":[3.1586524,50.1665254]},"properties":{"category":"bakery","name":"Boulangerie Lemaire Sueur","opening_hours":"Mo off; Tu-Fr 05:30-19:00; Sa 06:00-13:30; Su 06:00-13:00","phone":"+33 3 27 79 35 10","osm_id":1366851123}},{"type":"Feature","geometry":{"type":"Point","coordinates":[3.1731013,50.1243747]},"properties":{"category":"shop","name":"Magasin Cycles Romain Baele","opening_hours":"Tu-Sa 09:00-12:30,14:00-18:30","phone":"+33 3 27 37 53 58","osm_id":7523156058}},{"type":"Feature","geometry":{"type":"Point","coordinates":[3.1168899,50.1769957]},"properties":{"category":"bakery","osm_id":12542548547}},{"type":"Feature","geometry":{"type":"Point","coordinates":[3.1830458,50.1242037]},"properties":{"category":"repair","osm_id":13537435141}}]}