{"type":"FeatureCollection","features":[{"type":"Feature","geometry":{"type":"Point","coordinates":[1.6484668,50.1746244]},"properties":{"category":"shop","name":"Location de Vélos - Garage St Val","website":"https://www.somme-tourisme.com/location-de-velos-garage-st-val/saint-valery-sur-somme/ascpic080v5080q3","osm_id":5926323231}},{"type":"Feature","geometry":{"type":"Point","coordinates":[1.6565914,50.174055]},"properties":{"category":"shop","name":"Les locations du canal","website":"http://www.leslocationsducanal.fr/","osm_id":5926333967}},{"type":"Feature","geometry":{"type":"Point","coordinates":[1.6431095,50.1848733]},"properties":{"category":"shop","name":"Location de vélos Noshoes","website":"https://www.noshoes.fr/velosdeplage","osm_id":5926342079}},{"type":"Feature","geometry":{"type":"Point","coordinates":[1.6491482,50.1716781]},"properties":{"category":"compressed_air","osm_id":11147915389}}]}