{"type":"FeatureCollection","features":[{"type":"Feature","geometry":{"type":"Point","coordinates":[3.2268193,50.1765196]},"properties":{"category":"bakery","name":"Le Fournil de Cantimpré","opening_hours":"Mo-Tu,Th-Fr 07:00-19:00; Sa 07:00-13:00,15:00-19:00; Su 07:00-13:00; We off","phone":"+33 3 27 81 21 78","osm_id":1338504834}},{"type":"Feature","geometry":{"type":"Point","coordinates":[3.2410635,50.1815075]},"properties":{"category":"bakery","name":"Au Pain d'Antan","opening_hours":"Tu,Th-Fr 07:00-13:00; Sa 07:00-12:30; Su 07:30-12:30, Mo,We off","phone":"+33 3 27 81 43 85","osm_id":5453707121}},{"type":"Feature","geometry":{"type":"Point","coordinates":[3.2320434,50.1720138]},"properties":{"category":"bakery","name":"L'art du pain","opening_hours":"We-Mo 06:00-20:30","phone":"+33 3 27 81 31 43","osm_id":6098831926}},{"type":"Feature","geometry":{"type":"Point","coordinates":[3.2336051,50.1746399]},"properties":{"category":"bakery","name":"Douceurs Gourmandes","opening_hours":"Mo off; Tu-Sa 07:00-19:15; Su 07:00-12:30","phone":"+33 3 27 81 21 23","osm_id":6098832095}},{"type":"Feature","geometry":{"type":"Point","coordinates":[3.2316653,50.1762205]},"properties":{"category":"bakery","name":"Aux Délices","opening_hours":"Tu-Fr 07:30-12:45,14:30-19:00; Sa 07:30-12:45,14:30-18:45; Su 07:30-12:45","phone":"+33 3 27 78 66 59","osm_id":6099536919}},{"type":"Feature","geometry":{"type":"Point","coordinates":[3.2338911,50.1753226]},"properties":{"category":"bakery","name":"La Mie Câline","opening_hours":"PH,Mo-Su 07:00-19:30; Dec 24,31 07:00-17:15; Dec 25 off","phone":"+33 3 27 78 19 33","website":"https://www.lamiecaline.com/boutiques/cambrai/","osm_id":6099536965}},{"type":"Feature","geometry":{"type":"Point","coordinates":[3.2525336,50.176125]},"properties":{"category":"bakery","name":"Hubert","opening_hours":"Mo-Fr 07:00-19:00; Sa 07:00-17:00","phone":"+33 3 27 83 93 95","osm_id":6227294332}},{"type":"Feature","geometry":{"type":"Point","coordinates":[3.2537206,50.1724653]},"properties":{"category":"bakery","name":"Au Fournil 436","opening_hours":"Tu-Sa 06:00-19:30; Su 06:00-13:00,16:00-19:30","phone":"+33 9 72 98 16 44","osm_id":6244382440}},{"type":"Feature","geometry":{"type":"Point","coordinates":[3.2593762,50.1614987]},"properties":{"category":"bakery","name":"Boulangerie-Pâtisserie Daanen Laurent et Maria","opening_hours":"Tu-Sa 06:30-12:30,15:00-19:00","phone":"+33 3 27 81 44 43","osm_id":6781052254}},{"type":"Feature","geometry":{"type":"Point","coordinates":[3.2179799,50.1497831]},"properties":{"category":"bakery","name":"Marie Blachère","opening_hours":"Mo-Sa 07:00-19:30","phone":"+33 3 27 72 14 62","website":"https://boulangeries.marieblachere.com/fr/france-FR/5279/marie-blachere-proville/details","osm_id":7274295086}},{"type":"Feature","geometry":{"type":"Point","coordinates":[3.2217397,50.1519773]},"properties":{"category":"bakery","name":"Boulangerie Louise","opening_hours":"Mo-Sa 06:30-19:30","phone":"+33 9 66 91 97 54","website":"https://www.boulangerielouise.com/boulangerie/boulangerie-louise-cambrai/","osm_id":7274295088}},{"type":"Feature","geometry":{"type":"Point","coordinates":[3.2233995,50.1566153]},"properties":{"category":"shop","name":"Cycles 2000","opening_hours":"Tu-Fr 09:00-12:00,14:00-18:45; Sa 09:00-12:00,14:00-18:00","phone":"+33 3 27 78 40 21","osm_id":7577361553}},{"type":"Feature","geometry":{"type":"Point","coordinates":[3.2315949,50.1713949]},"properties":{"category":"bakery","name":"Au boulot de Mick","opening_hours":"Mo-Sa 07:00-20:00; Su 07:00-13:00","phone":"+33 3 27 72 04 69","website":"https://boulotdemick.fr/","osm_id":7578013604}},{"type":"Feature","geometry":{"type":"Point","coordinates":[3.2401797,50.176953]},"properties":{"category":"bakery","name":"Le Fournil de Pierre-Antoine","opening_hours":"Mo-Sa 03:30-18:30; Su off","phone":"+33 3 27 78 37 18","osm_id":7702454786}},{"type":"Feature","geometry":{"type":"Point","coordinates":[3.2224583,50.1876816]},"properties":{"category":"bakery","name":"Au Pain des Miss","opening_hours":"Mo-Fr 06:00-19:00; Sa 06:00-13:00; Su off","phone":"+33 3 27 78 38 84","osm_id":7981627610}},{"type":"Feature","geometry":{"type":"Point","coordinates":[3.230638,50.1808643]},"properties":{"category":"bakery","name":"Boulangerie Lhote","opening_hours":"Mo-Fr 07:00-13:30,16:00-19:00; Sa 07:00-13:00","phone":"+33 3 27 37 30 28","osm_id":8180051274}},{"type":"Feature","geometry":{"type":"Point","coordinates":[3.207464,50.1632573]},"properties":{"category":"bakery","name":"La boulangerie de Proville","opening_hours":"Tu-Fr 07:00-12:30,15:30-18:30; Sa,Su 07:00-12:00; PH off","phone":"+33 3 60 35 73 69","osm_id":10968310868}},{"type":"Feature","geometry":{"type":"Point","coordinates":[3.2433419,50.185514]},"properties":{"category":"bakery","name":"Boulangerie Délices de Saint-Roch","opening_hours":"Mo-Fr,Su 10:00-22:00; Sa off","phone":"+33 9 87 30 61 68","osm_id":11531352395}},{"type":"Feature","geometry":{"type":"Point","coordinates":[3.2417971,50.1762801]},"properties":{"category":"shop","name":"Solimob Vélo","opening_hours":"Mo-Fr 09:00-12:00,13:30-17:30","phone":"+33 681065929","website":"https://solimob.fr/","osm_id":12256431630}},{"type":"Feature","geometry":{"type":"Point","coordinates":[3.2130845,50.1935719]},"properties":{"category":"compressed_air","osm_id":12918163731}},{"type":"Feature","geometry":{"type":"Point","coordinates":[3.2618102,50.1715319]},"properties":{"category":"bakery","name":"La baguette du coin","opening_hours":"07:00-20:00; We off","phone":"+33 9 56 16 27 01","osm_id":13074938265}},{"type":"Feature","geometry":{"type":"Point","coordinates":[3.2485144,50.1752357]},"properties":{"category":"compressed_air","osm_id":13183497319}},{"type":"Feature","geometry":{"type":"Point","coordinates":[3.2221035,50.148812]},"properties":{"category":"compressed_air","osm_id":13423293366}},{"type":"Feature","geometry":{"type":"Point","coordinates":[3.2324213,50.1866784]},"properties":{"category":"repair","osm_id":13448910030}},{"type":"Feature","geometry":{"type":"Point","coordinates":[3.2197009,50.1747445]},"properties":{"category":"repair","osm_id":13451382928}},{"type":"Feature","geometry":{"type":"Point","coordinates":[3.2286917,50.1867289]},"properties":{"category":"bakery","name":"Sophie Lebreuilly","opening_hours":"Mo-Su 06:30-20:00; PH 06:30-20:00; May 01 07:00-19:00; Jan 01,Dec 25 off; Dec 24,31 06:30-17:00","phone":"+33 3 21 81 15 35","website":"https://sophie-lebreuilly.com/","osm_id":13479733819}},{"type":"Feature","geometry":{"type":"Point","coordinates":[3.2269262,50.1816413]},"properties":{"category":"bakery","name":"Au pain de Cambrai","opening_hours":"Mo-Su 06:30-20:00","phone":"+33 3 61 41 18 48","osm_id":13708751137}},{"type":"Feature","geometry":{"type":"Point","coordinates":[3.2384236,50.1669655]},"properties":{"category":"compressed_air","osm_id":13785126151}},{"type":"Feature","geometry":{"type":"Point","coordinates":[3.2542348,50.1845799]},"properties":{"category":"compressed_air","osm_id":14057099717}},{"type":"Feature","geometry":{"type":"Point","coordinates":[3.2320169,50.1695827]},"properties":{"category":"compressed_air","osm_id":14116337226}},{"type":"Feature","geometry":{"type":"Point","coordinates":[3.217579,50.1781925]},"properties":{"category":"bakery","name":"Boulangerie Ange","opening_hours":"Mo-Sa 06:30-20:00; Su off","phone":"+33 3 27 70 99 58","website":"https://www.boulangerie-ange.fr/stores/boulangerie-ange-cambrai","osm_id":14133976146}}]}