{"type":"FeatureCollection","features":[{"type":"Feature","geometry":{"type":"Point","coordinates":[1.8268888,50.1038273]},"properties":{"category":"shop","name":"Vélo 80","phone":"+33 3 22 19 48 14","osm_id":5041849816}},{"type":"Feature","geometry":{"type":"Point","coordinates":[1.830922,50.1094304]},"properties":{"category":"shop","name":"NCcycle","phone":"+33 6 23 56 82 65","osm_id":6560329684}},{"type":"Feature","geometry":{"type":"Point","coordinates":[1.831871,50.1084715]},"properties":{"category":"shop","name":"NCCycles","phone":"+33 6 23 56 82 65","osm_id":13098154822}}]}