{"type":"FeatureCollection","features":[{"type":"Feature","geometry":{"type":"Point","coordinates":[4.806693,50.1027679]},"properties":{"category":"bakery","name":"Aux saveurs de Marie-Danielle","osm_id":5159353702}},{"type":"Feature","geometry":{"type":"Point","coordinates":[4.8237329,50.1355477]},"properties":{"category":"bakery","name":"Aux délices de la Tour","osm_id":5206948617}},{"type":"Feature","geometry":{"type":"Point","coordinates":[4.8477431,50.1338864]},"properties":{"category":"bakery","name":"Marie Blachère","osm_id":8440248395}},{"type":"Feature","geometry":{"type":"Point","coordinates":[4.8252483,50.1340897]},"properties":{"category":"repair","osm_id":10606388077}},{"type":"Feature","geometry":{"type":"Point","coordinates":[4.8252441,50.1340858]},"properties":{"category":"compressed_air","osm_id":10606388079}},{"type":"Feature","geometry":{"type":"Point","coordinates":[4.8182119,50.1399103]},"properties":{"category":"repair","osm_id":10911700585}}]}