{"type":"FeatureCollection","features":[{"type":"Feature","geometry":{"type":"Point","coordinates":[1.497418,50.1833111]},"properties":{"category":"bakery","name":"Chez Hélène","opening_hours":"PH,Tu-Su 07:30-13:00,15:30-19:00","osm_id":3328924985}},{"type":"Feature","geometry":{"type":"Point","coordinates":[1.4947373,50.1822385]},"properties":{"category":"bakery","name":"Boulangerie Maison Fréville","osm_id":5085676938}},{"type":"Feature","geometry":{"type":"Point","coordinates":[1.4468797,50.1011918]},"properties":{"category":"bakery","name":"Le Gerbe de Ble","osm_id":5101510490}},{"type":"Feature","geometry":{"type":"Point","coordinates":[1.4948332,50.1822446]},"properties":{"category":"shop","name":"Robart David","osm_id":7522879549}},{"type":"Feature","geometry":{"type":"Point","coordinates":[1.4945473,50.1830941]},"properties":{"category":"shop","osm_id":12062776474}},{"type":"Feature","geometry":{"type":"Point","coordinates":[1.4493008,50.100741]},"properties":{"category":"bakery","name":"La Falaise gourmande","osm_id":13759795855}}]}