{"type":"FeatureCollection","features":[{"type":"Feature","geometry":{"type":"Point","coordinates":[3.8496783,50.2031609]},"properties":{"category":"bakery","name":"Boulangerie Patisserie Chocolaterie Traiteur","opening_hours":"Mo-Fr 06:00-13:00,14:30-19:00; We off; Sa 07:00-13:00,14:30-19:00; Su 07:00-12:30","osm_id":3715485009}},{"type":"Feature","geometry":{"type":"Point","coordinates":[3.8561557,50.2895405]},"properties":{"category":"shop","name":"Cycles Michel Mtonvelo","website":"https://www.cycles-lapierre.fr/mtonvelo","osm_id":4552041478}},{"type":"Feature","geometry":{"type":"Point","coordinates":[3.818974,50.2713072]},"properties":{"category":"shop","name":"Cycles Dubreucq","osm_id":4552046730}},{"type":"Feature","geometry":{"type":"Point","coordinates":[3.852664,50.2213067]},"properties":{"category":"shop","name":"Duat_Mag","phone":"+33 3 27 59 89 17","osm_id":6247331348}},{"type":"Feature","geometry":{"type":"Point","coordinates":[3.8133021,50.2036252]},"properties":{"category":"shop","name":"Cycles Pagliccia","osm_id":7950836022}},{"type":"Feature","geometry":{"type":"Point","coordinates":[3.8241464,50.2026674]},"properties":{"category":"bakery","name":"Au Pain du Vieil Aulnoye","osm_id":10799099831}},{"type":"Feature","geometry":{"type":"Point","coordinates":[3.8186498,50.2040229]},"properties":{"category":"bakery","name":"Boulangerie Federbe","osm_id":13827217670}},{"type":"Feature","geometry":{"type":"Point","coordinates":[3.8567606,50.2896229]},"properties":{"category":"bakery","name":"Le pain d'ici","osm_id":13926932183}},{"type":"Feature","geometry":{"type":"Point","coordinates":[3.8450464,50.2217717]},"properties":{"category":"bakery","name":"Le Fournil de Pont","osm_id":14069965313}}]}