{"type":"FeatureCollection","features":[{"type":"Feature","geometry":{"type":"Point","coordinates":[1.6270771,50.2151469]},"properties":{"category":"bakery","name":"Au Bon Pain d'Autrefois","opening_hours":"Mo-Tu,Th-Su 07:00-19:00","phone":"+33 3 60 26 97 32","osm_id":1310079278}},{"type":"Feature","geometry":{"type":"Point","coordinates":[1.624965,50.2158239]},"properties":{"category":"bakery","name":"Au Pain Doré","opening_hours":"closed","phone":"+33 3 22 27 81 78","osm_id":1310146716}},{"type":"Feature","geometry":{"type":"Point","coordinates":[1.623434,50.2170042]},"properties":{"category":"bakery","name":"Boulangerie Amienoise","opening_hours":"closed","osm_id":1310546392}},{"type":"Feature","geometry":{"type":"Point","coordinates":[1.6274054,50.2150041]},"properties":{"category":"shop","name":"Top Garage","osm_id":4557295967}},{"type":"Feature","geometry":{"type":"Point","coordinates":[1.6262187,50.2153257]},"properties":{"category":"shop","name":"Location de vélos - Noshoes Le Crotoy","opening_hours":"Mo-Sa 10:00-13:00,15:00-19:00","osm_id":4557300015}},{"type":"Feature","geometry":{"type":"Point","coordinates":[1.666413,50.2642314]},"properties":{"category":"shop","name":"Ets Ridoux","osm_id":4557342214}},{"type":"Feature","geometry":{"type":"Point","coordinates":[1.6256366,50.2151231]},"properties":{"category":"bakery","name":"Boulangerie de la Mairie","opening_hours":"Mo,We-Su 07:00-13:00,15:00-18:30","osm_id":5041749814}},{"type":"Feature","geometry":{"type":"Point","coordinates":[1.6741993,50.2716537]},"properties":{"category":"bakery","name":"Thillard","opening_hours":"Mo-Sa 07:00-19:00; Su 07:00-13:00","osm_id":5085590914}},{"type":"Feature","geometry":{"type":"Point","coordinates":[1.670004,50.2716855]},"properties":{"category":"bakery","name":"Boulangerie Pâtisserie Lherbier","osm_id":5085624916}},{"type":"Feature","geometry":{"type":"Point","coordinates":[1.6708449,50.2713504]},"properties":{"category":"bakery","name":"Aux Délices de Rue","osm_id":5085625121}},{"type":"Feature","geometry":{"type":"Point","coordinates":[1.6680502,50.2732208]},"properties":{"category":"bakery","name":"Boulangerie Pâtisserie du Beffroi","opening_hours":"Mo,We-Sa 06:00-17:00; Su 06:00-12:00","osm_id":5085635172}},{"type":"Feature","geometry":{"type":"Point","coordinates":[1.6180927,50.2426082]},"properties":{"category":"shop","name":"Vélibaie de Somme","phone":"+33 6 72 89 58 15","website":"https://www.somme-tourisme.com/velibaie-de-somme/le-crotoy/ascpic080v50dto2","osm_id":6229330740}},{"type":"Feature","geometry":{"type":"Point","coordinates":[1.6671915,50.2659447]},"properties":{"category":"shop","name":"Cycles baie","phone":"+33 3 22 25 65 45","website":"https://www.facebook.com/Cycles-Baie-101875311372203/","osm_id":7522850809}},{"type":"Feature","geometry":{"type":"Point","coordinates":[1.6231055,50.2162166]},"properties":{"category":"bakery","name":"Boulangerie Victor Florent","opening_hours":"Mo-Su 07:15-19:00; Jul-Aug 07:00-20:00","website":"https://www.victorflorent.fr/","osm_id":10056030865}}]}