{"type":"FeatureCollection","features":[{"type":"Feature","geometry":{"type":"Point","coordinates":[2.872021,50.2470205]},"properties":{"category":"bakery","name":"Boulangerie Croc Miam","website":"https://www.arraspaysdartois.com/commerces-services/boulangerie-croc-miam/","osm_id":4440636891}},{"type":"Feature","geometry":{"type":"Point","coordinates":[2.8004207,50.2696509]},"properties":{"category":"bakery","name":"Boulangerie Louise","osm_id":7397634457}},{"type":"Feature","geometry":{"type":"Point","coordinates":[2.8002477,50.263915]},"properties":{"category":"bakery","name":"Boulangerie Morgan & Co","website":"https://boulangerie-morganandco.fr/","osm_id":7417616843}},{"type":"Feature","geometry":{"type":"Point","coordinates":[2.8128008,50.2144656]},"properties":{"category":"bakery","name":"Boulangerie Pâtisserie Balavoine","opening_hours":"Tu-Fr 05:30-13:30,15:30-19:30; Sa 06:00-13:30,15:30-19:00; Su 07:00-13:00","phone":"+33 3 21 48 31 55","osm_id":8120992597}},{"type":"Feature","geometry":{"type":"Point","coordinates":[2.8010218,50.2994338]},"properties":{"category":"repair","opening_hours":"24/7","osm_id":9835836737}},{"type":"Feature","geometry":{"type":"Point","coordinates":[2.8184173,50.2789229]},"properties":{"category":"shop","name":"f.e.lvelopourtous","opening_hours":"Mo-Fr 09:00-19:00; Sa 09:00-18:00","phone":"+33 7 45 02 08 02","osm_id":10810818592}},{"type":"Feature","geometry":{"type":"Point","coordinates":[2.8175057,50.2755369]},"properties":{"category":"bakery","name":"Aux Tentations de Philippe","osm_id":11611355239}},{"type":"Feature","geometry":{"type":"Point","coordinates":[2.8982019,50.2942839]},"properties":{"category":"bakery","name":"Boulangerie Bertrand et Vanessa Chrétien","opening_hours":"Mo,Tu,Th-Sa 06:00-19:00; Su 07:00-13:00","osm_id":12919639844}}]}