{"type":"FeatureCollection","features":[{"type":"Feature","geometry":{"type":"Point","coordinates":[3.6403277,50.2465672]},"properties":{"category":"shop","name":"Office de tourisme du Quesnoy","osm_id":5363877001}},{"type":"Feature","geometry":{"type":"Point","coordinates":[3.6428774,50.2255714]},"properties":{"category":"bakery","name":"La Pétrie","osm_id":5843492392}},{"type":"Feature","geometry":{"type":"Point","coordinates":[3.6300316,50.2763093]},"properties":{"category":"shop","name":"Trockbike","phone":"+33 3 27 32 23 81","osm_id":7523117433}},{"type":"Feature","geometry":{"type":"Point","coordinates":[3.6311074,50.2581774]},"properties":{"category":"shop","name":"Mondovélo","website":"https://www.sport2000.fr/chain/mondovelo","osm_id":12127946515}},{"type":"Feature","geometry":{"type":"Point","coordinates":[3.6377816,50.2474118]},"properties":{"category":"bakery","name":"Boulangerie Mercier Valéry","opening_hours":"Tu-Sa 07:00-19:00","phone":"+33327490759","osm_id":12437918801}},{"type":"Feature","geometry":{"type":"Point","coordinates":[3.6142587,50.2847122]},"properties":{"category":"bakery","osm_id":13048301422}},{"type":"Feature","geometry":{"type":"Point","coordinates":[3.6391084,50.2472038]},"properties":{"category":"bakery","name":"Epistar","osm_id":13955312540}}]}