{"type":"FeatureCollection","features":[{"type":"Feature","geometry":{"type":"Point","coordinates":[3.6060552,50.3801526]},"properties":{"category":"compressed_air","osm_id":11083972707}},{"type":"Feature","geometry":{"type":"Point","coordinates":[3.644833,50.3431804]},"properties":{"category":"bakery","name":"Aux Pains du Moulin","osm_id":11231226113}},{"type":"Feature","geometry":{"type":"Point","coordinates":[3.6281566,50.3106411]},"properties":{"category":"bakery","name":"Maison Boulloigne","opening_hours":"Tu-Sa 07:00-19:00; Su 07:00-13:00","phone":"+33 327490858","osm_id":12434170601}},{"type":"Feature","geometry":{"type":"Point","coordinates":[3.6686023,50.3990353]},"properties":{"category":"bakery","osm_id":12982648724}}]}