{"type":"FeatureCollection","features":[{"type":"Feature","geometry":{"type":"Point","coordinates":[2.904555,50.3950969]},"properties":{"category":"bakery","name":"Boulangerie Dupont","opening_hours":"Mo off; Tu-Sa 06:00-12:30,15:00-19:00; Su 06:00-12:30","phone":"+33 3 21 20 07 25","osm_id":1179333384}},{"type":"Feature","geometry":{"type":"Point","coordinates":[2.9240015,50.3076528]},"properties":{"category":"shop","name":"La Rustine Mobile","osm_id":4550666678}},{"type":"Feature","geometry":{"type":"Point","coordinates":[2.9752202,50.3998906]},"properties":{"category":"bakery","name":"Marie Blachère","opening_hours":"Mo-Sa 07:30-19:30; Su off","phone":"+33 3 21 13 69 52","website":"https://boulangeries.marieblachere.com/fr/france-FR/5285/marie-blachere-henin-beaumont/details","osm_id":10132652994}},{"type":"Feature","geometry":{"type":"Point","coordinates":[2.9725771,50.3978287]},"properties":{"category":"bakery","name":"Boulangerie Louise","opening_hours":"Mo-Sa 06:30-20:00; Su 08:00-12:30","phone":"+33 9 67 21 28 78","website":"https://www.boulangerielouise.com/boulangerie/boulangerie-louise-henin-beaumont/","osm_id":10132696569}},{"type":"Feature","geometry":{"type":"Point","coordinates":[2.9824846,50.3262027]},"properties":{"category":"bakery","osm_id":11038773136}},{"type":"Feature","geometry":{"type":"Point","coordinates":[2.9291332,50.3345832]},"properties":{"category":"bakery","name":"L'atelier Tom","osm_id":12730641998}},{"type":"Feature","geometry":{"type":"Point","coordinates":[2.9814349,50.3255392]},"properties":{"category":"bakery","osm_id":12730679301}},{"type":"Feature","geometry":{"type":"Point","coordinates":[2.9838251,50.3265378]},"properties":{"category":"shop","name":"Cycles Stienne Corenflos","phone":"+33 3 21 50 04 18","website":"https://www.facebook.com/profile.php?id=100075836925583","osm_id":12829869532}}]}