{"type":"FeatureCollection","features":[{"type":"Feature","geometry":{"type":"Point","coordinates":[2.6118918,50.3065378]},"properties":{"category":"bakery","name":"Du Pain sur la Planche Dominique","osm_id":2096347863}},{"type":"Feature","geometry":{"type":"Point","coordinates":[2.6567747,50.3072607]},"properties":{"category":"bakery","name":"La Grange O Pains","website":"https://lagrangeopains.site-solocal.com/","osm_id":2597023365}},{"type":"Feature","geometry":{"type":"Point","coordinates":[2.6128264,50.3953294]},"properties":{"category":"bakery","name":"Au Pain Doré","osm_id":11874581607}},{"type":"Feature","geometry":{"type":"Point","coordinates":[2.6560776,50.3491018]},"properties":{"category":"bakery","name":"Du Pain sur la Planche","website":"http://www.dupainsurlaplanche.fr/","osm_id":13812952415}}]}