{"type":"FeatureCollection","features":[{"type":"Feature","geometry":{"type":"Point","coordinates":[3.3538016,50.3151806]},"properties":{"category":"shop","name":"Cycles Robert Mintkewicz","osm_id":4551966138}},{"type":"Feature","geometry":{"type":"Point","coordinates":[3.3851425,50.3265078]},"properties":{"category":"bakery","name":"Marie Blachère","opening_hours":"Mo-Sa 06:30-19:30; Su off","phone":"+33 3 27 44 45 66","website":"https://boulangeries.marieblachere.com/fr/france-FR/5095/marie-blachere-denain/details","osm_id":5065851919}},{"type":"Feature","geometry":{"type":"Point","coordinates":[3.3893197,50.3726519]},"properties":{"category":"bakery","name":"Banette","opening_hours":"Tu-Sa 07:00-19:00; Su 07:00-13:00","osm_id":7452381466}},{"type":"Feature","geometry":{"type":"Point","coordinates":[3.353139,50.3149369]},"properties":{"category":"bakery","name":"Boulangerie Pâtisserie","osm_id":8089257819}},{"type":"Feature","geometry":{"type":"Point","coordinates":[3.3902887,50.3263627]},"properties":{"category":"bakery","name":"Boulangerie Villars","osm_id":12620312548}},{"type":"Feature","geometry":{"type":"Point","coordinates":[3.3962358,50.3269235]},"properties":{"category":"bakery","name":"Le blé délice","osm_id":12625428852}},{"type":"Feature","geometry":{"type":"Point","coordinates":[3.3836375,50.3255127]},"properties":{"category":"bakery","name":"Sophie Lebreuilly","opening_hours":"Mo-Su 06:30-20:00","phone":"+33 3 21 81 21 35","website":"https://commandes.sophie-lebreuilly.com/fr-fr/sophielebreuillydenain/info/time","osm_id":12692542626}},{"type":"Feature","geometry":{"type":"Point","coordinates":[3.346793,50.3331303]},"properties":{"category":"bakery","name":"Le Fournil Saint-Pierre","opening_hours":"Mo,We-Sa 06:30-19:30; Su 06:30-13:00; Tu off","phone":"+33 3 59 61 51 51","website":"https://www.fournilsaintpierre.fr/","osm_id":13261050502}}]}