{"type":"FeatureCollection","features":[{"type":"Feature","geometry":{"type":"Point","coordinates":[2.7468863,50.3005754]},"properties":{"category":"bakery","osm_id":2941077068}},{"type":"Feature","geometry":{"type":"Point","coordinates":[2.74935,50.3112934]},"properties":{"category":"bakery","name":"Boulangerie","opening_hours":"Tu-Sa 06:30-13:00,15:00-19:30, Su,PH 06:30-13:00","phone":"+33 3 21 48 95 75","osm_id":3871381834}},{"type":"Feature","geometry":{"type":"Point","coordinates":[2.7338684,50.3003605]},"properties":{"category":"bakery","name":"Boulangerie Louise","opening_hours":"Mo-Sa 08:00-19:30; Su off","phone":"+33 3 21 15 24 17","website":"https://www.boulangerielouise.com/boulangerie/boulangerie-louise-arras/","osm_id":7036928259}},{"type":"Feature","geometry":{"type":"Point","coordinates":[2.7432169,50.3873189]},"properties":{"category":"bakery","name":"Boulangerie Mrowczynski","osm_id":9242953544}},{"type":"Feature","geometry":{"type":"Point","coordinates":[2.7599287,50.3160816]},"properties":{"category":"bakery","name":"Sophie Lebreuilly","opening_hours":"Mo-Su 06:30-20:00","phone":"+33 3 21 73 07 11","website":"https://commandes.sophie-lebreuilly.com/fr-fr/sophielebreuilly-saintecatherine/info/time","osm_id":10220383508}},{"type":"Feature","geometry":{"type":"Point","coordinates":[2.7563359,50.3066564]},"properties":{"category":"bakery","name":"Pâtisserie Boulangerie Vincent Cockenpot","phone":"+337 82 16 32 96","osm_id":12909200179}},{"type":"Feature","geometry":{"type":"Point","coordinates":[2.7066292,50.3244142]},"properties":{"category":"bakery","name":"Les Maîtres du Pain","opening_hours":"Fr-We 07:00-12:45, 15:00-19:00","phone":"+33 3 21 48 88 98","website":"https://lesmaitresdupain.fr/","osm_id":13140773978}},{"type":"Feature","geometry":{"type":"Point","coordinates":[2.7369936,50.3010309]},"properties":{"category":"bakery","name":"Boulangerie Ange","osm_id":13163219238}},{"type":"Feature","geometry":{"type":"Point","coordinates":[2.7766295,50.3011803]},"properties":{"category":"bakery","name":"Simplicité par Jim","opening_hours":"Tu-Sa 07:00-13:00, 15:00-18:00; Su 07:00-12:30","osm_id":13252729232}},{"type":"Feature","geometry":{"type":"Point","coordinates":[2.76234,50.3571189]},"properties":{"category":"bakery","name":"La Neuvilloise","osm_id":13271819201}}]}