{"type":"FeatureCollection","features":[{"type":"Feature","geometry":{"type":"Point","coordinates":[3.5184947,50.3201737]},"properties":{"category":"bakery","name":"La Sarrasine","opening_hours":"Mo off; Tu-Sa 06:30-19:30; Su 06:30-13:00","phone":"+33 3 27 35 84 71","osm_id":639969094}},{"type":"Feature","geometry":{"type":"Point","coordinates":[3.5300333,50.353824]},"properties":{"category":"bakery","name":"La Rhônelle","osm_id":1868676634}},{"type":"Feature","geometry":{"type":"Point","coordinates":[3.5304956,50.3650615]},"properties":{"category":"bakery","name":"La Boulangerie des Tertiales","opening_hours":"Mo-Sa 06:00-20:00","osm_id":2488583510}},{"type":"Feature","geometry":{"type":"Point","coordinates":[3.5227802,50.353311]},"properties":{"category":"bakery","name":"Côté Pains","opening_hours":"Tu-Fr 07:00-19:00; Sa 07:00-14:00; Su 07:00-13:00","osm_id":2933049789}},{"type":"Feature","geometry":{"type":"Point","coordinates":[3.5244654,50.3590632]},"properties":{"category":"bakery","name":"Maison Papillon","osm_id":2941978964}},{"type":"Feature","geometry":{"type":"Point","coordinates":[3.5238752,50.3352182]},"properties":{"category":"bakery","osm_id":4405902990}},{"type":"Feature","geometry":{"type":"Point","coordinates":[3.5024848,50.3719548]},"properties":{"category":"bakery","osm_id":4417698640}},{"type":"Feature","geometry":{"type":"Point","coordinates":[3.5133771,50.330638]},"properties":{"category":"bakery","name":"Boulangerie Louise","opening_hours":"Mo-Sa 06:30-20:00; Su off","phone":"+33 3 27 34 46 03","website":"https://www.boulangerielouise.com/boulangerie/boulangerie-louise-aulnoy-lez-valenciennes/","osm_id":5152471196}},{"type":"Feature","geometry":{"type":"Point","coordinates":[3.5147714,50.3657792]},"properties":{"category":"bakery","name":"Le Bellevue","osm_id":5427283181}},{"type":"Feature","geometry":{"type":"Point","coordinates":[3.521543,50.3622079]},"properties":{"category":"shop","name":"Cycles Paccard","phone":"+33 3 27 42 61 74","website":"https://www.etspaccard.com/","osm_id":5475514474}},{"type":"Feature","geometry":{"type":"Point","coordinates":[3.5219762,50.3582826]},"properties":{"category":"bakery","name":"La Mie Câline","opening_hours":"Mo-Sa 07:00-19:00; Su 08:00-18:30","phone":"+33 3 27 33 50 79","website":"https://www.lamiecaline.com/boutiques/valenciennes/","osm_id":5614675197}},{"type":"Feature","geometry":{"type":"Point","coordinates":[3.5005948,50.3556204]},"properties":{"category":"bakery","name":"Paul","opening_hours":"Mo-Su 07:00-19:00","phone":"+33 3 27 31 87 22","website":"https://www.paul.fr/stores/valenciennes_lomprez","osm_id":5645832669}},{"type":"Feature","geometry":{"type":"Point","coordinates":[3.5565174,50.3709317]},"properties":{"category":"bakery","name":"Maison Henniaux","opening_hours":"Mo-Tu,Th-Sa 06:00-20:00; Su 07:00-13:00; PH closed","phone":"+33 3 27 36 09 77","osm_id":5808413875}},{"type":"Feature","geometry":{"type":"Point","coordinates":[3.5926797,50.3842819]},"properties":{"category":"bakery","name":"Au Pavé Mignon","opening_hours":"\"fermé le lundi\"","phone":"+33 3 27 35 44 34","osm_id":6126768193}},{"type":"Feature","geometry":{"type":"Point","coordinates":[3.5224498,50.3581968]},"properties":{"category":"bakery","name":"Baguettes & Compagnie","osm_id":6166884997}},{"type":"Feature","geometry":{"type":"Point","coordinates":[3.5489182,50.3682066]},"properties":{"category":"bakery","name":"Y. Poulain","osm_id":6270318788}},{"type":"Feature","geometry":{"type":"Point","coordinates":[3.5219949,50.357482]},"properties":{"category":"bakery","name":"Les Blés d'Or","opening_hours":"Mo-Sa 07:30-19:00; Su 07:30-12:30","osm_id":6588360351}},{"type":"Feature","geometry":{"type":"Point","coordinates":[3.5370508,50.3521657]},"properties":{"category":"bakery","name":"La Craquan'tine","osm_id":7403640989}},{"type":"Feature","geometry":{"type":"Point","coordinates":[3.5964382,50.3856149]},"properties":{"category":"bakery","name":"Au Pain d'Autrefois...","osm_id":7861324364}},{"type":"Feature","geometry":{"type":"Point","coordinates":[3.5208901,50.3608895]},"properties":{"category":"bakery","osm_id":9525445518}},{"type":"Feature","geometry":{"type":"Point","coordinates":[3.521391,50.3620455]},"properties":{"category":"bakery","name":"La Miche Dorée","osm_id":9531023818}},{"type":"Feature","geometry":{"type":"Point","coordinates":[3.5289883,50.3601986]},"properties":{"category":"shop","name":"Reine et Biclou","opening_hours":"Tu-Sa 08:00-19:00","phone":"+33 6 71 99 97 99","website":"https://reineetbiclou.fr/","osm_id":9836161513}},{"type":"Feature","geometry":{"type":"Point","coordinates":[3.5001129,50.370343]},"properties":{"category":"shop","name":"Re'Cycle","osm_id":9836163148}},{"type":"Feature","geometry":{"type":"Point","coordinates":[3.5121335,50.3199508]},"properties":{"category":"bakery","name":"La Sarrasine","osm_id":10026403667}},{"type":"Feature","geometry":{"type":"Point","coordinates":[3.5192569,50.3484814]},"properties":{"category":"repair","opening_hours":"24/7","osm_id":10089259203}},{"type":"Feature","geometry":{"type":"Point","coordinates":[3.5118951,50.3200465]},"properties":{"category":"repair","opening_hours":"24/7","osm_id":10089259204}},{"type":"Feature","geometry":{"type":"Point","coordinates":[3.5258011,50.3453403]},"properties":{"category":"bakery","name":"O'Bon Pain","osm_id":11886685169}},{"type":"Feature","geometry":{"type":"Point","coordinates":[3.5255732,50.3458152]},"properties":{"category":"bakery","name":"De Cubber","osm_id":11886685170}},{"type":"Feature","geometry":{"type":"Point","coordinates":[3.531196,50.3915459]},"properties":{"category":"bakery","name":"Le Blé Délice 3","osm_id":11958578944}},{"type":"Feature","geometry":{"type":"Point","coordinates":[3.5355511,50.3947743]},"properties":{"category":"bakery","name":"La Craquan'tine","osm_id":11958780381}},{"type":"Feature","geometry":{"type":"Point","coordinates":[3.5768275,50.3363804]},"properties":{"category":"bakery","name":"Moca","osm_id":12879294740}},{"type":"Feature","geometry":{"type":"Point","coordinates":[3.5978671,50.3853643]},"properties":{"category":"bakery","name":"La Fabrique à Pains","osm_id":12988393903}},{"type":"Feature","geometry":{"type":"Point","coordinates":[3.5543955,50.3749458]},"properties":{"category":"bakery","name":"La Boulangerie du 8 Mai","osm_id":12993636784}},{"type":"Feature","geometry":{"type":"Point","coordinates":[3.5276468,50.3637812]},"properties":{"category":"bakery","name":"La Fabrique À Pain","osm_id":13017655947}},{"type":"Feature","geometry":{"type":"Point","coordinates":[3.5334099,50.3982036]},"properties":{"category":"bakery","osm_id":13031210282}},{"type":"Feature","geometry":{"type":"Point","coordinates":[3.5555332,50.345815]},"properties":{"category":"bakery","name":"Boulangerie Louise","opening_hours":"Mo-Sa 07:00-19:30; Su 07:30-12:30","phone":"+33 3 27 46 98 21","website":"https://www.boulangerielouise.com/boulangerie/boulangerie-louise-marly/","osm_id":13033430141}},{"type":"Feature","geometry":{"type":"Point","coordinates":[3.5105234,50.3671733]},"properties":{"category":"bakery","name":"Boulangerie pâtisserie Varlet","osm_id":13745958040}},{"type":"Feature","geometry":{"type":"Point","coordinates":[3.5071052,50.3852741]},"properties":{"category":"bakery","name":"La P'tite Tartine","osm_id":13787350549}},{"type":"Feature","geometry":{"type":"Point","coordinates":[3.5065683,50.3605574]},"properties":{"category":"bakery","name":"Les Blés d'or","osm_id":13798094357}},{"type":"Feature","geometry":{"type":"Point","coordinates":[3.5096089,50.3647813]},"properties":{"category":"bakery","name":"Au Plaisir sucré","osm_id":13798094360}},{"type":"Feature","geometry":{"type":"Point","coordinates":[3.5106381,50.3664407]},"properties":{"category":"bakery","name":"Au point chaud","osm_id":13798094362}}]}