{"type":"FeatureCollection","features":[{"type":"Feature","geometry":{"type":"Point","coordinates":[3.0816666,50.3677389]},"properties":{"category":"bakery","name":"La Mie Câline","opening_hours":"Mo-Sa 06:00-19:15; Su 06:30-19:00","phone":"+33 3 27 98 75 63","website":"https://www.lamiecaline.com/boutiques/douai","osm_id":1584881167}},{"type":"Feature","geometry":{"type":"Point","coordinates":[3.0852252,50.3986463]},"properties":{"category":"bakery","name":"Boulangerie Christine & Pascal Dhelf","opening_hours":"Mo-Tu,Th-Su 07:00-13:00,14:00-19:00; We off","phone":"+33 3 27 87 30 08","osm_id":2855470417}},{"type":"Feature","geometry":{"type":"Point","coordinates":[3.0851897,50.3989726]},"properties":{"category":"bakery","name":"Délices","opening_hours":"Mo-Su 07:30-13:00,16:00-20:00","osm_id":2855470418}},{"type":"Feature","geometry":{"type":"Point","coordinates":[3.0888474,50.3719756]},"properties":{"category":"bakery","name":"Boulangerie Maison Tepper","opening_hours":"Mo,Th-Sa 08:00-19:00; Su 08:00-12:00; Tu,We off","phone":"+33 3 27 94 18 03","osm_id":4464213689}},{"type":"Feature","geometry":{"type":"Point","coordinates":[3.0805381,50.3586926]},"properties":{"category":"shop","name":"Cycles N Repair","osm_id":4551996252}},{"type":"Feature","geometry":{"type":"Point","coordinates":[3.0815478,50.3886962]},"properties":{"category":"shop","name":"Bicycleripair Man","website":"http://bikeripair.free.fr","osm_id":4939712459}},{"type":"Feature","geometry":{"type":"Point","coordinates":[3.0525382,50.3920732]},"properties":{"category":"bakery","name":"Boulangerie Antiochus","opening_hours":"Mo off; Tu-Sa 07:00-19:00; Su 07:00-13:00","phone":"+33 3 27 96 32 11","osm_id":5446063401}},{"type":"Feature","geometry":{"type":"Point","coordinates":[3.0624525,50.3808541]},"properties":{"category":"bakery","name":"Le Fournil Saint-Pierre","opening_hours":"Mo,We-Sa 06:00-20:00; Su 06:00-12:30; Tu off","phone":"+33 3 27 90 07 00","website":"https://fournilsaintpierre.fr","osm_id":6173045552}},{"type":"Feature","geometry":{"type":"Point","coordinates":[3.0891971,50.3475978]},"properties":{"category":"bakery","name":"Boulangerie Feuillette","opening_hours":"Mo-Su 06:30-20:00","phone":"+33 9 60 06 73 57","website":"https://www.etablissements.groupe-feuillette.fr/etablissement/boulangerie-feuillette-lambres-lez-douai","osm_id":6406042485}},{"type":"Feature","geometry":{"type":"Point","coordinates":[3.0681424,50.3811414]},"properties":{"category":"bakery","name":"Les Blés d'Or","opening_hours":"Mo-Sa 08:30-12:30, 14:30-19:30; Su 09:00-13:00, 16:00-20:00","phone":"+33 3 59 66 05 85","osm_id":8894977917}},{"type":"Feature","geometry":{"type":"Point","coordinates":[3.0763382,50.3794737]},"properties":{"category":"bakery","name":"Au Pont d'Ocre","opening_hours":"Mo-Fr 07:30-19:00; Sa 07:30-14:30; Su off","phone":"+33 3 59 43 34 28","osm_id":8898195419}},{"type":"Feature","geometry":{"type":"Point","coordinates":[3.0218044,50.3367131]},"properties":{"category":"bakery","osm_id":9042247051}},{"type":"Feature","geometry":{"type":"Point","coordinates":[3.0181521,50.3369622]},"properties":{"category":"bakery","osm_id":9042296546}},{"type":"Feature","geometry":{"type":"Point","coordinates":[3.0846683,50.3716592]},"properties":{"category":"bakery","name":"Le Fournil Saint-Pierre","opening_hours":"Mo-Sa 07:00-19:30; Su 07:00-12:30","phone":"+33 3 27 88 83 72","website":"https://www.fournilsaintpierre.fr/","osm_id":10046531723}},{"type":"Feature","geometry":{"type":"Point","coordinates":[3.0841149,50.3709491]},"properties":{"category":"bakery","name":"Baker Street Coffee","opening_hours":"Mo-Sa 07:00-19:00; Su off","phone":"+33 9 87 37 21 48","website":"https://www.baker-street-coffee.fr","osm_id":10095609433}},{"type":"Feature","geometry":{"type":"Point","coordinates":[3.0929937,50.3432079]},"properties":{"category":"bakery","name":"Marie Blachère","opening_hours":"Mo-Sa 06:30-19:30; Su off","phone":"+33 3 27 86 54 30","website":"https://boulangeries.marieblachere.com/fr/france-FR/7118/marie-blachere-ferin/details","osm_id":10305020979}},{"type":"Feature","geometry":{"type":"Point","coordinates":[3.0147548,50.3397767]},"properties":{"category":"bakery","name":"Sophie Lebreuilly","opening_hours":"PH,Mo-Su 06:30-20:00","phone":"+33 3 21 73 44 81","website":"https://commandes.sophie-lebreuilly.com/fr-fr/sophielebreuillybrebieres/info/time","osm_id":10868955835}},{"type":"Feature","geometry":{"type":"Point","coordinates":[3.0984819,50.3433193]},"properties":{"category":"bakery","name":"Boulangerie Louise","opening_hours":"Mo-Sa 08:00-19:00","phone":"+33 3 27 99 01 94","website":"https://www.boulangerielouise.com/boulangerie/boulangerie-louise-sin-noble/","osm_id":11116013596}},{"type":"Feature","geometry":{"type":"Point","coordinates":[3.0963662,50.3396712]},"properties":{"category":"bakery","name":"Boulangerie Ange","opening_hours":"Mo-Sa 05:30-19:30; Su 05:30-18:00","phone":"+33 3 27 88 07 57","website":"https://www.boulangerie-ange.fr/stores/boulangerie-ange-ferin","osm_id":11116013600}},{"type":"Feature","geometry":{"type":"Point","coordinates":[3.0842459,50.3680169]},"properties":{"category":"bakery","name":"L'Atelier d'Olivier","opening_hours":"Tu-Sa 07:30-13:30,15:00-18:00","phone":"+33 9 86 36 93 34","osm_id":11149074409}},{"type":"Feature","geometry":{"type":"Point","coordinates":[3.0897104,50.3721138]},"properties":{"category":"repair","opening_hours":"Fr 17:00-19:00","osm_id":12339334124}},{"type":"Feature","geometry":{"type":"Point","coordinates":[3.0788846,50.3634213]},"properties":{"category":"bakery","name":"Boulangerie Moisson","opening_hours":"Mo-Tu,Th-Sa 06:00-19:00; Su 06:00-13:00","phone":"+33 3 27 95 92 04","osm_id":12381022144}},{"type":"Feature","geometry":{"type":"Point","coordinates":[3.0989819,50.3705261]},"properties":{"category":"bakery","name":"Le Fournil Saint-Pierre","opening_hours":"Mo,We-Sa 07:00-19:30; Su 07:00-12:30","phone":"+33 3 27 87 03 03","website":"https://www.fournilsaintpierre.fr/","osm_id":13261061997}}]}