{"type":"FeatureCollection","features":[{"type":"Feature","geometry":{"type":"Point","coordinates":[1.875154,50.3976496]},"properties":{"category":"bakery","name":"Boulangerie Pâtisserie Traiteur Dubois","opening_hours":"Mo-Fr 07:00-13:15,15:00-19:00; Sa 07:00-13:00,15:00-18:00; Su off","phone":"+33 3 21 90 35 74","osm_id":1905992881}},{"type":"Feature","geometry":{"type":"Point","coordinates":[1.8758577,50.3327267]},"properties":{"category":"bakery","osm_id":9096912917}},{"type":"Feature","geometry":{"type":"Point","coordinates":[1.8768854,50.3966077]},"properties":{"category":"bakery","name":"Le Fournil de la Forge","opening_hours":"We-Sa 07:00-12:30, 16:30-18:30; Su 07:00-12:00","osm_id":9096959228}}]}