{"type":"FeatureCollection","features":[{"type":"Feature","geometry":{"type":"Point","coordinates":[1.7614818,50.4643467]},"properties":{"category":"bakery","name":"Au Gré des Blés","opening_hours":"Mo-Tu off; We-Fr 07:00-17:00; Sa-Su 07:00-13:00","phone":"+33 3 21 06 06 19","website":"https://www.pagesjaunes.fr/pros/56890349","osm_id":454633910}},{"type":"Feature","geometry":{"type":"Point","coordinates":[1.7760563,50.4747743]},"properties":{"category":"bakery","name":"Boulangerie Pâtisserie Danne","opening_hours":"Mo-Fr 06:00-19:00; Sa 06:30-13:00; Su off","phone":"+33 3 21 06 11 40","osm_id":454633926}},{"type":"Feature","geometry":{"type":"Point","coordinates":[1.7573693,50.4574439]},"properties":{"category":"bakery","osm_id":4475472798}},{"type":"Feature","geometry":{"type":"Point","coordinates":[1.7597637,50.4618837]},"properties":{"category":"bakery","name":"Boulangerie","website":"https://www.pharmaciegrandplace-montreuil.fr","osm_id":4988840035}},{"type":"Feature","geometry":{"type":"Point","coordinates":[1.7603271,50.4608056]},"properties":{"category":"bakery","name":"Au Pétrin","osm_id":5037224544}},{"type":"Feature","geometry":{"type":"Point","coordinates":[1.7549314,50.4536091]},"properties":{"category":"shop","name":"Servicycle","phone":"+33 6 30 15 51 90","website":"http://servicycle.fr","osm_id":7523250305}},{"type":"Feature","geometry":{"type":"Point","coordinates":[1.7251801,50.4094601]},"properties":{"category":"bakery","name":"La Boulangerie de Wailly","osm_id":12899505274}},{"type":"Feature","geometry":{"type":"Point","coordinates":[1.7689267,50.4662444]},"properties":{"category":"shop","name":"QG du cycliste","website":"https://www.instagram.com/qgducycliste_montreuilsurmer/","osm_id":13418414336}}]}