{"type":"FeatureCollection","features":[{"type":"Feature","geometry":{"type":"Point","coordinates":[2.8278768,50.4316162]},"properties":{"category":"shop","name":"Velo Service Center","phone":"+33 3 21 75 04 05","osm_id":5177882104}},{"type":"Feature","geometry":{"type":"Point","coordinates":[2.8573677,50.4220279]},"properties":{"category":"shop","name":"AOS cyclo - Atelier réparation","osm_id":9870309998}},{"type":"Feature","geometry":{"type":"Point","coordinates":[2.828789,50.4288957]},"properties":{"category":"shop","name":"Action Mobility","website":"https://actionmobility.fr/product-category/velo-electrique/","osm_id":10111475607}},{"type":"Feature","geometry":{"type":"Point","coordinates":[2.8825607,50.4843618]},"properties":{"category":"repair","osm_id":12977490046}},{"type":"Feature","geometry":{"type":"Point","coordinates":[2.8065685,50.4385695]},"properties":{"category":"repair","opening_hours":"\"Ouverture IUT\"","osm_id":13260159770}}]}