{"type":"FeatureCollection","features":[{"type":"Feature","geometry":{"type":"Point","coordinates":[1.6220209,50.4863482]},"properties":{"category":"shop","name":"Velo Service","osm_id":1914223632}},{"type":"Feature","geometry":{"type":"Point","coordinates":[1.6226415,50.4868518]},"properties":{"category":"bakery","name":"Sophie Lebreuilly","opening_hours":"Mo-Su 06:30-20:00","phone":"+33 3 21 09 37 97","website":"https://commandes.sophie-lebreuilly.com/fr-fr/sophielebreuilly-cucq-stella/info/time","osm_id":4477807341}},{"type":"Feature","geometry":{"type":"Point","coordinates":[1.6944305,50.4998726]},"properties":{"category":"shop","name":"Cycles Righetti","phone":"+33 3 21 90 49 91","website":"https://www.facebook.com/Cycles-Righetti-877475575625679/","osm_id":4631857701}},{"type":"Feature","geometry":{"type":"Point","coordinates":[1.6431731,50.4171386]},"properties":{"category":"bakery","name":"Ronde des Pains","osm_id":4831523522}},{"type":"Feature","geometry":{"type":"Point","coordinates":[1.614482,50.454098]},"properties":{"category":"bakery","name":"Choux Choux","osm_id":5039812706}},{"type":"Feature","geometry":{"type":"Point","coordinates":[1.6155106,50.4516636]},"properties":{"category":"bakery","name":"Sophie Lebreuilly","opening_hours":"Mo-Su 06:30-20:00","phone":"+33 3 21 94 58 41","website":"https://commandes.sophie-lebreuilly.com/fr-fr/sophielebreuilly-merlimont/info/time","osm_id":5039848486}},{"type":"Feature","geometry":{"type":"Point","coordinates":[1.6499992,50.4024407]},"properties":{"category":"bakery","name":"La Gourmandine","osm_id":9973459940}}]}