{"type":"FeatureCollection","features":[{"type":"Feature","geometry":{"type":"Point","coordinates":[2.9571792,50.413515]},"properties":{"category":"bakery","name":"Boulangerie Lefevre Thierry","opening_hours":"Mo off; Tu-Sa 07:30-14:00; Su 08:00-12:00","phone":"+33 3 21 49 52 83","osm_id":1110123498}},{"type":"Feature","geometry":{"type":"Point","coordinates":[2.994385,50.4203445]},"properties":{"category":"bakery","name":"Boulangerie","osm_id":3761790304}},{"type":"Feature","geometry":{"type":"Point","coordinates":[2.9653035,50.4811324]},"properties":{"category":"bakery","name":"Marie Blachère","opening_hours":"Mo-Sa 06:30-19:30; Su off","phone":"+33 3 21 40 39 28","website":"https://boulangeries.marieblachere.com/fr/france-FR/5093/marie-blachere-carvin/details","osm_id":4187322063}},{"type":"Feature","geometry":{"type":"Point","coordinates":[2.920431,50.4451075]},"properties":{"category":"bakery","name":"1001 Baguettes","osm_id":5062878151}},{"type":"Feature","geometry":{"type":"Point","coordinates":[2.9467012,50.4167055]},"properties":{"category":"bakery","name":"Medhi Fournil","osm_id":5696231711}},{"type":"Feature","geometry":{"type":"Point","coordinates":[2.9879805,50.4324745]},"properties":{"category":"bakery","name":"Fournil de Dourges","osm_id":7526226786}},{"type":"Feature","geometry":{"type":"Point","coordinates":[2.9854522,50.4346683]},"properties":{"category":"bakery","name":"Passion Subtile","opening_hours":"Tu-Su 06:30-18:00","osm_id":7526227185}},{"type":"Feature","geometry":{"type":"Point","coordinates":[2.9949331,50.4186874]},"properties":{"category":"bakery","name":"Histoire du Blé","opening_hours":"Tu-Su 07:00-19:00","osm_id":7551952585}},{"type":"Feature","geometry":{"type":"Point","coordinates":[2.9572842,50.4938603]},"properties":{"category":"bakery","name":"Boulangerie Pâtisserie","osm_id":7995111866}},{"type":"Feature","geometry":{"type":"Point","coordinates":[2.9700508,50.4914374]},"properties":{"category":"bakery","name":"L'Épi d'Or","osm_id":7995112028}},{"type":"Feature","geometry":{"type":"Point","coordinates":[2.9566538,50.4922604]},"properties":{"category":"bakery","name":"L'Atelier Gourmand","opening_hours":"Mo-Th 06:30-12:30,15:00-19:00; Fr 06:30-19:00; Sa 06:30-13:00","phone":"+33321370341","website":"https://www.caradeuc-boulangerie.com/atelier-gourmand.php","osm_id":7995157689}},{"type":"Feature","geometry":{"type":"Point","coordinates":[2.9512377,50.4862636]},"properties":{"category":"bakery","name":"L'Épinoise","osm_id":7995158085}},{"type":"Feature","geometry":{"type":"Point","coordinates":[2.9117256,50.4117978]},"properties":{"category":"bakery","name":"Tout Prêt Tout Chaud","osm_id":8615276527}},{"type":"Feature","geometry":{"type":"Point","coordinates":[2.959646,50.4857944]},"properties":{"category":"bakery","name":"Au Four du Vieux Château","osm_id":8640798584}},{"type":"Feature","geometry":{"type":"Point","coordinates":[2.9442843,50.4191291]},"properties":{"category":"bakery","osm_id":8792877198}},{"type":"Feature","geometry":{"type":"Point","coordinates":[2.9917671,50.4667688]},"properties":{"category":"bakery","name":"La Tradition","phone":"+33 321379714","osm_id":10910932606}},{"type":"Feature","geometry":{"type":"Point","coordinates":[2.9572751,50.4938677]},"properties":{"category":"bakery","name":"Boulangerie Patisserie Caradeuc","opening_hours":"Mo-Fr 06:00-19:00; Sa 06:00-18:30","phone":"+33 3 21 37 03 41","website":"https://www.caradeuc-boulangerie.com/","osm_id":11038716905}},{"type":"Feature","geometry":{"type":"Point","coordinates":[2.9689839,50.4098307]},"properties":{"category":"shop","name":"Cycling","phone":"+33366980700","website":"https://www.cycling.fr/","osm_id":11080959516}},{"type":"Feature","geometry":{"type":"Point","coordinates":[2.967007,50.4136577]},"properties":{"category":"bakery","name":"Boulangerie Ange","opening_hours":"Mo-Sa 06:30-19:30; Su off","phone":"+33 3 21 49 24 06","website":"https://www.boulangerie-ange.fr/stores/boulangerie-ange-henin-beaumont","osm_id":11514071887}},{"type":"Feature","geometry":{"type":"Point","coordinates":[2.9034612,50.4428259]},"properties":{"category":"bakery","name":"La Tradition","osm_id":11769043369}},{"type":"Feature","geometry":{"type":"Point","coordinates":[2.9585855,50.4944461]},"properties":{"category":"bakery","name":"O'pains","osm_id":11942010665}},{"type":"Feature","geometry":{"type":"Point","coordinates":[2.9885828,50.4321171]},"properties":{"category":"bakery","name":"Boulangerie Thellier","phone":"+33 3 21 20 22 47","website":"https://boulangerie-thellier.fr","osm_id":11970814393}},{"type":"Feature","geometry":{"type":"Point","coordinates":[2.9456716,50.4226764]},"properties":{"category":"bakery","osm_id":12196843489}},{"type":"Feature","geometry":{"type":"Point","coordinates":[2.9568244,50.4932272]},"properties":{"category":"bakery","name":"Soleil Levain","osm_id":12534828533}},{"type":"Feature","geometry":{"type":"Point","coordinates":[2.9281652,50.4372225]},"properties":{"category":"bakery","name":"La Croustille","osm_id":12980352445}},{"type":"Feature","geometry":{"type":"Point","coordinates":[2.9309371,50.4344643]},"properties":{"category":"bakery","name":"Atelier B","osm_id":12981887703}},{"type":"Feature","geometry":{"type":"Point","coordinates":[2.9284443,50.4767316]},"properties":{"category":"bakery","name":"Marie Blachère","opening_hours":"Mo-Sa 06:30-20:00; Su off","phone":"+33 3 66 14 04 22","website":"https://boulangeries.marieblachere.com/fr/france-FR/7261/marie-blachere-carvin-2/details","osm_id":13245490338}},{"type":"Feature","geometry":{"type":"Point","coordinates":[2.9119459,50.4197344]},"properties":{"category":"bakery","name":"Les gourmandises de Billy","osm_id":13482519834}},{"type":"Feature","geometry":{"type":"Point","coordinates":[2.9905707,50.4685461]},"properties":{"category":"bakery","name":"La Gourmandy's","osm_id":13810855111}}]}