{"type":"FeatureCollection","features":[{"type":"Feature","geometry":{"type":"Point","coordinates":[2.7140613,50.5798251]},"properties":{"category":"bakery","osm_id":1867774030}},{"type":"Feature","geometry":{"type":"Point","coordinates":[2.7398453,50.5762601]},"properties":{"category":"bakery","name":"Boulangerie Fred Godart","osm_id":1867777555}},{"type":"Feature","geometry":{"type":"Point","coordinates":[2.7804874,50.5157958]},"properties":{"category":"shop","name":"Cycle Mortreux","website":"http://www.cycles-mortreux.fr/","osm_id":4551065732}},{"type":"Feature","geometry":{"type":"Point","coordinates":[2.7933503,50.5203289]},"properties":{"category":"bakery","name":"Marie Blachère","opening_hours":"Mo-Sa 06:30-19:30; Su off","phone":"+33 3 21 26 75 71","website":"https://boulangeries.marieblachere.com/fr/france-FR/5251/marie-blachere-auchy-les-mines/details","osm_id":4919023253}},{"type":"Feature","geometry":{"type":"Point","coordinates":[2.7867802,50.5452946]},"properties":{"category":"bakery","name":"Nicolas et Peggy Hurdebourcq-Lecutier","osm_id":8491310618}},{"type":"Feature","geometry":{"type":"Point","coordinates":[2.7480139,50.5200276]},"properties":{"category":"bakery","osm_id":9869658444}},{"type":"Feature","geometry":{"type":"Point","coordinates":[2.7844628,50.5121764]},"properties":{"category":"bakery","name":"Boulangerie-pâtisserie Laurent","osm_id":13323984573}}]}