{"type":"FeatureCollection","features":[{"type":"Feature","geometry":{"type":"Point","coordinates":[1.5881607,50.5265911]},"properties":{"category":"bakery","name":"Maison Hodin","opening_hours":"Mo,Tu,Th-Sa 07:00-19:00; Su,PH 07:00-18:00","osm_id":5037402304}},{"type":"Feature","geometry":{"type":"Point","coordinates":[1.5837854,50.521328]},"properties":{"category":"bakery","name":"Gourmandine","osm_id":5037403222}},{"type":"Feature","geometry":{"type":"Point","coordinates":[1.5851209,50.5234146]},"properties":{"category":"bakery","name":"La Panetière","osm_id":5039727034}},{"type":"Feature","geometry":{"type":"Point","coordinates":[1.583958,50.5217175]},"properties":{"category":"bakery","name":"Sophie Lebreuilly","opening_hours":"Mo-Su 06:30-20:00","phone":"+33 3 21 05 10 09","website":"https://commandes.sophie-lebreuilly.com/fr-fr/sophielebreuilly-letouquet/info/time","osm_id":5039727036}},{"type":"Feature","geometry":{"type":"Point","coordinates":[1.581922,50.5751698]},"properties":{"category":"bakery","name":"Sophie Lebreuilly","opening_hours":"Mo-Su 07:00-19:30","website":"https://commandes.sophie-lebreuilly.com/fr-fr/","osm_id":5101446923}},{"type":"Feature","geometry":{"type":"Point","coordinates":[1.5880025,50.5224997]},"properties":{"category":"shop","name":"Bike 4 You","website":"https://www.bike4you.fr/","osm_id":5232421912}},{"type":"Feature","geometry":{"type":"Point","coordinates":[1.5836155,50.5217254]},"properties":{"category":"shop","name":"La Baleine Royale","phone":"+33 3 21 05 50 00","website":"http://www.labaleineroyale.com/","osm_id":8005769281}},{"type":"Feature","geometry":{"type":"Point","coordinates":[1.5879486,50.5261007]},"properties":{"category":"shop","name":"Energie Vélo Quentovic","phone":"+33 6 83 22 83 82","website":"https://www.energievelo.fr/energie-velo-le-touquet-a-propos/","osm_id":8425696268}},{"type":"Feature","geometry":{"type":"Point","coordinates":[1.5828025,50.5239543]},"properties":{"category":"bakery","name":"Au Craquelin","osm_id":12534252782}},{"type":"Feature","geometry":{"type":"Point","coordinates":[1.5834772,50.5247186]},"properties":{"category":"bakery","name":"L'engrain","osm_id":12534254412}}]}