{"type":"FeatureCollection","features":[{"type":"Feature","geometry":{"type":"Point","coordinates":[3.2159003,50.5307644]},"properties":{"category":"bakery","name":"Boulangerie Au Moulin Monniez","phone":"+33 3 20 84 50 25","osm_id":1225894193}},{"type":"Feature","geometry":{"type":"Point","coordinates":[3.2115295,50.5651673]},"properties":{"category":"bakery","name":"Boulangerie Alvin","osm_id":6144616968}},{"type":"Feature","geometry":{"type":"Point","coordinates":[3.2608521,50.5948587]},"properties":{"category":"bakery","name":"Boulangerie Umamie","opening_hours":"Mo-Fr 07:00-12:45,16:00-19:00; Sa 07:00-12:30,14:45-18:00; Su 07:00-12:30","phone":"+33 3 20 47 19 91","website":"https://www.umamie-boulangerie.com/camphin/","osm_id":8478948194}},{"type":"Feature","geometry":{"type":"Point","coordinates":[3.2001362,50.5736235]},"properties":{"category":"bakery","name":"Sophie Lebreuilly","opening_hours":"Mo-Su 06:30-20:00","phone":"+33 3 20 05 97 34","website":"https://commandes.sophie-lebreuilly.com/fr-fr/sophielebreuilly-bouvines/info/time","osm_id":8930932619}},{"type":"Feature","geometry":{"type":"Point","coordinates":[3.2128319,50.5303222]},"properties":{"category":"bakery","name":"Van Wynsberghe Didier","opening_hours":"Mo-Su 07:00-19:30","phone":"+33 3 20 84 67 76","osm_id":8941105496}},{"type":"Feature","geometry":{"type":"Point","coordinates":[3.2580025,50.5454007]},"properties":{"category":"bakery","name":"Boulangerie de Bachy","osm_id":9063782751}},{"type":"Feature","geometry":{"type":"Point","coordinates":[3.2148613,50.5671272]},"properties":{"category":"bakery","name":"Pains & Gourmandises","opening_hours":"Mo-Fr 07:30-13:00,15:00-19:00; Sa,Su 07:30-13:00","osm_id":9798677534}},{"type":"Feature","geometry":{"type":"Point","coordinates":[3.2108924,50.5688581]},"properties":{"category":"shop","name":"Gonzague et ses vélos","phone":"+33 6 35 25 90 34","osm_id":10807897735}},{"type":"Feature","geometry":{"type":"Point","coordinates":[3.2064534,50.5962467]},"properties":{"category":"repair","osm_id":13098957286}}]}