{"type":"FeatureCollection","features":[{"type":"Feature","geometry":{"type":"Point","coordinates":[2.9856874,50.5423921]},"properties":{"category":"bakery","name":"Chez Magalie et Gilles","opening_hours":"Mo-Tu,Th-Fr 07:00-13:00,15:00-18:30; Sa-Su 07:00-13:00","phone":"+33 3 20 90 32 75","osm_id":1830656711}},{"type":"Feature","geometry":{"type":"Point","coordinates":[2.9910095,50.5737184]},"properties":{"category":"bakery","name":"C&A Flinois","opening_hours":"Tu-Fr 06:45-13:30,15:30-19:00; Sa 06:45-13:30,15:30-18:00; Su 06:30-12:30; Mo off","osm_id":4200573891}},{"type":"Feature","geometry":{"type":"Point","coordinates":[2.959903,50.5936421]},"properties":{"category":"bakery","name":"Boulangerie Pâtisserie Vienne Hubert","opening_hours":"Tu-Sa 06:30-19:00; Su 06:30-13:00","phone":"+33 3 20 07 07 67","website":"https://boulangerie-vienne.fr/","osm_id":4425348108}},{"type":"Feature","geometry":{"type":"Point","coordinates":[2.9653642,50.5887866]},"properties":{"category":"bakery","name":"Boulangerie Droque Damiens","osm_id":4425450244}},{"type":"Feature","geometry":{"type":"Point","coordinates":[2.9525499,50.5358136]},"properties":{"category":"bakery","name":"La Parenthèse Gourmande","opening_hours":"Mo,We-Sa 07:00-13:00,14:30-19:15; Su 07:00-12:30","phone":"+33 3 20 61 44 52","osm_id":4477448630}},{"type":"Feature","geometry":{"type":"Point","coordinates":[2.9038347,50.5610372]},"properties":{"category":"shop","name":"CYCL'on","website":"http://www.sainghin-en-weppes.fr/cyclon/","osm_id":4550674869}},{"type":"Feature","geometry":{"type":"Point","coordinates":[2.9404673,50.5736941]},"properties":{"category":"bakery","osm_id":6643431906}},{"type":"Feature","geometry":{"type":"Point","coordinates":[2.913887,50.5122329]},"properties":{"category":"bakery","name":"Fournil Saint-Nicolas","osm_id":8015860204}},{"type":"Feature","geometry":{"type":"Point","coordinates":[2.9331867,50.5282895]},"properties":{"category":"bakery","name":"Boulangerie Pâtisserie","osm_id":8093368834}},{"type":"Feature","geometry":{"type":"Point","coordinates":[2.9343617,50.5305981]},"properties":{"category":"bakery","name":"Boulangerie Pâtisserie","osm_id":8093368936}},{"type":"Feature","geometry":{"type":"Point","coordinates":[2.9316705,50.56824]},"properties":{"category":"bakery","name":"Boulangerie Maës","osm_id":11345990679}},{"type":"Feature","geometry":{"type":"Point","coordinates":[2.9287322,50.5894735]},"properties":{"category":"repair","opening_hours":"24/7","osm_id":11748236215}},{"type":"Feature","geometry":{"type":"Point","coordinates":[2.9074551,50.5845171]},"properties":{"category":"repair","opening_hours":"24/7","osm_id":12849565983}},{"type":"Feature","geometry":{"type":"Point","coordinates":[2.9375406,50.5747783]},"properties":{"category":"repair","opening_hours":"24/7","osm_id":13152836736}},{"type":"Feature","geometry":{"type":"Point","coordinates":[2.9726738,50.5431577]},"properties":{"category":"repair","osm_id":13646545434}},{"type":"Feature","geometry":{"type":"Point","coordinates":[2.9648922,50.5883609]},"properties":{"category":"shop","name":"L'atelier vélo de Jérôme","opening_hours":"Mo 13:30-18:30; Tu,Th,Fr 08:30-12:00,13:30-18:30; We,Sa 08:30-12:00","phone":"+33 6 58 21 30 44","website":"https://www.facebook.com/profile.php?id=61575087887973","osm_id":13700746903}},{"type":"Feature","geometry":{"type":"Point","coordinates":[2.918463,50.5510072]},"properties":{"category":"repair","opening_hours":"24/7","osm_id":14064385213}}]}