{"type":"FeatureCollection","features":[{"type":"Feature","geometry":{"type":"Point","coordinates":[2.3288162,50.5876532]},"properties":{"category":"bakery","name":"Au panetier","opening_hours":"Mo off; Tu-Sa 05:30-13:00,15:30-19:00; Su 05:30-12:00","phone":"+33 3 21 38 17 41","osm_id":1648448502}},{"type":"Feature","geometry":{"type":"Point","coordinates":[2.3775811,50.5726904]},"properties":{"category":"compressed_air","osm_id":6205390490}},{"type":"Feature","geometry":{"type":"Point","coordinates":[2.3161236,50.5909194]},"properties":{"category":"shop","name":"Cycles Matton","phone":"+33 3 21 39 32 92","website":"https://cyclesmatton.fr/","osm_id":6248974864}},{"type":"Feature","geometry":{"type":"Point","coordinates":[2.3946824,50.5297748]},"properties":{"category":"bakery","name":"La Boulangerie de Saint-Benoît","osm_id":10247524753}},{"type":"Feature","geometry":{"type":"Point","coordinates":[2.320483,50.5932846]},"properties":{"category":"bakery","name":"Aux pains de la Lacquette","osm_id":10995216612}}]}