{"type":"FeatureCollection","features":[{"type":"Feature","geometry":{"type":"Point","coordinates":[2.6594218,50.5177598]},"properties":{"category":"shop","name":"CycloCampus","website":"https://cyclocampus-bethune.ouvaton.org/","osm_id":4555489117}},{"type":"Feature","geometry":{"type":"Point","coordinates":[2.6517287,50.5013808]},"properties":{"category":"shop","name":"Cyclable Béthune","website":"https://bethune.cyclable.com/","osm_id":9547092265}},{"type":"Feature","geometry":{"type":"Point","coordinates":[2.659817,50.517616]},"properties":{"category":"repair","opening_hours":"\"Ouverture IUT\"","osm_id":13523028669}}]}