{"type":"FeatureCollection","features":[{"type":"Feature","geometry":{"type":"Point","coordinates":[2.6383728,50.6418749]},"properties":{"category":"bakery","name":"Au Fournil de la Place","osm_id":2870672159}},{"type":"Feature","geometry":{"type":"Point","coordinates":[2.6394845,50.6433285]},"properties":{"category":"bakery","name":"Boulangerie du Kiosque","opening_hours":"Tu-Fr 05:00-19:00; Sa-Su 06:00-19:00","osm_id":11598250701}},{"type":"Feature","geometry":{"type":"Point","coordinates":[2.6439,50.6944961]},"properties":{"category":"bakery","name":"Boulangerie pâtisserie Beral","osm_id":13336277251}},{"type":"Feature","geometry":{"type":"Point","coordinates":[2.6370158,50.6459208]},"properties":{"category":"bakery","name":"Maison Jacquemart","osm_id":13362048821}},{"type":"Feature","geometry":{"type":"Point","coordinates":[2.6478821,50.6429122]},"properties":{"category":"bakery","name":"À la boulange","osm_id":13366469088}}]}