{"type":"FeatureCollection","features":[{"type":"Feature","geometry":{"type":"Point","coordinates":[1.5811026,50.632806]},"properties":{"category":"bakery","name":"Sophie Lebreuilly","opening_hours":"PH,Mo-Su 06:30-20:00","phone":"+33 3 21 10 77 04","website":"https://commandes.sophie-lebreuilly.com/fr-fr/sophielebreuilly-hardelot/info/time","osm_id":2302538919}},{"type":"Feature","geometry":{"type":"Point","coordinates":[1.5787208,50.6324478]},"properties":{"category":"bakery","name":"Dhardelot biscutiers","osm_id":2302556015}},{"type":"Feature","geometry":{"type":"Point","coordinates":[1.5821517,50.6326427]},"properties":{"category":"shop","name":"Bike 4 You","opening_hours":"PH,Mo-Su 10:00-13:00,14:00-19:00","website":"https://www.bike4you.fr/","osm_id":2302556024}},{"type":"Feature","geometry":{"type":"Point","coordinates":[1.571044,50.6796806]},"properties":{"category":"bakery","name":"Le bon pain de mam","opening_hours":"Mo-Sa 06:00-20:00; Su 07:00-19:00","phone":"+33 321 921898","osm_id":5743270001}},{"type":"Feature","geometry":{"type":"Point","coordinates":[1.5797842,50.6327036]},"properties":{"category":"bakery","name":"Le Pti Talmenier","osm_id":12919850927}}]}