{"type":"FeatureCollection","features":[{"type":"Feature","geometry":{"type":"Point","coordinates":[2.7706226,50.6287103]},"properties":{"category":"bakery","osm_id":1867805868}},{"type":"Feature","geometry":{"type":"Point","coordinates":[2.7692922,50.6317456]},"properties":{"category":"bakery","osm_id":1867807695}},{"type":"Feature","geometry":{"type":"Point","coordinates":[2.7216847,50.6441118]},"properties":{"category":"bakery","name":"Au Fournil d'Aliboron","phone":"+33 3 28 48 80 21","osm_id":2739446963}},{"type":"Feature","geometry":{"type":"Point","coordinates":[2.720762,50.6444363]},"properties":{"category":"bakery","name":"Boulangerie Beaussart","phone":"+33 3 28 48 85 30","osm_id":2739475441}},{"type":"Feature","geometry":{"type":"Point","coordinates":[2.7245206,50.6440086]},"properties":{"category":"bakery","name":"Walle Fabrice","opening_hours":"Mo-Tu 06:00-13:00,14:00-19:00; We off; Th-Fr 06:00-13:00,14:00-19:00; Sa-Su 06:30-13:00,14:00-19:00","phone":"+33 3 28 48 83 62","osm_id":2739475442}},{"type":"Feature","geometry":{"type":"Point","coordinates":[2.7071746,50.6366099]},"properties":{"category":"bakery","name":"Boulangerie Patisserie Vandenbossche","phone":"+33 3 28 48 82 86","osm_id":2813315654}},{"type":"Feature","geometry":{"type":"Point","coordinates":[2.7074445,50.6366735]},"properties":{"category":"bakery","name":"Boulangerie Patisserie Poelaert","phone":"+33 3 28 48 86 43","osm_id":2813315655}},{"type":"Feature","geometry":{"type":"Point","coordinates":[2.7416687,50.6405226]},"properties":{"category":"shop","name":"Velysoo","phone":"+33 3 28 50 14 90","website":"https://www.cc-flandrelys.fr/fr/champs-daction/developpement-durable-et-environnement/velysoo.html","osm_id":6249030563}},{"type":"Feature","geometry":{"type":"Point","coordinates":[2.7214364,50.6328169]},"properties":{"category":"shop","name":"mobil'cycle","phone":"+33 6 19 61 09 54","osm_id":7522439788}},{"type":"Feature","geometry":{"type":"Point","coordinates":[2.7094223,50.6363202]},"properties":{"category":"bakery","name":"Les 4 épis d'or","opening_hours":"We-Mo 05:00-19:15","website":"https://aux4episdor.wixsite.com/website","osm_id":8671041919}},{"type":"Feature","geometry":{"type":"Point","coordinates":[2.7767515,50.6299479]},"properties":{"category":"shop","name":"Cycles Vinch","website":"https://www.cycles-vinch.fr/","osm_id":9097776248}},{"type":"Feature","geometry":{"type":"Point","coordinates":[2.7266384,50.6431591]},"properties":{"category":"bakery","name":"Aux 3 chocolats","osm_id":13357868327}}]}