{"type":"FeatureCollection","features":[{"type":"Feature","geometry":{"type":"Point","coordinates":[3.2107617,50.6670933]},"properties":{"category":"bakery","name":"Amélie Boulangerie","opening_hours":"Mo,Tu,Th,Fr 06:30-19:30; Sa 06:30-19:00; PH,Su 06:30-13:00; We off","phone":"+33 3 20 02 92 99","osm_id":1301715158}},{"type":"Feature","geometry":{"type":"Point","coordinates":[3.2527967,50.6086221]},"properties":{"category":"bakery","name":"Boulangerie Umamie","opening_hours":"Mo-Fr 07:00-12:45,16:00-19:00; Sa 07:00-12:30,15:00-18:00; Su 07:00-12:30","phone":"+33 3 20 41 95 08","website":"https://www.umamie-boulangerie.com/baisieux/","osm_id":1538425572}},{"type":"Feature","geometry":{"type":"Point","coordinates":[3.2126286,50.6985201]},"properties":{"category":"shop","name":"Jean Pierre Leman","osm_id":7521958723}},{"type":"Feature","geometry":{"type":"Point","coordinates":[3.2000744,50.6616817]},"properties":{"category":"shop","name":"Vélo Shop;Les Mains Dans Le Guidon","opening_hours":"Tu-Sa 11:00-19:00; PH off","phone":"+33 6 51 94 57 44","website":"https://lesmainsdansleguidon.fr/hem/","osm_id":8047007005}},{"type":"Feature","geometry":{"type":"Point","coordinates":[3.2414063,50.6801545]},"properties":{"category":"bakery","name":"La Chocoline","osm_id":8612399605}},{"type":"Feature","geometry":{"type":"Point","coordinates":[3.2226287,50.648465]},"properties":{"category":"bakery","name":"Coeur de Lys","osm_id":8628634026}},{"type":"Feature","geometry":{"type":"Point","coordinates":[3.2000564,50.6767308]},"properties":{"category":"bakery","name":"Boulangerie du Parc","opening_hours":"Tu-Sa 07:00-13:00,15:30-18:30; Su 07:00-13:00; Mo off","phone":"+33 3 20 75 43 83","osm_id":12513039445}},{"type":"Feature","geometry":{"type":"Point","coordinates":[3.202923,50.6744997]},"properties":{"category":"bakery","name":"Boulangerie de la Justice","osm_id":12533573965}},{"type":"Feature","geometry":{"type":"Point","coordinates":[3.2058569,50.6984876]},"properties":{"category":"bakery","name":"Chez Youssouf","osm_id":12550058818}},{"type":"Feature","geometry":{"type":"Point","coordinates":[3.2387101,50.6310763]},"properties":{"category":"bakery","name":"Soleil du Midi","opening_hours":"06:00-15:00","osm_id":12757717397}},{"type":"Feature","geometry":{"type":"Point","coordinates":[3.2110721,50.6975279]},"properties":{"category":"shop","name":"Cyclo Papillons","opening_hours":"Mo-Fr 08:15-18:00","phone":"+33 3 20 81 81 90","website":"https://www.papillonsblancs-rxtg.org/travail-protege-nord/esat-wattrelos/","osm_id":13114836566}},{"type":"Feature","geometry":{"type":"Point","coordinates":[3.2061232,50.6909579]},"properties":{"category":"repair","opening_hours":"24/7","osm_id":13523526085}},{"type":"Feature","geometry":{"type":"Point","coordinates":[3.2558956,50.606581]},"properties":{"category":"repair","opening_hours":"24/7","osm_id":13858719293}},{"type":"Feature","geometry":{"type":"Point","coordinates":[3.2462843,50.6790692]},"properties":{"category":"bakery","name":"Meyer","osm_id":13928154689}}]}