{"type":"FeatureCollection","features":[{"type":"Feature","geometry":{"type":"Point","coordinates":[2.3927016,50.6229219]},"properties":{"category":"shop","name":"L'Univers du Vélo","phone":"+33 9 81 36 82 27","osm_id":9717713010}},{"type":"Feature","geometry":{"type":"Point","coordinates":[2.3956712,50.6379887]},"properties":{"category":"shop","name":"Pôle d'Information Touristique d'Aire-sur-la-Lys","phone":"+33 3 21 11 96 12","website":"https://www.tourisme-saintomer.com/","osm_id":10829979826}},{"type":"Feature","geometry":{"type":"Point","coordinates":[2.3956865,50.6192415]},"properties":{"category":"shop","name":"Ange ou Démon électrique","phone":"+33 6 80 99 52 39","website":"https://angeoudemon-electrique.fr","osm_id":12430787815}}]}