{"type":"FeatureCollection","features":[{"type":"Feature","geometry":{"type":"Point","coordinates":[2.8594809,50.6967859]},"properties":{"category":"shop","name":"Cycles Fifty Nine","website":"http://www.cyclesfiftynine.com","osm_id":6837300006}},{"type":"Feature","geometry":{"type":"Point","coordinates":[2.882776,50.6864619]},"properties":{"category":"repair","opening_hours":"24/7","osm_id":7398497025}},{"type":"Feature","geometry":{"type":"Point","coordinates":[2.8897657,50.6921606]},"properties":{"category":"repair","opening_hours":"24/7","osm_id":7398497029}},{"type":"Feature","geometry":{"type":"Point","coordinates":[2.8787002,50.683052]},"properties":{"category":"shop","name":"Office de tourisme de l'Armentiérois et des Weppes","website":"https://www.rex-tourisme.com","osm_id":8414702229}},{"type":"Feature","geometry":{"type":"Point","coordinates":[2.8683038,50.6929978]},"properties":{"category":"repair","opening_hours":"24/7","osm_id":12922585809}},{"type":"Feature","geometry":{"type":"Point","coordinates":[2.8779671,50.680928]},"properties":{"category":"repair","opening_hours":"24/7","osm_id":12922585810}},{"type":"Feature","geometry":{"type":"Point","coordinates":[2.8774767,50.6810945]},"properties":{"category":"repair","opening_hours":"24/7","osm_id":12922585811}},{"type":"Feature","geometry":{"type":"Point","coordinates":[2.8786271,50.6812615]},"properties":{"category":"shop","name":"ALEFPA - Pass’O’Vert","opening_hours":"Mo-Fr 09:00-12:00,13:00-17:00","phone":"+33 7 87 35 11 38","website":"https://www.alefpa.fr/etablissement/passovert/","osm_id":12923170552}}]}