{"type":"FeatureCollection","features":[{"type":"Feature","geometry":{"type":"Point","coordinates":[2.5491251,50.6232807]},"properties":{"category":"bakery","name":"Boulangerie Sayad","phone":"+333 21 27 52 79","osm_id":2868832261}},{"type":"Feature","geometry":{"type":"Point","coordinates":[2.5487432,50.62317]},"properties":{"category":"bakery","name":"Boulangerie La Ronde des Pains","osm_id":2868832262}},{"type":"Feature","geometry":{"type":"Point","coordinates":[2.5732268,50.68089]},"properties":{"category":"bakery","name":"Distributeur de pain","osm_id":4624183489}},{"type":"Feature","geometry":{"type":"Point","coordinates":[2.5492739,50.6270822]},"properties":{"category":"shop","name":"Base nautique Flandre Lys Location de vélo","opening_hours":"Mo-Su 10:00-19:30","phone":"+33328430697","website":"https://www.cc-flandrelys.fr/decouvrir-et-se-depenser/espaces-loisirs-et-sportifs/la-base-nautique-flandre-lys","osm_id":4888065853}}]}