{"type":"FeatureCollection","features":[{"type":"Feature","geometry":{"type":"Point","coordinates":[3.1573784,50.7220836]},"properties":{"category":"shop","name":"La Rustine","phone":"+336 11 57 90 53","osm_id":2348239969}},{"type":"Feature","geometry":{"type":"Point","coordinates":[3.1247853,50.7145837]},"properties":{"category":"shop","name":"Altermove","phone":"+333 66 72 98 84","website":"https://www.altermove.com","osm_id":6837264499}},{"type":"Feature","geometry":{"type":"Point","coordinates":[3.1134912,50.777599]},"properties":{"category":"shop","name":"Bicyclethique","phone":"+33 3 20 28 11 50","website":"https://droitauvelo.org/Halluin-Atelier-Bicyclethique","osm_id":8435120891}},{"type":"Feature","geometry":{"type":"Point","coordinates":[3.1471476,50.7231881]},"properties":{"category":"shop","name":"Atelier Roues Libres","opening_hours":"We 17:00-19:00; Su 09:00-12:00","phone":"+33 782944261","website":"https://droitauvelo.org/Tourcoing-Roues-Libres","osm_id":8839173509}},{"type":"Feature","geometry":{"type":"Point","coordinates":[3.1538667,50.7106962]},"properties":{"category":"repair","opening_hours":"24/7","osm_id":12920697457}},{"type":"Feature","geometry":{"type":"Point","coordinates":[3.1223816,50.7652968]},"properties":{"category":"repair","opening_hours":"24/7","osm_id":13281547463}},{"type":"Feature","geometry":{"type":"Point","coordinates":[3.1596376,50.7104517]},"properties":{"category":"repair","opening_hours":"24/7","osm_id":13858712182}},{"type":"Feature","geometry":{"type":"Point","coordinates":[3.1569841,50.7173424]},"properties":{"category":"repair","opening_hours":"24/7","osm_id":13858754382}},{"type":"Feature","geometry":{"type":"Point","coordinates":[3.1580909,50.721213]},"properties":{"category":"repair","opening_hours":"24/7","osm_id":13858756441}}]}