{"type":"FeatureCollection","features":[{"type":"Feature","geometry":{"type":"Point","coordinates":[1.9388383,50.7835329]},"properties":{"category":"bakery","name":"Fournil de Licques","osm_id":5860784399}},{"type":"Feature","geometry":{"type":"Point","coordinates":[1.9279262,50.7258138]},"properties":{"category":"bakery","name":"La Boulangerie d'Escoeuilles","osm_id":8042268110}},{"type":"Feature","geometry":{"type":"Point","coordinates":[1.933949,50.7850335]},"properties":{"category":"bakery","name":"Aux Delices de Licques","opening_hours":"Tu-Fr 06:30-12:30,14:30-19:00; Sa 06:30-12:30,14:30-18:00; Su, Mo off","osm_id":10180823415}},{"type":"Feature","geometry":{"type":"Point","coordinates":[1.9924018,50.7403983]},"properties":{"category":"bakery","name":"Café Dechamps-Havart","phone":"+33 3 21 39 70 61","website":"https://www.pas-de-calais-tourisme.com/informations-pratiques/manger/14887-cafe-dechamps-havart/","osm_id":12690700344}}]}