{"type":"FeatureCollection","features":[{"type":"Feature","geometry":{"type":"Point","coordinates":[2.7279172,50.7661533]},"properties":{"category":"shop","name":"Top rando Location de vélo","phone":"+33328493154","osm_id":4888073337}},{"type":"Feature","geometry":{"type":"Point","coordinates":[2.7337316,50.7392407]},"properties":{"category":"bakery","name":"Boulangerie Saint-Pierre","opening_hours":"We off; Su 05:30-18:00; Mo,Tu,Th-Sa 05:30-19:15","phone":"+33 3 28 49 02 34","osm_id":5828901074}},{"type":"Feature","geometry":{"type":"Point","coordinates":[2.774906,50.7006685]},"properties":{"category":"bakery","name":"Maison Deboudt","osm_id":6964969771}},{"type":"Feature","geometry":{"type":"Point","coordinates":[2.7752401,50.7011677]},"properties":{"category":"bakery","name":"Roetynck","osm_id":6964969772}},{"type":"Feature","geometry":{"type":"Point","coordinates":[2.7343265,50.7342345]},"properties":{"category":"bakery","name":"Maison Bril","opening_hours":"Mo off; Tu-Sa 06:30-13:00,15:00-19:00; Su 06:30-12:30","osm_id":7287979785}},{"type":"Feature","geometry":{"type":"Point","coordinates":[2.7346794,50.740409]},"properties":{"category":"bakery","name":"Karina Durik","osm_id":7287979885}},{"type":"Feature","geometry":{"type":"Point","coordinates":[2.7712587,50.7284828]},"properties":{"category":"shop","name":"Flandres Bikes","phone":"+33 3 28 43 83 49","website":"https://www.flandresbikes.fr","osm_id":7522412466}},{"type":"Feature","geometry":{"type":"Point","coordinates":[2.7189334,50.7650057]},"properties":{"category":"bakery","name":"Du pain sur la planche","osm_id":9471922007}},{"type":"Feature","geometry":{"type":"Point","coordinates":[2.7173764,50.7634399]},"properties":{"category":"repair","osm_id":9524112198}},{"type":"Feature","geometry":{"type":"Point","coordinates":[2.7387445,50.7329391]},"properties":{"category":"shop","name":"Le Garage à vélo","phone":"+33 6 80 75 29 72","osm_id":10209369049}},{"type":"Feature","geometry":{"type":"Point","coordinates":[2.734599,50.7357612]},"properties":{"category":"bakery","name":"Boulangerie Vandenberghe","opening_hours":"Tu-Fr 06:00-19:00; Sa 06:00-18:00; Su 06:00-12:30","phone":"+33 3 28 49 10 87","website":"https://boulangerie-vandenberghe.business.site/","osm_id":10807170705}},{"type":"Feature","geometry":{"type":"Point","coordinates":[2.7220331,50.7357003]},"properties":{"category":"shop","name":"Belle Bicyclette","phone":"+33 7 88 66 96 35","website":"https://www.bellebicyclette.fr/infos-pratiques/","osm_id":10826641331}},{"type":"Feature","geometry":{"type":"Point","coordinates":[2.7440729,50.7336802]},"properties":{"category":"bakery","name":"Boulangerie Louise","opening_hours":"Mo-Fr 06:30-19:00; Sa 07:00-19:00; Su off","phone":"+33 9 67 09 83 38","website":"https://www.boulangerielouise.com/boulangerie/boulangerie-louise-bailleul/","osm_id":12504500686}},{"type":"Feature","geometry":{"type":"Point","coordinates":[2.7435025,50.7341349]},"properties":{"category":"bakery","osm_id":12504500690}},{"type":"Feature","geometry":{"type":"Point","coordinates":[2.7371092,50.7401675]},"properties":{"category":"bakery","name":"Maison Bril","opening_hours":"Mo off; Tu-Sa 07:00-19:00; Su 07:00-12:30","osm_id":12677009901}}]}