{"type":"FeatureCollection","features":[{"type":"Feature","geometry":{"type":"Point","coordinates":[1.5866594,50.7126791]},"properties":{"category":"bakery","name":"Au Palais De La Gourmandise","phone":"+33 3 21 31 58 20","osm_id":4724648206}},{"type":"Feature","geometry":{"type":"Point","coordinates":[1.5751682,50.7088748]},"properties":{"category":"bakery","osm_id":5101358078}},{"type":"Feature","geometry":{"type":"Point","coordinates":[1.5972252,50.7221305]},"properties":{"category":"bakery","name":"Sophie Lebreuilly","opening_hours":"Mo-Su 04:00-20:00","phone":"+33 3 21 99 76 56","osm_id":5986927139}},{"type":"Feature","geometry":{"type":"Point","coordinates":[1.5726569,50.7075758]},"properties":{"category":"shop","name":"Les Baroudeurs","opening_hours":"Mo-Su 09:00-12:30,13:30-18:00","phone":"+33 6 82 30 14 90","website":"https://www.les-baroudeurs.fr/","osm_id":11793054941}},{"type":"Feature","geometry":{"type":"Point","coordinates":[1.574082,50.7070083]},"properties":{"category":"bakery","name":"Boulangerie Viennoiserie","osm_id":11793054951}},{"type":"Feature","geometry":{"type":"Point","coordinates":[1.5749948,50.7071709]},"properties":{"category":"bakery","name":"Secrets Sucres","osm_id":11793054960}},{"type":"Feature","geometry":{"type":"Point","coordinates":[1.5750496,50.7069914]},"properties":{"category":"bakery","osm_id":11793054961}},{"type":"Feature","geometry":{"type":"Point","coordinates":[1.5738298,50.706667]},"properties":{"category":"bakery","osm_id":11793054964}}]}