{"type":"FeatureCollection","features":[{"type":"Feature","geometry":{"type":"Point","coordinates":[2.2525541,50.7480983]},"properties":{"category":"shop","name":"Office de Tourisme","opening_hours":"Apr-Sep Mo-Fr 10:00-12:30,14:00-18:00; Apr-Sep Sa,Su 10:00-18:00","phone":"+33 3 21 98 08 51","website":"https://billetterie.tourisme-saintomer.com/location-velo/","osm_id":1394309843}},{"type":"Feature","geometry":{"type":"Point","coordinates":[2.2642548,50.7526865]},"properties":{"category":"shop","name":"Atelier vélo de l'ADAV Saint-Omer","phone":"+33 6 71 57 99 26","website":"https://droitauvelo.org/A-Saint-Omer-2-ateliers-par-mois-pour-commencer","osm_id":4550569726}},{"type":"Feature","geometry":{"type":"Point","coordinates":[2.2591988,50.7539521]},"properties":{"category":"shop","name":"Au tour de France","opening_hours":"Tu-Fr 10:00-12:00,14:00-19:00; Sa 10:00-12:00,14:00-18:00","phone":"+33 321985297","osm_id":4550569728}},{"type":"Feature","geometry":{"type":"Point","coordinates":[2.2675416,50.7534678]},"properties":{"category":"shop","name":"Défi mobilité Saint-Omer","phone":"+33 3 21 12 32 81","website":"https://defimobilitesaintomer.wordpress.com","osm_id":6248987962}},{"type":"Feature","geometry":{"type":"Point","coordinates":[2.2288942,50.7616008]},"properties":{"category":"shop","name":"Cycles Tandem","phone":"+33321951539","website":"https://www.cyclestandem.fr/","osm_id":13157094375}}]}