{"type":"FeatureCollection","features":[{"type":"Feature","geometry":{"type":"Point","coordinates":[2.2121347,50.8325242]},"properties":{"category":"bakery","name":"Banette","osm_id":5085849708}},{"type":"Feature","geometry":{"type":"Point","coordinates":[2.2111974,50.8324508]},"properties":{"category":"bakery","name":"Bertin","osm_id":5085849709}},{"type":"Feature","geometry":{"type":"Point","coordinates":[2.2083551,50.8266953]},"properties":{"category":"repair","osm_id":12083269680}},{"type":"Feature","geometry":{"type":"Point","coordinates":[2.2127849,50.8328066]},"properties":{"category":"bakery","name":"Martinez","osm_id":13084988279}},{"type":"Feature","geometry":{"type":"Point","coordinates":[2.2484402,50.8553472]},"properties":{"category":"bakery","osm_id":13294143246}}]}