{"type":"FeatureCollection","features":[{"type":"Feature","geometry":{"type":"Point","coordinates":[1.6596978,50.8867348]},"properties":{"category":"shop","name":"Les vélos de Nico","website":"https://www.velo-wissant.com/","osm_id":8983338763}},{"type":"Feature","geometry":{"type":"Point","coordinates":[1.6013068,50.8079596]},"properties":{"category":"shop","name":"Chez Jules - location de vélo","phone":"+33 6 27 49 28 40","website":"https://gites-ambleteuse.fr/location-de-velos-electriques-a-ambleteuse-cote-d-opale/#","osm_id":9568531219}},{"type":"Feature","geometry":{"type":"Point","coordinates":[1.6112512,50.8525584]},"properties":{"category":"repair","osm_id":9872011309}},{"type":"Feature","geometry":{"type":"Point","coordinates":[1.6112141,50.8525804]},"properties":{"category":"repair","osm_id":10957589868}},{"type":"Feature","geometry":{"type":"Point","coordinates":[1.6006869,50.8210445]},"properties":{"category":"repair","opening_hours":"24/7","osm_id":13700793218}},{"type":"Feature","geometry":{"type":"Point","coordinates":[1.6007003,50.8210408]},"properties":{"category":"repair","opening_hours":"24/7","osm_id":13700793219}}]}