{"type":"FeatureCollection","features":[{"type":"Feature","geometry":{"type":"Point","coordinates":[2.5804174,50.8085961]},"properties":{"category":"bakery","opening_hours":"Mo-Sa 06:30-13:00,14:30-19:00; Su 06:30-13:00","osm_id":3151756638}},{"type":"Feature","geometry":{"type":"Point","coordinates":[2.5843648,50.8094296]},"properties":{"category":"shop","name":"Cycles Vasseur","opening_hours":"Tu-Fr 09:00-12:00,14:00-19:00; Sa 09:00-12:00,14:00-18:00","osm_id":3257174739}},{"type":"Feature","geometry":{"type":"Point","coordinates":[2.5797463,50.8297544]},"properties":{"category":"compressed_air","osm_id":3463386347}},{"type":"Feature","geometry":{"type":"Point","coordinates":[2.5318403,50.8857129]},"properties":{"category":"bakery","osm_id":6325304959}},{"type":"Feature","geometry":{"type":"Point","coordinates":[2.5504338,50.8409044]},"properties":{"category":"bakery","osm_id":6325321514}},{"type":"Feature","geometry":{"type":"Point","coordinates":[2.5822843,50.8092986]},"properties":{"category":"bakery","name":"Boulangerie Patisserie Deblock","opening_hours":"Tu-Sa 07:00-12:00,13:45-19:00; Su 07:00-12:00","osm_id":12643068444}}]}