{"type":"FeatureCollection","features":[{"type":"Feature","geometry":{"type":"Point","coordinates":[2.4696674,50.8772656]},"properties":{"category":"shop","name":"Cycle Dessy","opening_hours":"Tu,We,Fr 08:30-12:00, 13:30-18:00; Sa 08:30-12:00, 13:30-17:00","phone":"+33 3 28 62 95 48","osm_id":3415604010}},{"type":"Feature","geometry":{"type":"Point","coordinates":[2.4672903,50.8841333]},"properties":{"category":"bakery","name":"Boulangerie Berquez","opening_hours":"Mo-We,Fr 06:00-12:30,14:00-19:00; Sa 06:00-12:30,14:00-18:00; Su 06:30-12:30","phone":"+33 3 28 62 81 08","osm_id":5160548970}},{"type":"Feature","geometry":{"type":"Point","coordinates":[2.4096448,50.832001]},"properties":{"category":"bakery","name":"Boulangerie Pâtisserie","osm_id":6549167385}},{"type":"Feature","geometry":{"type":"Point","coordinates":[2.4316347,50.8865503]},"properties":{"category":"bakery","name":"Chez Céline & Thomas","osm_id":7207968809}},{"type":"Feature","geometry":{"type":"Point","coordinates":[2.4694717,50.8831031]},"properties":{"category":"bakery","name":"Atelier du gourmand","phone":"+33 3 28 65 67 79","osm_id":8367723889}},{"type":"Feature","geometry":{"type":"Point","coordinates":[2.4005693,50.807472]},"properties":{"category":"repair","opening_hours":"24/7","osm_id":9524098558}},{"type":"Feature","geometry":{"type":"Point","coordinates":[2.4682136,50.8814287]},"properties":{"category":"bakery","name":"Boulangerie Acket Jean-François","osm_id":9534345215}},{"type":"Feature","geometry":{"type":"Point","coordinates":[2.4118814,50.8324669]},"properties":{"category":"shop","name":"Thierry Cailliau","osm_id":9713362835}},{"type":"Feature","geometry":{"type":"Point","coordinates":[2.4843833,50.8048592]},"properties":{"category":"repair","osm_id":12031713120}},{"type":"Feature","geometry":{"type":"Point","coordinates":[2.4124627,50.8897553]},"properties":{"category":"repair","osm_id":12083300623}}]}