{"type":"FeatureCollection","features":[{"type":"Feature","geometry":{"type":"Point","coordinates":[2.0676639,50.8721206]},"properties":{"category":"shop","name":"Cycles Fab","website":"https://www.cyclesfab.com/","osm_id":4685283368}},{"type":"Feature","geometry":{"type":"Point","coordinates":[2.047296,50.8066187]},"properties":{"category":"bakery","name":"Le Bel","osm_id":10180788648}},{"type":"Feature","geometry":{"type":"Point","coordinates":[2.0798146,50.8171964]},"properties":{"category":"bakery","name":"Maison Clément","osm_id":10180844603}},{"type":"Feature","geometry":{"type":"Point","coordinates":[2.0676816,50.8530709]},"properties":{"category":"bakery","name":"Le Pain Boulanger","osm_id":13898372352}},{"type":"Feature","geometry":{"type":"Point","coordinates":[2.0246582,50.8755591]},"properties":{"category":"bakery","osm_id":13909559273}},{"type":"Feature","geometry":{"type":"Point","coordinates":[2.080814,50.8780689]},"properties":{"category":"bakery","name":"Aux délices de la Place","osm_id":14109558453}},{"type":"Feature","geometry":{"type":"Point","coordinates":[2.0806366,50.8787727]},"properties":{"category":"bakery","name":"Maison Thomas","osm_id":14109558458}},{"type":"Feature","geometry":{"type":"Point","coordinates":[2.0822731,50.8787338]},"properties":{"category":"bakery","name":"Au Moulin","osm_id":14109558459}}]}