{"type":"FeatureCollection","features":[{"type":"Feature","geometry":{"type":"Point","coordinates":[2.2747487,50.914955]},"properties":{"category":"bakery","name":"Chez Isa & Stéph","osm_id":8503005936}},{"type":"Feature","geometry":{"type":"Point","coordinates":[2.2931091,50.9531636]},"properties":{"category":"bakery","name":"Boulangerie Pâtisserie","osm_id":8749259622}},{"type":"Feature","geometry":{"type":"Point","coordinates":[2.2206031,50.9945681]},"properties":{"category":"bakery","name":"Boulanger Patissier Fonteyne","osm_id":9054411422}},{"type":"Feature","geometry":{"type":"Point","coordinates":[2.2176314,50.9940061]},"properties":{"category":"bakery","osm_id":10076672579}}]}