{"type":"FeatureCollection","features":[{"type":"Feature","geometry":{"type":"Point","coordinates":[1.8463662,50.9501798]},"properties":{"category":"bakery","name":"La Galette Calaisienne","phone":"+33 3 21 19 36 36","osm_id":634777277}},{"type":"Feature","geometry":{"type":"Point","coordinates":[1.8821435,50.9506785]},"properties":{"category":"bakery","name":"Boulangerie Pâtisserie Lamothe","opening_hours":"Mo-Tu,Th-Su 07:00-19:00; We off","phone":"+33 3 91 94 13 57","osm_id":659861212}},{"type":"Feature","geometry":{"type":"Point","coordinates":[1.8491792,50.9470262]},"properties":{"category":"shop","name":"L'Atelier du Déjanté","phone":"+33 9 65 32 74 92","website":"https://www.facebook.com/profile.php?id=100091389789304&locale=fr_FR","osm_id":1206149206}},{"type":"Feature","geometry":{"type":"Point","coordinates":[1.853893,50.9496539]},"properties":{"category":"bakery","name":"Aux délices de Calais","opening_hours":"Mo,We-Su 06:30-12:30,13:30-19:00; Tu off","phone":"+33 3 21 34 63 82","osm_id":1390705423}},{"type":"Feature","geometry":{"type":"Point","coordinates":[1.85375,50.9516843]},"properties":{"category":"bakery","name":"Sophie Lebreuilly","opening_hours":"Mo-Su 06:30-19:30","phone":"+33 3 21 34 89 89","website":"https://commandes.sophie-lebreuilly.com/fr-fr/sophielebreuilly-calaismairie/info/time","osm_id":1390705434}},{"type":"Feature","geometry":{"type":"Point","coordinates":[1.8563921,50.9480258]},"properties":{"category":"bakery","name":"L'authentic Joe","opening_hours":"Mo-Sa 08:30-19:00","osm_id":1964444747}},{"type":"Feature","geometry":{"type":"Point","coordinates":[1.8627547,50.9420832]},"properties":{"category":"bakery","name":"Willier Dominique","osm_id":2059706468}},{"type":"Feature","geometry":{"type":"Point","coordinates":[1.8614963,50.937439]},"properties":{"category":"bakery","name":"Cash Express","osm_id":2301385504}},{"type":"Feature","geometry":{"type":"Point","coordinates":[1.8464404,50.9469772]},"properties":{"category":"shop","name":"Opale Vélo Services","opening_hours":"Mo 15:00-18:30; Tu-Fr 10:00-12:00,15:00-18:30; Sa 10:00-12:00; Jan 1 off; May 1 off; Jul 14 off; Dec 25 off","phone":"+33 3 21 00 07 41","website":"http://opaleveloservices.fr/","osm_id":3242848742}},{"type":"Feature","geometry":{"type":"Point","coordinates":[1.8633476,50.9377441]},"properties":{"category":"bakery","name":"Pain & Levain","phone":"+33 3 21 17 05 46","osm_id":4513623597}},{"type":"Feature","geometry":{"type":"Point","coordinates":[1.8544236,50.9434631]},"properties":{"category":"bakery","name":"Kalimero","osm_id":4985093978}},{"type":"Feature","geometry":{"type":"Point","coordinates":[1.8653978,50.9377804]},"properties":{"category":"shop","name":"Brame Sport","phone":"+33 3 21 34 55 48","osm_id":5177983161}},{"type":"Feature","geometry":{"type":"Point","coordinates":[1.861412,50.9515676]},"properties":{"category":"bakery","osm_id":5758365636}},{"type":"Feature","geometry":{"type":"Point","coordinates":[1.8917261,50.9459798]},"properties":{"category":"bakery","name":"Sophie Lebreuilly","opening_hours":"Mo-Su 06:30-20:00","phone":"+33 3 21 17 43 64","website":"https://commandes.sophie-lebreuilly.com/fr-fr/sophielebreuilly-calais/info/time","osm_id":7188482679}},{"type":"Feature","geometry":{"type":"Point","coordinates":[1.8758036,50.9266838]},"properties":{"category":"bakery","name":"Aux délices de Calais","opening_hours":"Mo 07:00-13:00,15:00-19:00; We-Sa 07:00-13:00,15:00-19:00; Su 07:00-13:00","phone":"+33 3 21 36 56 35","osm_id":7398212172}},{"type":"Feature","geometry":{"type":"Point","coordinates":[1.8065814,50.9433011]},"properties":{"category":"bakery","name":"Sophie Lebreuilly","opening_hours":"Mo-Su 06:30-19:30","phone":"+33 3 21 34 17 25","website":"https://commandes.sophie-lebreuilly.com/fr-fr/sophielebreuilly-coquelles/info/time","osm_id":8325443045}},{"type":"Feature","geometry":{"type":"Point","coordinates":[1.810238,50.9073295]},"properties":{"category":"bakery","osm_id":8476175506}},{"type":"Feature","geometry":{"type":"Point","coordinates":[1.8228501,50.9161134]},"properties":{"category":"bakery","osm_id":8476175507}},{"type":"Feature","geometry":{"type":"Point","coordinates":[1.8375124,50.9530411]},"properties":{"category":"bakery","osm_id":9810657167}},{"type":"Feature","geometry":{"type":"Point","coordinates":[1.8454771,50.9656404]},"properties":{"category":"repair","opening_hours":"24/7","osm_id":9825241732}},{"type":"Feature","geometry":{"type":"Point","coordinates":[1.853362,50.9603785]},"properties":{"category":"bakery","osm_id":10106414517}},{"type":"Feature","geometry":{"type":"Point","coordinates":[1.8950372,50.9477074]},"properties":{"category":"shop","name":"Bike lover family","phone":"+33 6 04 01 94 60","website":"https://www.bike-lover-family.fr/","osm_id":12184415704}},{"type":"Feature","geometry":{"type":"Point","coordinates":[1.8366381,50.946067]},"properties":{"category":"compressed_air","osm_id":12304716436}},{"type":"Feature","geometry":{"type":"Point","coordinates":[1.8044618,50.943815]},"properties":{"category":"shop","name":"Captain Velo","opening_hours":"Mo-Sa 10:00-19:00","phone":"+33619224802","website":"https://www.cubebikes.fr/magasin/433_captain-velo.html","osm_id":12393920255}},{"type":"Feature","geometry":{"type":"Point","coordinates":[1.8543425,50.947745]},"properties":{"category":"bakery","name":"La Mie Câline","opening_hours":"Mo-Su 06:30-19:30","phone":"+33 3 21 85 86 57","website":"https://www.lamiecaline.com/boutiques/calais/","osm_id":13255498518}},{"type":"Feature","geometry":{"type":"Point","coordinates":[1.8770441,50.9402223]},"properties":{"category":"bakery","name":"Boulangerie Louise","osm_id":13952715082}},{"type":"Feature","geometry":{"type":"Point","coordinates":[1.8495759,50.9578848]},"properties":{"category":"bakery","name":"Boulangerie Pâtisserie Royales","osm_id":13955372822}}]}