{"type":"FeatureCollection","features":[{"type":"Feature","geometry":{"type":"Point","coordinates":[2.296134,51.0072447]},"properties":{"category":"bakery","name":"Mets Delices","osm_id":8019975181}},{"type":"Feature","geometry":{"type":"Point","coordinates":[2.2785595,51.0054997]},"properties":{"category":"bakery","name":"Paul","opening_hours":"Mo-Th 08:30-19:00; Fr-Sa 08:30-19:30; Su off","phone":"+33 3 28 27 95 74","website":"https://www.paul.fr/stores/grande_synthe","osm_id":10082566659}},{"type":"Feature","geometry":{"type":"Point","coordinates":[2.2937111,51.0131542]},"properties":{"category":"bakery","name":"La Mie de Pain","osm_id":11116026433}}]}